SA 	31/01/2020 23:30-> 	

METAR FMMI 312330Z 14007KT 110V180 9999 FEW017 17/15 Q1019
           NOSIG=

SA 	31/01/2020 23:00-> 	

METAR FMMI 312300Z 14006KT 110V180 9999 FEW017 17/15 Q1019
           NOSIG=

SA 	31/01/2020 22:30-> 	

METAR FMMI 312230Z 11006KT 9999 FEW017 17/15 Q1020 NOSIG=

SA 	31/01/2020 22:00-> 	

METAR FMMI 312200Z 11009KT 9999 FEW017 17/15 Q1020 NOSIG=

SA 	31/01/2020 21:30-> 	

METAR FMMI 312130Z 11008KT 090V160 9999 FEW017 17/15 Q1020
           NOSIG=

SA 	31/01/2020 21:00-> 	

METAR FMMI 312100Z 11010KT 9999 FEW017 18/15 Q1020 NOSIG=

SA 	31/01/2020 20:30-> 	

METAR FMMI 312030Z 12010KT 9999 FEW017 18/16 Q1020 NOSIG=

SA 	31/01/2020 20:00-> 	

METAR FMMI 312000Z 12011KT 9999 FEW017 18/16 Q1021 NOSIG=

SA 	31/01/2020 19:30-> 	

METAR FMMI 311930Z 11010KT 9999 FEW017 18/16 Q1021 NOSIG=

SA 	31/01/2020 19:00-> 	

METAR FMMI 311900Z 10011KT 9999 FEW017 19/16 Q1020 NOSIG=

SA 	31/01/2020 18:30-> 	

METAR FMMI 311830Z 11009KT 9999 FEW017 19/16 Q1021 NOSIG=

SA 	31/01/2020 18:00-> 	

METAR FMMI 311800Z 10010KT 9999 FEW017 20/16 Q1020 NOSIG=

SA 	31/01/2020 17:30-> 	

METAR FMMI 311730Z 12010KT 100V180 9999 FEW017 20/16 Q1021
           NOSIG=

SA 	31/01/2020 17:00-> 	

METAR FMMI 311700Z 10012KT 9999 FEW017 21/17 Q1020 NOSIG=

SA 	31/01/2020 16:30-> 	

METAR FMMI 311630Z 10011KT 9999 FEW017 21/17 Q1019 NOSIG=

SA 	31/01/2020 16:00-> 	

METAR FMMI 311600Z 10013KT 9999 FEW020CB 22/16 Q1018 NOSIG=

SA 	31/01/2020 15:30-> 	

METAR FMMI 311530Z 11011KT 090V150 9999 FEW020CB 23/15 Q1018
           NOSIG=

SA 	31/01/2020 15:00-> 	

METAR FMMI 311500Z 12011KT 100V170 9999 FEW020CB 24/12 Q1018
           NOSIG=

SA 	31/01/2020 14:30-> 	

METAR FMMI 311430Z 14010KT 110V180 9999 SCT020CB 26/11 Q1018
           NOSIG=

SA 	31/01/2020 14:00-> 	

METAR FMMI 311400Z 11012KT 090V160 9999 SCT020CB 26/13 Q1018
           NOSIG=

SA 	31/01/2020 13:30-> 	

METAR FMMI 311330Z 14010KT 110V170 9999 SCT020CB 26/12 Q1018
           NOSIG=

SA 	31/01/2020 13:00-> 	

METAR FMMI 311300Z 13012KT 090V180 9999 SCT020CB 26/14 Q1018
           NOSIG=

SA 	31/01/2020 12:30-> 	

METAR FMMI 311230Z 14011KT 100V190 9999 SCT020CB 27/15 Q1018
           NOSIG=

SA 	31/01/2020 12:00-> 	

METAR FMMI 311200Z 15009KT 100V190 9999 SCT020CB 27/14 Q1018
           NOSIG=

SA 	31/01/2020 11:30-> 	

METAR FMMI 311130Z 15010KT 090V220 9999 BKN020 27/15 Q1018
           NOSIG=

SA 	31/01/2020 11:00-> 	

METAR FMMI 311100Z 15008KT 100V200 9999 BKN020 27/15 Q1019
           NOSIG=

SA 	31/01/2020 10:30-> 	

METAR FMMI 311030Z 14008KT 080V190 9999 BKN020 26/15 Q1019
           NOSIG=

SA 	31/01/2020 10:00-> 	

METAR FMMI 311000Z 14009KT 9999 BKN020 26/14 Q1019 NOSIG=

SA 	31/01/2020 09:30-> 	

METAR FMMI 310930Z 15010KT 110V200 9999 BKN020 27/15 Q1019
           NOSIG=

SA 	31/01/2020 09:00-> 	

METAR FMMI 310900Z 14011KT 090V190 9999 BKN020 26/15 Q1019
           NOSIG=

SA 	31/01/2020 08:30-> 	

METAR FMMI 310830Z 14011KT 100V190 9999 BKN020 26/14 Q1020
           NOSIG=

SA 	31/01/2020 08:00-> 	

METAR FMMI 310800Z 14010KT 090V180 9999 BKN020 25/16 Q1020
           NOSIG=

SA 	31/01/2020 07:30-> 	

METAR FMMI 310730Z 13011KT 090V180 9999 BKN020 25/15 Q1020
           NOSIG=

SA 	31/01/2020 07:00-> 	

METAR FMMI 310700Z 14010KT 100V190 9999 BKN020 24/16 Q1020
           NOSIG=

SA 	31/01/2020 06:30-> 	

METAR FMMI 310630Z 13010KT 100V190 9999 BKN017 24/17 Q1021
           NOSIG=

SA 	31/01/2020 06:00-> 	

METAR FMMI 310600Z 14009KT 110V190 9999 SCT017 23/17 Q1021
           NOSIG=

SA 	31/01/2020 05:30-> 	

METAR FMMI 310530Z 16009KT 130V190 9999 SCT017 22/16 Q1021
           NOSIG=

SA 	31/01/2020 05:00-> 	

METAR FMMI 310500Z 17008KT 130V200 9999 SCT017 21/16 Q1021
           NOSIG=

SA 	31/01/2020 04:30-> 	

METAR FMMI 310430Z 16008KT 110V190 9999 FEW020 20/16 Q1020
           NOSIG=

SA 	31/01/2020 04:00-> 	

METAR FMMI 310400Z 16008KT 130V190 9999 FEW017 20/16 Q1020
           NOSIG=

SA 	31/01/2020 03:30-> 	

METAR FMMI 310330Z 16006KT 130V190 9999 FEW017 19/16 Q1020
           NOSIG=

SA 	31/01/2020 03:00-> 	

METAR FMMI 310300Z 16005KT 110V180 9999 FEW017 18/16 Q1020
           NOSIG=

SA 	31/01/2020 02:30-> 	

METAR FMMI 310230Z 15005KT 120V180 9999 FEW010 SCT020 17/15
           Q1020 NOSIG=

SA 	31/01/2020 02:00-> 	

METAR FMMI 310200Z 12007KT 100V160 9999 FEW017 SCT020 18/16
           Q1020 NOSIG=

SA 	31/01/2020 01:30-> 	

METAR FMMI 310130Z 09007KT 9999 FEW017 SCT020 18/15 Q1019
           NOSIG=

SA 	31/01/2020 01:00-> 	

METAR FMMI 310100Z 08007KT 9999 FEW017 BKN020 18/16 Q1019
           NOSIG=

SA 	31/01/2020 00:30-> 	

METAR FMMI 310030Z 07006KT 9999 FEW017 BKN020 19/16 Q1019
           NOSIG=

SA 	31/01/2020 00:00-> 	

METAR FMMI 310000Z 09007KT 9999 FEW017 BKN020 19/16 Q1019
           NOSIG=

SA 	30/01/2020 23:30-> 	

METAR FMMI 302330Z 09006KT 9999 FEW017 BKN020 18/16 Q1019
           NOSIG=

SA 	30/01/2020 23:00-> 	

METAR FMMI 302300Z 09007KT 9999 FEW017 BKN020 18/16 Q1019
           NOSIG=

SA 	30/01/2020 22:30-> 	

METAR FMMI 302230Z 10008KT 9999 FEW017 BKN020 19/16 Q1020
           NOSIG=

SA 	30/01/2020 22:00-> 	

METAR FMMI 302200Z 10009KT 9999 FEW017 BKN020 19/16 Q1020
           NOSIG=

SA 	30/01/2020 21:30-> 	

METAR FMMI 302130Z 11010KT 9999 FEW017 BKN020 19/16 Q1020
           NOSIG=

SA 	30/01/2020 21:00-> 	

METAR FMMI 302100Z 10011KT 9999 FEW017 BKN020 19/17 Q1020
           NOSIG=

SA 	30/01/2020 20:30-> 	

METAR FMMI 302030Z 08008KT 9999 FEW017CB BKN020 20/18 Q1020
           NOSIG=

SA 	30/01/2020 20:00-> 	

METAR FMMI 302000Z 11009KT 9999 FEW017CB BKN020 20/19 Q1020
           NOSIG=

SA 	30/01/2020 19:30-> 	

METAR FMMI 301930Z 06004KT 9999 FEW017CB BKN020 20/19 Q1020
           NOSIG=

SA 	30/01/2020 19:00-> 	

METAR FMMI 301900Z 09005KT 9999 FEW017CB BKN020 20/19 Q1020
           NOSIG=

SA 	30/01/2020 18:30-> 	

METAR FMMI 301830Z 09006KT 9999 -RA FEW017CB BKN020 20/19
           Q1020 TEMPO TSRA=

SA 	30/01/2020 18:00-> 	

METAR FMMI 301800Z 17005KT 9999 VCTS SCT017CB BKN020 20/19
           Q1020 TEMPO TSRA=

SA 	30/01/2020 17:30-> 	

METAR FMMI 301730Z VRB02KT 9999 VCTS SCT017CB BKN020 20/18
           Q1020 TEMPO TSRA=

SA 	30/01/2020 17:00-> 	

METAR FMMI 301700Z 24004KT 200V280 9999 VCTS SCT017CB BKN020
           20/18 Q1020 TEMPO TSRA=

SA 	30/01/2020 16:30-> 	

METAR FMMI 301630Z 22009KT 190V250 9999 -TSRA SCT017CB BKN020
           20/18 Q1020 TEMPO 4000 TSRA=

SA 	30/01/2020 16:00-> 	

METAR FMMI 301600Z 23012KT 190V270 9999 VCTS SCT017CB BKN020
           21/17 Q1020 TEMPO TSRA=

SA 	30/01/2020 15:30-> 	

METAR FMMI 301530Z 12007KT 090V190 9999 VCTS SCT017CB BKN020
           24/18 Q1019 TEMPO TSRA=

SA 	30/01/2020 15:00-> 	

METAR FMMI 301500Z 09009KT 9999 VCTS SCT020CB SCT023 24/18
           Q1018 TEMPO 4000 TSRA=

SA 	30/01/2020 14:30-> 	

METAR FMMI 301430Z 09011KT 9999 SCT020CB SCT023 24/18 Q1018
           TEMPO TS=

SA 	30/01/2020 14:00-> 	

METAR FMMI 301400Z 09010KT 9999 SCT020CB 26/18 Q1017 TEMPO
           TS=

SA 	30/01/2020 13:30-> 	

METAR FMMI 301330Z 08011KT 9999 SCT020CB 26/19 Q1016 TEMPO
           TS=

SA 	30/01/2020 13:00-> 	

METAR FMMI 301300Z 09009KT 9999 BKN020CB 27/19 Q1017 TEMPO
           TS=

SA 	30/01/2020 12:30-> 	

METAR FMMI 301230Z 09011KT 060V120 9999 SCT020CB 28/18 Q1017
           NOSIG=

SA 	30/01/2020 12:00-> 	

METAR FMMI 301200Z 11007KT 060V180 9999 BKN020CB 28/19 Q1017
           NOSIG=

SA 	30/01/2020 11:30-> 	

METAR FMMI 301130Z 10006KT 060V150 9999 BKN020CB 29/18 Q1017
           NOSIG=

SA 	30/01/2020 11:00-> 	

METAR FMMI 301100Z 10007KT 070V170 9999 BKN020CB 29/19 Q1018
           NOSIG=

SA 	30/01/2020 10:30-> 	

METAR FMMI 301030Z 07007KT 040V110 9999 BKN020CB 28/19 Q1018
           NOSIG=

SA 	30/01/2020 10:00-> 	

METAR FMMI 301000Z 06005KT 360V140 9999 BKN020CB 27/19 Q1018
           NOSIG=

SA 	30/01/2020 09:30-> 	

METAR FMMI 300930Z VRB04KT 9999 FEW020 BKN023 29/18 Q1019
           NOSIG=

SA 	30/01/2020 09:00-> 	

METAR FMMI 300900Z VRB04KT 9999 SCT020 SCT023 29/18 Q1019
           NOSIG=

SA 	30/01/2020 08:30-> 	

METAR FMMI 300830Z 11005KT 070V180 9999 FEW020 SCT023 27/18
           Q1019 NOSIG=

SA 	30/01/2020 08:00-> 	

METAR FMMI 300800Z 11007KT 070V180 9999 FEW020 SCT023 27/18
           Q1020 NOSIG=

SA 	30/01/2020 07:30-> 	

METAR FMMI 300730Z 11005KT 030V170 9999 FEW020 SCT023 27/18
           Q1020 NOSIG=

SA 	30/01/2020 07:00-> 	

METAR FMMI 300700Z 09004KT 010V140 9999 FEW020CB SCT023 26/18
           Q1020 NOSIG=

SA 	30/01/2020 06:30-> 	

METAR FMMI 300630Z 08005KT 030V120 9999 FEW020CB SCT025 25/17
           Q1020 NOSIG=

SA 	30/01/2020 06:00-> 	

METAR FMMI 300600Z 10004KT 040V160 9999 SCT020CB SCT025 25/17
           Q1020 NOSIG=

SA 	30/01/2020 05:30-> 	

METAR FMMI 300530Z 08007KT 9999 FEW020 BKN025 22/17 Q1021
           NOSIG=

SA 	30/01/2020 05:00-> 	

METAR FMMI 300500Z 09007KT 060V120 9999 FEW017 BKN020 22/17
           Q1021 NOSIG=

SA 	30/01/2020 04:30-> 	

METAR FMMI 300430Z 09005KT 060V120 9999 FEW017 BKN020 21/17
           Q1020 NOSIG=

SA 	30/01/2020 04:00-> 	

METAR FMMI 300400Z 10005KT 070V140 9999 FEW010 BKN020 20/17
           Q1020 NOSIG=

SA 	30/01/2020 03:30-> 	

METAR FMMI 300330Z 10004KT 9999 FEW010 BKN020 20/18 Q1020
           NOSIG=

SA 	30/01/2020 03:00-> 	

METAR FMMI 300300Z 10007KT 9999 FEW010 BKN020 19/18 Q1019
           NOSIG=

SA 	30/01/2020 02:30-> 	

METAR FMMI 300230Z 10007KT 9999 FEW004 BKN020 20/18 Q1019
           NOSIG=

SA 	30/01/2020 02:00-> 	

METAR FMMI 300200Z 09007KT 9999 FEW010 BKN020 20/18 Q1019
           NOSIG=

SA 	30/01/2020 01:30-> 	

METAR FMMI 300130Z 09005KT 9999 FEW010 BKN020 21/19 Q1018
           NOSIG=

SA 	30/01/2020 01:00-> 	

METAR FMMI 300100Z 10004KT 070V130 9999 FEW010 BKN020 21/19
           Q1018 NOSIG=

SA 	30/01/2020 00:30-> 	

METAR FMMI 300030Z 10005KT 9999 FEW010 BKN020 20/19 Q1018
           NOSIG=

SA 	30/01/2020 00:00-> 	

METAR FMMI 300000Z 08004KT 9999 FEW010 BKN020 20/19 Q1018
           NOSIG=

SA 	29/01/2020 23:30-> 	

METAR FMMI 292330Z 05004KT 9999 FEW010 BKN020 20/19 Q1018
           NOSIG=

SA 	29/01/2020 23:00-> 	

METAR FMMI 292300Z 08004KT 9999 FEW010 BKN020 21/19 Q1018
           NOSIG=

SA 	29/01/2020 22:30-> 	

METAR FMMI 292230Z 08004KT 9999 FEW017 BKN020 21/19 Q1019
           NOSIG=

SA 	29/01/2020 22:00-> 	

METAR FMMI 292200Z 08005KT 9999 FEW017 BKN020 21/19 Q1019
           NOSIG=

SA 	29/01/2020 21:30-> 	

METAR FMMI 292130Z 10004KT 9999 FEW017 BKN020 20/19 Q1019
           NOSIG=

SA 	29/01/2020 21:00-> 	

METAR FMMI 292100Z 11005KT 9999 FEW017 BKN020 20/19 Q1019
           NOSIG=

SA 	29/01/2020 20:30-> 	

METAR FMMI 292030Z 11005KT 080V150 9999 FEW017 BKN020 21/19
           Q1019 NOSIG=

SA 	29/01/2020 20:00-> 	

METAR FMMI 292000Z 09005KT 060V120 9999 FEW017 BKN020 21/19
           Q1020 NOSIG=

SA 	29/01/2020 19:30-> 	

METAR FMMI 291930Z 11006KT 080V140 9999 FEW017CB BKN020 21/19
           Q1019 NOSIG=

SA 	29/01/2020 19:00-> 	

METAR FMMI 291900Z 08007KT 9999 VCTS FEW020CB BKN020 20/18
           Q1019 TEMPO TSRA=

SA 	29/01/2020 18:30-> 	

METAR FMMI 291830Z 08006KT 9999 VCTS FEW020CB BKN020 21/19
           Q1019 TEMPO TSRA=

SA 	29/01/2020 18:00-> 	

METAR FMMI 291800Z 08007KT 9999 TS FEW020CB BKN023 22/19
           Q1019 TEMPO 4000 TSRA=

SA 	29/01/2020 17:30-> 	

METAR FMMI 291730Z 10008KT 9999 TS FEW020CB BKN023 22/18
           Q1020 TEMPO 4000 TSRA=

SA 	29/01/2020 17:00-> 	

METAR FMMI 291700Z 09006KT 9999 TS FEW020CB BKN023 22/18
           Q1019 TEMPO 4000 TSRA=

SA 	29/01/2020 16:30-> 	

METAR FMMI 291630Z 05004KT 010V070 9999 TS FEW020CB SCT023
           23/20 Q1018 TEMPO 4000 TSRA=

SA 	29/01/2020 16:00-> 	

METAR FMMI 291600Z 01004KT 330V050 9999 TS SCT020CB SCT023
           24/19 Q1018 TEMPO 4000 TSRA=

SA 	29/01/2020 15:30-> 	

METAR FMMI 291530Z 35006KT 9999 TS SCT020CB SCT023 25/19
           Q1017 TEMPO 4000 TSRA=

SA 	29/01/2020 15:00-> 	

METAR FMMI 291500Z 33010KT 9999 TS SCT020CB SCT023 25/19
           Q1017 TEMPO 4000 TSRA=

SA 	29/01/2020 14:30-> 	

METAR FMMI 291430Z 31011KT 9999 TS SCT020CB 27/19 Q1016 TEMPO
           4000 TSRA=

SP 	29/01/2020 14:10-> 	

SPECI FMMI 291410Z 30009KT 260V340 9999 TS SCT020CB 28/20
           Q1016 TEMPO 4000 TSRA=

SA 	29/01/2020 14:00-> 	

METAR FMMI 291400Z 28010KT 250V310 9999 SCT020CB 27/19 Q1016
           TEMPO 4000 TSRA=

SA 	29/01/2020 13:30-> 	

METAR FMMI 291330Z VRB02KT 9999 SCT020CB 29/17 Q1016 TEMPO
           4000 TSRA=

SA 	29/01/2020 13:00-> 	

METAR FMMI 291300Z 04004KT 360V090 9999 SCT020CB 29/16 Q1015
           TEMPO 4000 TSRA=

SA 	29/01/2020 12:30-> 	

METAR FMMI 291230Z VRB03KT 9999 SCT020CB 32/18 Q1015 TEMPO
           TS=

SA 	29/01/2020 12:00-> 	

METAR FMMI 291200Z VRB03KT 9999 SCT020CB 31/18 Q1015 NOSIG=

SA 	29/01/2020 11:30-> 	

METAR FMMI 291130Z 05004KT 360V100 9999 SCT020CB 30/18 Q1016
           NOSIG=

SA 	29/01/2020 11:00-> 	

METAR FMMI 291100Z 02004KT 290V070 9999 FEW020CB SCT023 29/18
           Q1016 NOSIG=

SA 	29/01/2020 10:30-> 	

METAR FMMI 291030Z VRB02KT 9999 FEW020CB SCT023 29/18 Q1017
           NOSIG=

SA 	29/01/2020 10:00-> 	

METAR FMMI 291000Z VRB03KT 9999 BKN020TCU 29/18 Q1017 NOSIG=

SA 	29/01/2020 09:30-> 	

METAR FMMI 290930Z 02004KT 320V110 9999 BKN020TCU 28/19 Q1017
           NOSIG=

SA 	29/01/2020 09:00-> 	

METAR FMMI 290900Z 36005KT 290V060 9999 BKN020TCU 27/19 Q1018
           NOSIG=

SA 	29/01/2020 08:30-> 	

METAR FMMI 290830Z 02006KT 340V080 9999 BKN020 28/20 Q1018
           NOSIG=

SA 	29/01/2020 08:00-> 	

METAR FMMI 290800Z 07005KT 040V170 9999 BKN020 27/17 Q1018
           NOSIG=

SA 	29/01/2020 07:30-> 	

METAR FMMI 290730Z 06006KT 010V130 9999 BKN020 27/18 Q1018
           NOSIG=

SA 	29/01/2020 07:00-> 	

METAR FMMI 290700Z 04006KT 340V110 9999 BKN020 26/19 Q1018
           NOSIG=

SA 	29/01/2020 06:30-> 	

METAR FMMI 290630Z 06006KT 360V100 9999 SCT017 26/19 Q1018
           NOSIG=

SA 	29/01/2020 06:00-> 	

METAR FMMI 290600Z 04005KT 340V080 9999 SCT017 25/19 Q1018
           NOSIG=

SA 	29/01/2020 05:30-> 	

METAR FMMI 290530Z 07005KT 9999 FEW017 BKN020 24/19 Q1018
           NOSIG=

SA 	29/01/2020 05:00-> 	

METAR FMMI 290500Z 06004KT 9999 FEW017 BKN020 23/19 Q1018
           NOSIG=

SA 	29/01/2020 04:30-> 	

METAR FMMI 290430Z VRB03KT 9999 FEW017 BKN020 23/19 Q1018
           NOSIG=

SA 	29/01/2020 04:00-> 	

METAR FMMI 290400Z VRB02KT 9999 FEW010 SCT020 21/20 Q1018
           NOSIG=

SA 	29/01/2020 03:30-> 	

METAR FMMI 290330Z 06004KT 9999 FEW004 BKN020 20/19 Q1018
           NOSIG=

SA 	29/01/2020 03:00-> 	

METAR FMMI 290300Z 03001KT 9999 FEW004 BKN020 20/19 Q1017
           NOSIG=

SA 	29/01/2020 02:30-> 	

METAR FMMI 290230Z VRB03KT 9999 FEW010 BKN020 20/19 Q1017
           NOSIG=

SA 	29/01/2020 02:00-> 	

METAR FMMI 290200Z VRB01KT 9999 FEW010 BKN020 20/19 Q1017
           NOSIG=

SA 	29/01/2020 01:30-> 	

METAR FMMI 290130Z 08001KT 9999 FEW010 BKN020 20/19 Q1017
           NOSIG=

SA 	29/01/2020 01:00-> 	

METAR FMMI 290100Z VRB02KT 9999 FEW010 BKN020 20/20 Q1017
           NOSIG=

SA 	29/01/2020 00:30-> 	

METAR FMMI 290030Z 04003KT 9999 FEW010 BKN020 20/19 Q1017
           NOSIG=

SA 	29/01/2020 00:00-> 	

METAR FMMI 290000Z 35002KT 9999 FEW010 BKN020 20/19 Q1017
           NOSIG=

SA 	28/01/2020 23:30-> 	

METAR FMMI 282330Z 03004KT 9999 FEW010 BKN020 20/19 Q1017
           NOSIG=

SA 	28/01/2020 23:00-> 	

METAR FMMI 282300Z 04004KT 9999 FEW010 BKN020 20/19 Q1017
           NOSIG=

SA 	28/01/2020 22:30-> 	

METAR FMMI 282230Z 03004KT 9999 VCTS FEW010 FEW017CB BKN020
           20/19 Q1017 NOSIG=

SA 	28/01/2020 22:00-> 	

METAR FMMI 282200Z VRB02KT 9999 VCTS FEW010 FEW017CB BKN020
           20/19 Q1017 NOSIG=

SA 	28/01/2020 21:30-> 	

METAR FMMI 282130Z 00000KT 9999 VCTS FEW010 FEW017CB BKN020
           20/19 Q1017 NOSIG=

SA 	28/01/2020 21:00-> 	

METAR FMMI 282100Z 01003KT 9999 FEW010 FEW017CB BKN020 20/19
           Q1018 NOSIG=

SA 	28/01/2020 20:30-> 	

METAR FMMI 282030Z VRB01KT 9999 VCTS FEW010 FEW017CB BKN020
           20/19 Q1018 NOSIG=

SA 	28/01/2020 20:00-> 	

METAR FMMI 282000Z 08005KT 9999 FEW010 FEW017CB BKN020 20/19
           Q1018 NOSIG=

SA 	28/01/2020 19:30-> 	

METAR FMMI 281930Z 10004KT 070V140 9999 FEW010 FEW017CB BKN020
           20/20 Q1018 NOSIG=

SP 	28/01/2020 19:25-> 	

SPECI FMMI 281925Z 10004KT 070V150 9999 FEW010 FEW017CB BKN020
           20/20 Q1018 NOSIG=

SA 	28/01/2020 19:00-> 	

METAR FMMI 281900Z VRB04KT 9999 -TSRA FEW010 SCT017CB BKN020
           20/19 Q1018 NOSIG=

SA 	28/01/2020 18:30-> 	

METAR FMMI 281830Z 11004KT 080V150 9999 -TSRA FEW010 SCT017CB
           BKN020 20/19 Q1018 TEMPO 4000 TSRA=

SA 	28/01/2020 18:00-> 	

METAR FMMI 281800Z 00000KT 8000 -TSRA FEW010 SCT017CB BKN020
           20/19 Q1018 TEMPO 4000 TSRA=

SA 	28/01/2020 17:30-> 	

METAR FMMI 281730Z 17006KT 9000 -TSRA FEW010 SCT017CB BKN020
           20/19 Q1018 TEMPO 4000 TSRA=

SP 	28/01/2020 17:00-> 	

SPECI FMMI 281700Z 16002KT VIS/08KM ORAGE SUR STATION 2CU/CBTS510M
           6SC600M=

SA 	28/01/2020 17:00-> 	

METAR FMMI 281700Z 17007KT 140V200 7000 -TSRA FEW010 SCT017CB
           BKN020 21/19 Q1017 TEMPO 4000 TSRA=

SP 	28/01/2020 16:45-> 	

SPECI FMMI 281645Z 00000KT VIS/08KM ORAGE SUR STATION 2CU/CBTS510M
           6SC600M=

SA 	28/01/2020 16:30-> 	

METAR FMMI 281630Z VRB02KT 9999 TS FEW010 SCT017CB BKN020
           21/19 Q1017 NOSIG=

SA 	28/01/2020 16:00-> 	

METAR FMMI 281600Z 08003KT 030V150 9999 TS FEW010 SCT017CB
           BKN020 21/19 Q1016 NOSIG=

SA 	28/01/2020 15:30-> 	

METAR FMMI 281530Z 09010KT 060V140 7000 -TSRA FEW010 SCT017CB
           BKN020 21/19 Q1016 NOSIG=

SP 	28/01/2020 15:21-> 	

SPECI FMMI 281521Z 09010KT 060V130 7000 -TSRA FEW010 SCT017CB
           BKN020 21/19 Q1016 NOSIG=

SA 	28/01/2020 15:00-> 	

METAR FMMI 281500Z 18011KT 140V200 4500 TSRA FEW010 SCT017CB
           BKN020 23/20 Q1016 TEMPO 8000=

SP 	28/01/2020 14:56-> 	

SPECI FMMI 281456Z 18011KT 140V200 4500 TSRA FEW010 SCT017CB
           BKN020 23/20 Q1016 TEMPO 8000=

SP 	28/01/2020 14:31-> 	

SPECI FMMI 281431Z 28006KT 250V310 9999 TS SCT020CB SCT023
           27/17 Q1015 TEMPO 4500 TSRA=

SA 	28/01/2020 14:30-> 	

METAR FMMI 281430Z 30008KT 9999 SCT020CB SCT023 27/18 Q1015
           TEMPO 4500 TSRA=

SA 	28/01/2020 14:00-> 	

METAR FMMI 281400Z 30008KT 250V010 9999 SCT020CB SCT023 29/18
           Q1015 TEMPO 4500 TSRA=

SA 	28/01/2020 13:30-> 	

METAR FMMI 281330Z 29008KT 250V330 9999 SCT020CB SCT023 30/18
           Q1015 TEMPO 4500 TSRA=

SA 	28/01/2020 13:00-> 	

METAR FMMI 281300Z 31011KT 9999 BKN023CB 29/19 Q1015 NOSIG=

SP 	28/01/2020 12:53-> 	

SPECI FMMI 281253Z 31011KT 9999 BKN023CB 29/19 Q1015 NOSIG=

SA 	28/01/2020 12:30-> 	

METAR FMMI 281230Z 06005KT 020V080 9999 BKN023CB 27/18 Q1015
           NOSIG=

SA 	28/01/2020 12:00-> 	

METAR FMMI 281200Z 04007KT 010V090 9999 BKN023CB 28/18 Q1015
           NOSIG=

SA 	28/01/2020 11:30-> 	

METAR FMMI 281130Z VRB04KT 9999 BKN023CB 30/18 Q1015 NOSIG=

SA 	28/01/2020 11:00-> 	

METAR FMMI 281100Z 32004KT 270V020 9999 BKN023 29/18 Q1016
           NOSIG=

SA 	28/01/2020 10:30-> 	

METAR FMMI 281030Z 05004KT 020V180 9999 BKN023 29/18 Q1016
           NOSIG=

SA 	28/01/2020 10:00-> 	

METAR FMMI 281000Z VRB03KT 9999 BKN023 28/17 Q1016 NOSIG=

SA 	28/01/2020 09:30-> 	

METAR FMMI 280930Z VRB03KT 9999 FEW020 SCT023 28/17 Q1017
           NOSIG=

SA 	28/01/2020 09:00-> 	

METAR FMMI 280900Z 26004KT 170V310 9999 FEW020 SCT023 26/17
           Q1017 NOSIG=

SA 	28/01/2020 08:30-> 	

METAR FMMI 280830Z VRB04KT 9999 FEW020 SCT023 27/17 Q1017
           NOSIG=

SA 	28/01/2020 08:00-> 	

METAR FMMI 280800Z 23005KT 130V270 9999 FEW020 SCT023 26/17
           Q1017 NOSIG=

SA 	28/01/2020 07:30-> 	

METAR FMMI 280730Z VRB02KT 9999 FEW020 SCT023 26/17 Q1017
           NOSIG=

SA 	28/01/2020 07:00-> 	

METAR FMMI 280700Z 17003KT 110V240 9999 FEW020 SCT023 25/18
           Q1017 NOSIG=

SA 	28/01/2020 06:30-> 	

METAR FMMI 280630Z 21004KT 170V290 9999 FEW017 BKN020 24/17
           Q1017 NOSIG=

SA 	28/01/2020 06:00-> 	

METAR FMMI 280600Z VRB01KT 9999 FEW017 BKN020 23/18 Q1017
           NOSIG=

SA 	28/01/2020 05:30-> 	

METAR FMMI 280530Z VRB02KT 9999 FEW017 BKN020 22/18 Q1018
           NOSIG=

SA 	28/01/2020 05:00-> 	

METAR FMMI 280500Z VRB02KT 9999 FEW017 BKN020 22/19 Q1018
           NOSIG=

SA 	28/01/2020 04:30-> 	

METAR FMMI 280430Z VRB02KT 9999 SCT017 SCT024 20/19 Q1018
           NOSIG=

SA 	28/01/2020 04:00-> 	

METAR FMMI 280400Z VRB03KT 9999 FEW010 SCT017 BKN024 20/18
           Q1018 NOSIG=

SA 	28/01/2020 03:30-> 	

METAR FMMI 280330Z 00000KT 9999 FEW017 BKN024 19/18 Q1017
           NOSIG=

SA 	28/01/2020 03:00-> 	

METAR FMMI 280300Z VRB03KT 9999 FEW007 BKN020 19/18 Q1017
           NOSIG=

SA 	28/01/2020 02:30-> 	

METAR FMMI 280230Z 04003KT 9999 FEW005 BKN020 19/18 Q1017
           NOSIG=

SA 	28/01/2020 02:00-> 	

METAR FMMI 280200Z 06004KT 9999 FEW017 BKN023 19/18 Q1016
           NOSIG=

SA 	28/01/2020 01:30-> 	

METAR FMMI 280130Z 06005KT 9999 FEW010 SCT020 19/18 Q1016
           NOSIG=

SA 	28/01/2020 01:00-> 	

METAR FMMI 280100Z 06004KT 9999 FEW009 SCT020 19/18 Q1016
           NOSIG=

SA 	28/01/2020 00:30-> 	

METAR FMMI 280030Z 04004KT 9999 FEW009 SCT020 19/18 Q1016
           NOSIG=

SA 	28/01/2020 00:00-> 	

METAR FMMI 280000Z 06003KT 9999 FEW009 SCT020 19/18 Q1016
           NOSIG=

SA 	27/01/2020 23:30-> 	

METAR FMMI 272330Z 04004KT 9999 FEW007 SCT020 19/18 Q1016
           NOSIG=

SA 	27/01/2020 23:00-> 	

METAR FMMI 272300Z 10004KT 9999 -DZ SCT006 BKN017 19/18 Q1017
           NOSIG=

SA 	27/01/2020 22:30-> 	

METAR FMMI 272230Z 08003KT 9999 -DZ SCT006 BKN017 19/18 Q1017
           NOSIG=

SA 	27/01/2020 22:00-> 	

METAR FMMI 272200Z 06001KT 9999 -DZ SCT006 BKN017 19/19 Q1017
           NOSIG=

SA 	27/01/2020 21:30-> 	

METAR FMMI 272130Z 00000KT 9999 FEW010 BKN020 19/19 Q1017
           NOSIG=

SA 	27/01/2020 21:00-> 	

METAR FMMI 272100Z 00000KT 9999 FEW010 BKN017 19/19 Q1018
           NOSIG=

SA 	27/01/2020 20:30-> 	

METAR FMMI 272030Z VRB02KT 9999 FEW010 BKN017 19/19 Q1018
           TEMPO 4500 -RADZ=

SA 	27/01/2020 20:00-> 	

METAR FMMI 272000Z 00000KT 8000 -RADZ FEW010 BKN017 20/18
           Q1019 NOSIG=

SA 	27/01/2020 19:30-> 	

METAR FMMI 271930Z VRB02KT 8000 -RADZ FEW010 BKN017 20/18
           Q1019 NOSIG=

SA 	27/01/2020 19:00-> 	

METAR FMMI 271900Z 13005KT 090V200 9999 FEW017CB BKN023 20/18
           Q1019 NOSIG=

SA 	27/01/2020 18:30-> 	

METAR FMMI 271830Z 13008KT 100V170 9999 FEW017CB BKN023 20/18
           Q1019 NOSIG=

SA 	27/01/2020 18:00-> 	

METAR FMMI 271800Z 09006KT 9999 FEW017CB BKN023 20/18 Q1018
           NOSIG=

SA 	27/01/2020 17:30-> 	

METAR FMMI 271730Z 11009KT 9999 FEW020CB BKN023 20/18 Q1018
           NOSIG=

SA 	27/01/2020 17:00-> 	

METAR FMMI 271700Z 10008KT 9999 FEW020CB BKN023 21/18 Q1018
           NOSIG=

SA 	27/01/2020 16:30-> 	

METAR FMMI 271630Z 10009KT 9999 FEW020CB SCT023 21/18 Q1018
           NOSIG=

SA 	27/01/2020 16:00-> 	

METAR FMMI 271600Z 10011KT 9999 FEW020CB SCT023 21/18 Q1018
           NOSIG=

SA 	27/01/2020 15:30-> 	

METAR FMMI 271530Z 11011KT 9999 FEW020CB SCT023 22/19 Q1017
           NOSIG=

SA 	27/01/2020 15:00-> 	

METAR FMMI 271500Z 09007KT 9999 VCSH SCT020CB 24/18 Q1017
           NOSIG=

SA 	27/01/2020 14:30-> 	

METAR FMMI 271430Z 14004KT 090V190 9999 VCSH SCT020CB 24/18
           Q1017 NOSIG=

SA 	27/01/2020 14:00-> 	

METAR FMMI 271400Z 19007KT 9999 VCSH SCT020CB BKN033 24/18
           Q1017 TEMPO 4500 SHRA=

SA 	27/01/2020 13:30-> 	

METAR FMMI 271330Z VRB03KT 9999 SCT020CB BKN050 25/18 Q1017
           NOSIG=

SA 	27/01/2020 13:00-> 	

METAR FMMI 271300Z VRB03KT 9999 SCT020CB BKN050 25/18 Q1017
           NOSIG=

SA 	27/01/2020 12:30-> 	

METAR FMMI 271230Z 22005KT 180V290 9999 SCT020CB BKN050 26/18
           Q1017 NOSIG=

SA 	27/01/2020 12:00-> 	

METAR FMMI 271200Z VRB04KT 9999 SCT020CB BKN050 27/18 Q1017
           NOSIG=

SA 	27/01/2020 11:30-> 	

METAR FMMI 271130Z VRB04KT 9999 SCT020TCU BKN040 26/17 Q1018
           NOSIG=

SA 	27/01/2020 11:00-> 	

METAR FMMI 271100Z 18004KT 140V310 9999 SCT020TCU BKN040
           26/18 Q1018 NOSIG=

SA 	27/01/2020 10:30-> 	

METAR FMMI 271030Z VRB03KT 9999 SCT020 BKN042 26/18 Q1018
           NOSIG=

SA 	27/01/2020 10:00-> 	

METAR FMMI 271000Z VRB02KT 9999 SCT020 BKN046 25/18 Q1019
           NOSIG=

SA 	27/01/2020 09:30-> 	

METAR FMMI 270930Z VRB02KT 9999 SCT020 BKN046 24/18 Q1019
           NOSIG=

SA 	27/01/2020 09:00-> 	

METAR FMMI 270900Z VRB03KT 9999 SCT020 BKN046 24/18 Q1019
           NOSIG=

SA 	27/01/2020 08:30-> 	

METAR FMMI 270830Z 01004KT 330V040 9999 SCT020 BKN046 22/17
           Q1020 NOSIG=

SA 	27/01/2020 08:00-> 	

METAR FMMI 270800Z VRB02KT 9999 SCT020 BKN046 22/16 Q1020
           NOSIG=

SA 	27/01/2020 07:30-> 	

METAR FMMI 270730Z 18004KT 130V230 9999 SCT017 BKN046 21/16
           Q1020 NOSIG=

SA 	27/01/2020 07:00-> 	

METAR FMMI 270700Z 18003KT 090V250 9999 SCT017 BKN046 22/17
           Q1020 NOSIG=

SA 	27/01/2020 06:30-> 	

METAR FMMI 270630Z 18004KT 150V220 8000 -RA SCT017 OVC046
           20/16 Q1021 NOSIG=

SA 	27/01/2020 06:00-> 	

METAR FMMI 270600Z 18005KT 120V230 9999 FEW010 BKN033 20/16
           Q1021 NOSIG=

SA 	27/01/2020 05:30-> 	

METAR COR FMMI 270530Z VRB03KT 9999 FEW010 BKN033 20/15 Q1021
           NOSIG=

SA 	27/01/2020 05:00-> 	

METAR FMMI 270500Z VRB03KT 9999 FEW010 BKN033 19/15 Q1020
           NOSIG=

SA 	27/01/2020 04:30-> 	

METAR FMMI 270430Z 06003KT 030V090 9999 FEW010 BKN033 18/15
           Q1020 NOSIG=

SA 	27/01/2020 04:00-> 	

METAR FMMI 270400Z 12004KT 080V170 9999 FEW009 BKN020 17/15
           Q1020 NOSIG=

SA 	27/01/2020 03:30-> 	

METAR FMMI 270330Z 14005KT 110V170 9999 FEW009 BKN020 17/15
           Q1020 NOSIG=

SA 	27/01/2020 03:00-> 	

METAR FMMI 270300Z 14004KT 110V180 9999 FEW008 BKN020 16/15
           Q1020 NOSIG=

SA 	27/01/2020 02:30-> 	

METAR FMMI 270230Z 17004KT 130V200 9999 FEW008 BKN020 16/15
           Q1020 NOSIG=

SA 	27/01/2020 02:00-> 	

METAR FMMI 270200Z 17005KT 9999 FEW008 BKN020 16/15 Q1019
           NOSIG=

SA 	27/01/2020 01:30-> 	

METAR FMMI 270130Z 16005KT 130V190 8000 OVC007 16/15 Q1019
           NOSIG=

SA 	27/01/2020 01:00-> 	

METAR FMMI 270100Z 15005KT 110V190 9999 FEW006 BKN020 16/15
           Q1020 NOSIG=

SA 	27/01/2020 00:30-> 	

METAR FMMI 270030Z 14006KT 100V180 9999 FEW006 BKN020 16/15
           Q1020 NOSIG=

SA 	27/01/2020 00:00-> 	

METAR FMMI 270000Z 15006KT 110V190 9999 FEW006 BKN020 16/14
           Q1020 NOSIG=

SA 	26/01/2020 23:30-> 	

METAR FMMI 262330Z 11008KT 9999 FEW006 BKN020 16/15 Q1020
           NOSIG=

SA 	26/01/2020 23:00-> 	

METAR FMMI 262300Z 09009KT 9999 FEW010 BKN020 17/15 Q1020
           NOSIG=

SA 	26/01/2020 22:30-> 	

METAR FMMI 262230Z 09009KT 9999 FEW010 BKN020 17/16 Q1020
           NOSIG=

SA 	26/01/2020 22:00-> 	

METAR FMMI 262200Z 10009KT 9999 FEW010 BKN020 18/16 Q1020
           NOSIG=

SA 	26/01/2020 21:30-> 	

METAR FMMI 262130Z 08006KT 9999 FEW010 BKN020 18/16 Q1020
           NOSIG=

SA 	26/01/2020 21:00-> 	

METAR FMMI 262100Z 13006KT 090V170 9999 FEW010 BKN020 18/17
           Q1021 NOSIG=

SA 	26/01/2020 20:30-> 	

METAR FMMI 262030Z 13008KT 110V170 9999 FEW007 BKN020 18/16
           Q1021 TEMPO 4000 RADZ=

SA 	26/01/2020 20:00-> 	

METAR FMMI 262000Z 10007KT 9999 FEW007 BKN020 18/17 Q1021
           TEMPO 4000 RADZ=

SA 	26/01/2020 19:30-> 	

METAR FMMI 261930Z 09004KT 9999 FEW007 BKN020 18/17 Q1021
           TEMPO 4000 RADZ=

SA 	26/01/2020 19:00-> 	

METAR FMMI 261900Z 10006KT 9999 FEW007 BKN020 18/17 Q1021
           TEMPO 4000 RADZ=

SA 	26/01/2020 18:30-> 	

METAR FMMI 261830Z 09005KT 9999 BKN007 OVC022 18/17 Q1021
           TEMPO 4000 RA=

SA 	26/01/2020 18:00-> 	

METAR FMMI 261800Z 10007KT 9999 FEW007 BKN020 18/17 Q1021
           TEMPO 4000 RA=

SA 	26/01/2020 17:30-> 	

METAR FMMI 261730Z 09008KT 9999 FEW007 BKN020 18/18 Q1020
           TEMPO 4000 RA=

SA 	26/01/2020 17:00-> 	

METAR FMMI 261700Z 09006KT 9999 -RADZ SCT017 BKN020 18/17
           Q1020 TEMPO 4000 RA=

SA 	26/01/2020 16:30-> 	

METAR FMMI 261630Z 13008KT 100V180 8000 -RADZ SCT007 BKN020
           19/17 Q1020 TEMPO 4000 RA=

SA 	26/01/2020 16:00-> 	

METAR FMMI 261600Z 10007KT 8000 -RADZ FEW014 BKN022 20/18
           Q1020 TEMPO 4000 RADZ=

SA 	26/01/2020 15:30-> 	

METAR FMMI 261530Z 10010KT 9999 VCSH SCT017 BKN023 20/17
           Q1019 NOSIG=

SA 	26/01/2020 15:00-> 	

METAR FMMI 261500Z 10011KT 9999 VCSH SCT017 BKN023 21/17
           Q1019 NOSIG=

SA 	26/01/2020 14:30-> 	

METAR FMMI 261430Z 11011KT 9999 VCSH FEW010 BKN023 22/18
           Q1019 NOSIG=

SA 	26/01/2020 14:00-> 	

METAR FMMI 261400Z 08007KT 040V100 9999 VCSH SCT020 BKN035
           22/17 Q1018 NOSIG=

SA 	26/01/2020 13:30-> 	

METAR FMMI 261330Z 04004KT 360V070 9999 VCSH SCT020 BKN036
           23/17 Q1018 NOSIG=

SA 	26/01/2020 13:00-> 	

METAR FMMI 261300Z 03005KT 360V060 9999 SCT020 BKN034 23/17
           Q1018 NOSIG=

SA 	26/01/2020 12:30-> 	

METAR FMMI 261230Z 03006KT 010V070 9999 SCT020 BKN034 23/17
           Q1018 NOSIG=

SA 	26/01/2020 12:00-> 	

METAR FMMI 261200Z 04008KT 010V090 9999 VCSH SCT020 BKN023
           23/17 Q1019 TEMPO 4000 SHRA=

SA 	26/01/2020 11:30-> 	

METAR FMMI 261130Z 11010KT 080V150 9999 -RA BKN020 BKN040
           23/17 Q1019 TEMPO 4000 SHRA=

SA 	26/01/2020 11:00-> 	

METAR FMMI 261100Z 11008KT 080V180 9999 VCSH BKN023 BKN041
           24/17 Q1019 NOSIG=

SA 	26/01/2020 10:30-> 	

METAR FMMI 261030Z 12007KT 080V180 9999 BKN023 25/18 Q1019
           NOSIG=

SA 	26/01/2020 10:00-> 	

METAR FMMI 261000Z 08006KT 030V150 9999 BKN023 25/17 Q1019
           NOSIG=

SA 	26/01/2020 09:30-> 	

METAR FMMI 260930Z 11006KT 030V200 9999 BKN023 25/17 Q1020
           NOSIG=

SA 	26/01/2020 09:00-> 	

METAR FMMI 260900Z VRB04KT 9999 BKN023 25/17 Q1020 NOSIG=

SA 	26/01/2020 08:30-> 	

METAR FMMI 260830Z VRB05KT 9999 BKN023 25/17 Q1020 NOSIG=

SA 	26/01/2020 08:00-> 	

METAR FMMI 260800Z 11006KT 050V210 9999 BKN020 25/17 Q1021
           NOSIG=

SA 	26/01/2020 07:30-> 	

METAR FMMI 260730Z 13007KT 080V200 9999 FEW017 BKN020 24/17
           Q1021 NOSIG=

SA 	26/01/2020 07:00-> 	

METAR FMMI 260700Z 14007KT 090V200 9999 FEW017 BKN020 22/16
           Q1021 NOSIG=

SA 	26/01/2020 06:30-> 	

METAR FMMI 260630Z 13007KT 090V180 9999 FEW017 BKN020 22/16
           Q1021=

SA 	26/01/2020 06:00-> 	

METAR FMMI 260600Z 12007KT 090V170 9999 FEW017 BKN020 22/16
           Q1021 NOSIG=

SA 	26/01/2020 05:30-> 	

METAR FMMI 260530Z 15007KT 090V200 9999 FEW017 BKN020 20/16
           Q1021 NOSIG=

SA 	26/01/2020 05:00-> 	

METAR FMMI 260500Z 14008KT 110V170 9999 FEW012 BKN020 19/16
           Q1021 NOSIG=

SA 	26/01/2020 04:30-> 	

METAR FMMI 260430Z 16008KT 9999 VCSH SCT015 BKN020 19/15
           Q1021 NOSIG=

SA 	26/01/2020 04:00-> 	

METAR FMMI 260400Z 15008KT 110V190 9999 VCSH SCT010 BKN020
           18/15 Q1021 NOSIG=

SA 	26/01/2020 03:30-> 	

METAR FMMI 260330Z 16007KT 130V190 9999 VCSH SCT010 BKN020
           18/16 Q1021 NOSIG=

SA 	26/01/2020 03:00-> 	

METAR FMMI 260300Z 14005KT 100V170 9999 FEW017 BKN020 18/15
           Q1021 NOSIG=

SA 	26/01/2020 02:30-> 	

METAR FMMI 260230Z 14006KT 110V180 9999 FEW017 BKN020 18/15
           Q1020 NOSIG=

SA 	26/01/2020 02:00-> 	

METAR FMMI 260200Z 16007KT 120V180 9999 FEW017 BKN020 18/15
           Q1020 NOSIG=

SA 	26/01/2020 01:30-> 	

METAR FMMI 260130Z 15007KT 110V190 9999 FEW017 BKN020 18/15
           Q1020 NOSIG=

SA 	26/01/2020 01:00-> 	

METAR FMMI 260100Z 16004KT 130V190 9999 FEW017 BKN020 18/16
           Q1020 NOSIG=

SA 	26/01/2020 00:30-> 	

METAR FMMI 260030Z 15004KT 110V180 9999 FEW013 18/15 Q1020
           NOSIG=

SA 	26/01/2020 00:00-> 	

METAR FMMI 260000Z 15005KT 120V180 9999 FEW017 BKN020 18/15
           Q1020 NOSIG=

SA 	25/01/2020 23:30-> 	

METAR FMMI 252330Z 14005KT 110V180 9999 FEW017 BKN020 18/15
           Q1020 NOSIG=

SA 	25/01/2020 23:00-> 	

METAR FMMI 252300Z 14005KT 110V170 9999 FEW017 BKN020 18/16
           Q1020 NOSIG=

SA 	25/01/2020 22:30-> 	

METAR FMMI 252230Z 14005KT 110V170 9999 FEW017 BKN020 18/16
           Q1020 NOSIG=

SA 	25/01/2020 22:00-> 	

METAR FMMI 252200Z 14006KT 110V170 9999 FEW017 BKN020 18/16
           Q1021 NOSIG=

SA 	25/01/2020 21:30-> 	

METAR FMMI 252130Z 15006KT 120V180 9999 FEW017 BKN020 18/16
           Q1021 NOSIG=

SA 	25/01/2020 21:00-> 	

METAR FMMI 252100Z 15005KT 110V190 9999 FEW017 BKN020 18/16
           Q1021 NOSIG=

SA 	25/01/2020 20:30-> 	

METAR FMMI 252030Z 14008KT 110V170 9999 FEW017 BKN020 18/16
           Q1022 NOSIG=

SA 	25/01/2020 20:00-> 	

METAR FMMI 252000Z 15006KT 110V220 9999 FEW017 BKN020 18/16
           Q1022 NOSIG=

SA 	25/01/2020 19:30-> 	

METAR FMMI 251930Z 15007KT 110V180 9999 FEW017 BKN020 18/16
           Q1022 NOSIG=

SA 	25/01/2020 19:00-> 	

METAR FMMI 251900Z 15008KT 120V190 9999 FEW017 BKN020 18/16
           Q1022 NOSIG=

SA 	25/01/2020 18:30-> 	

METAR FMMI 251830Z 14008KT 110V190 9999 FEW017 BKN020 19/16
           Q1021 NOSIG=

SA 	25/01/2020 18:00-> 	

METAR FMMI 251800Z 13008KT 100V180 9999 FEW017 BKN020 19/16
           Q1021 NOSIG=

SA 	25/01/2020 17:30-> 	

METAR FMMI 251730Z 13009KT 110V170 9999 FEW017 BKN020 19/16
           Q1021 NOSIG=

SA 	25/01/2020 17:00-> 	

METAR FMMI 251700Z 13009KT 090V170 9999 SCT017 BKN020 19/16
           Q1020 NOSIG=

SA 	25/01/2020 16:30-> 	

METAR FMMI 251630Z 12012KT 9999 SCT017 BKN020 19/16 Q1020
           NOSIG=

SA 	25/01/2020 16:00-> 	

METAR FMMI 251600Z 12011KT 100V160 9999 SCT017 BKN020 20/16
           Q1020 NOSIG=

SA 	25/01/2020 15:30-> 	

METAR FMMI 251530Z 12013KT 100V160 9999 BKN020 21/17 Q1019
           NOSIG=

SA 	25/01/2020 15:00-> 	

METAR FMMI 251500Z 12008KT 090V160 9999 BKN020 21/17 Q1019
           NOSIG=

SA 	25/01/2020 14:30-> 	

METAR FMMI 251430Z 14013KT 9999 BKN020 21/17 Q1018 NOSIG=

SA 	25/01/2020 14:00-> 	

METAR FMMI 251400Z 13011KT 110V170 9999 BKN020 23/17 Q1018
           NOSIG=

SA 	25/01/2020 13:30-> 	

METAR FMMI 251330Z 15009KT 110V190 9999 BKN020 24/17 Q1018
           NOSIG=

SA 	25/01/2020 13:00-> 	

METAR FMMI 251300Z 13010KT 100V180 9999 FEW020 BKN023 26/18
           Q1017 NOSIG=

SA 	25/01/2020 12:30-> 	

METAR FMMI 251230Z 12010KT 090V180 9999 SCT020 SCT023 25/17
           Q1017 NOSIG=

SA 	25/01/2020 12:00-> 	

METAR FMMI 251200Z 11008KT 070V150 9999 SCT020 SCT023 26/18
           Q1018 NOSIG=

SA 	25/01/2020 11:30-> 	

METAR FMMI 251130Z 12006KT 060V190 9999 SCT020 SCT023 24/18
           Q1018 NOSIG=

SA 	25/01/2020 11:00-> 	

METAR FMMI 251100Z 14008KT 070V200 9999 SCT020 SCT023 26/18
           Q1018 NOSIG=

SA 	25/01/2020 10:00-> 	

METAR FMMI 251000Z 16010KT 120V190 9999 SCT020 BKN023 26/17
           Q1019 NOSIG=

SA 	25/01/2020 09:30-> 	

METAR FMMI 250930Z 16008KT 100V200 9999 SCT020 BKN023 26/18
           Q1019 NOSIG=

SA 	25/01/2020 09:00-> 	

METAR FMMI 250900Z 14007KT 100V200 9999 SCT020 BKN023 25/17
           Q1019 NOSIG=

SA 	25/01/2020 08:30-> 	

METAR FMMI 250830Z 12008KT 090V160 9999 SCT020 BKN023 24/17
           Q1020 NOSIG=

SA 	25/01/2020 08:00-> 	

METAR FMMI 250800Z 14007KT 100V200 9999 SCT020 BKN023 22/17
           Q1020 NOSIG=

SA 	25/01/2020 07:00-> 	

METAR FMMI 250700Z 11008KT 080V160 9999 FEW017 BKN020 24/18
           Q1020 NOSIG=

SA 	25/01/2020 06:00-> 	

METAR FMMI 250600Z 14008KT 110V180 9999 FEW013 BKN020 21/16
           Q1020 NOSIG=

SA 	25/01/2020 05:30-> 	

METAR FMMI 250530Z 14006KT 090V190 9999 FEW013 BKN020 21/17
           Q1020 NOSIG=

SA 	25/01/2020 05:00-> 	

METAR FMMI 250500Z 12005KT 070V170 9999 FEW013 BKN020 20/16
           Q1020 NOSIG=

SA 	25/01/2020 04:30-> 	

METAR FMMI 250430Z 12005KT 9999 FEW014 BKN023 19/16 Q1020
           NOSIG=

SA 	25/01/2020 04:00-> 	

METAR FMMI 250400Z 12005KT 090V150 9999 FEW014 BKN023 19/16
           Q1020 NOSIG=

SA 	25/01/2020 03:30-> 	

METAR FMMI 250330Z 14005KT 100V170 9999 FEW014 BKN023 18/16
           Q1019 NOSIG=

SA 	25/01/2020 03:00-> 	

METAR FMMI NIL=

SA 	25/01/2020 02:00-> 	

METAR FMMI 250200Z 15006KT 110V180 9999 FEW007 BKN020 18/16
           Q1018 NOSIG=

SA 	25/01/2020 01:30-> 	

METAR FMMI 250130Z 13007KT 100V180 9999 FEW010 BKN020 18/16
           Q1018 NOSIG=

SA 	25/01/2020 01:00-> 	

METAR FMMI 250100Z 15006KT 110V180 9999 FEW007 BKN020 18/16
           Q1018 NOSIG=

SA 	25/01/2020 00:30-> 	

METAR FMMI 250030Z 15006KT 110V180 9999 FEW010 BKN020 18/17
           Q1018 NOSIG=

SA 	25/01/2020 00:00-> 	

METAR FMMI 250000Z 15006KT 100V170 9999 FEW010 BKN020 18/17
           Q1018 NOSIG=

SA 	24/01/2020 23:30-> 	

METAR FMMI 242330Z 16006KT 130V190 9999 FEW010 BKN020 18/17
           Q1018 NOSIG=

SA 	24/01/2020 23:00-> 	

METAR FMMI 242300Z 15008KT 120V180 9999 FEW010 BKN020 19/17
           Q1018 NOSIG=

SA 	24/01/2020 22:30-> 	

METAR FMMI 242230Z 15004KT 110V180 9999 FEW010 BKN020 19/18
           Q1018 NOSIG=

SA 	24/01/2020 22:00-> 	

METAR FMMI 242200Z 16005KT 120V180 9999 FEW010 BKN020 19/18
           Q1018 NOSIG=

SA 	24/01/2020 21:30-> 	

METAR FMMI 242130Z 15004KT 120V190 9999 FEW010 BKN020 19/18
           Q1018 NOSIG=

SA 	24/01/2020 21:00-> 	

METAR FMMI 242100Z 12005KT 100V160 9999 FEW010 BKN020 19/18
           Q1018 NOSIG=

SA 	24/01/2020 20:30-> 	

METAR FMMI 242030Z 14005KT 090V180 9999 FEW014 BKN020 19/18
           Q1019 NOSIG=

SA 	24/01/2020 20:00-> 	

METAR FMMI 242000Z 14006KT 080V180 9999 FEW014 BKN020 20/18
           Q1019 NOSIG=

SA 	24/01/2020 19:30-> 	

METAR FMMI 241930Z 12007KT 100V180 9999 FEW014 BKN020 20/18
           Q1019 NOSIG=

SA 	24/01/2020 19:00-> 	

METAR FMMI 241900Z 13008KT 100V170 9999 FEW014 BKN020 20/18
           Q1019 NOSIG=

SA 	24/01/2020 18:30-> 	

METAR FMMI 241830Z 14005KT 9999 FEW014 BKN020 21/18 Q1019
           NOSIG=

SA 	24/01/2020 18:00-> 	

METAR FMMI 241800Z 15004KT 120V180 9999 FEW010 BKN020 20/18
           Q1019 NOSIG=

SA 	24/01/2020 17:30-> 	

METAR FMMI 241730Z 14004KT 100V210 9999 FEW010 BKN020 20/18
           Q1018 NOSIG=

SA 	24/01/2020 17:00-> 	

METAR FMMI 241700Z 17005KT 120V200 9999 FEW010 BKN020 20/18
           Q1018 NOSIG=

SA 	24/01/2020 16:30-> 	

METAR FMMI 241630Z 16007KT 120V190 9999 FEW010 SCT020CB 20/18
           Q1017 TEMPO 4000 RA=

SA 	24/01/2020 16:00-> 	

METAR FMMI 241600Z 15007KT 120V190 9999 FEW010 SCT020CB 20/18
           Q1017 TEMPO 4000 RA=

SA 	24/01/2020 15:30-> 	

METAR FMMI 241530Z 16008KT 120V190 9999 FEW010 SCT020CB BKN024
           21/19 Q1016 TEMPO 4000 RA=

SA 	24/01/2020 15:00-> 	

METAR FMMI 241500Z 14011KT 110V170 8000 -RA FEW010 FEW020CB
           BKN024 21/19 Q1016 TEMPO 4000 RA=

SA 	24/01/2020 14:30-> 	

METAR FMMI 241430Z 06007KT 360V120 9999 VCSH SCT020TCU SCT024
           26/20 Q1015 NOSIG=

SA 	24/01/2020 14:00-> 	

METAR FMMI 241400Z VRB02KT 9999 SCT020 27/18 Q1014 NOSIG=

SA 	24/01/2020 13:30-> 	

METAR FMMI 241330Z VRB03KT 9999 SCT020 28/19 Q1014 NOSIG=

SA 	24/01/2020 13:00-> 	

METAR FMMI 241300Z 14005KT 080V200 9999 SCT020 28/18 Q1014
           NOSIG=

SA 	24/01/2020 12:00-> 	

METAR FMMI 241200Z VRB03KT 9999 SCT020 29/19 Q1014 NOSIG=

SA 	24/01/2020 11:30-> 	

METAR FMMI 241130Z VRB03KT 9999 BKN023 28/18 Q1015 NOSIG=

SA 	24/01/2020 11:00-> 	

METAR FMMI 241100Z VRB03KT 9999 BKN023 28/19 Q1015 NOSIG=

SA 	24/01/2020 10:30-> 	

METAR FMMI 241030Z VRB03KT 9999 BKN023 27/19 Q1016 NOSIG=

SA 	24/01/2020 10:00-> 	

METAR FMMI 241000Z 03004KT 310V110 9999 SCT017 SCT020 27/20
           Q1016 NOSIG=

SA 	24/01/2020 09:30-> 	

METAR FMMI 240930Z VRB03KT 9999 SCT017 BKN020 26/19 Q1016
           NOSIG=

SA 	24/01/2020 09:00-> 	

METAR FMMI 240900Z VRB02KT 9999 SCT017 BKN020 24/19 Q1017
           NOSIG=

SA 	24/01/2020 08:30-> 	

METAR FMMI 240830Z VRB02KT 9999 FEW010 BKN020 24/19 Q1017
           NOSIG=

SA 	24/01/2020 08:00-> 	

METAR COR FMMI 240800Z VRB03KT 9999 FEW008 BKN020 24/19 Q1017
           NOSIG=

SA 	24/01/2020 07:30-> 	

METAR FMMI 240730Z VRB03KT 9999 FEW008 BKN020 22/18 Q1018
           NOSIG=

SA 	24/01/2020 07:00-> 	

METAR FMMI 240700Z 05003KT 360V090 8000 -DZ FEW010 BKN020
           20/19 Q1018 NOSIG=

SA 	24/01/2020 06:30-> 	

METAR FMMI 240630Z 05003KT 020V080 8000 -DZ FEW010 BKN020
           20/18 Q1018 NOSIG=

SA 	24/01/2020 06:00-> 	

METAR FMMI 240600Z 12004KT 080V190 9999 FEW008 BKN020 21/18
           Q1018 NOSIG=

SA 	24/01/2020 05:30-> 	

METAR FMMI 240530Z 13004KT 090V180 9999 FEW008 BKN020 20/18
           Q1018 NOSIG=

SA 	24/01/2020 05:00-> 	

METAR FMMI 240500Z 16004KT 100V200 9999 FEW008 BKN020 21/18
           Q1017 NOSIG=

SA 	24/01/2020 04:30-> 	

METAR FMMI 240430Z VRB03KT 9999 FEW006 BKN020 20/18 Q1017
           NOSIG=

SA 	24/01/2020 04:00-> 	

METAR FMMI 240400Z VRB01KT 9999 FEW010 SCT020 20/18 Q1016
           NOSIG=

SA 	24/01/2020 03:30-> 	

METAR FMMI 240330Z VRB01KT 9999 FEW010 SCT020 19/19 Q1016
           NOSIG=

SA 	24/01/2020 03:00-> 	

METAR FMMI 240300Z 00000KT 9999 SCT014 BKN020 18/18 Q1016
           NOSIG=

SA 	24/01/2020 02:30-> 	

METAR FMMI 240230Z 35002KT 9999 SCT014 BKN020 18/18 Q1015
           NOSIG=

SA 	24/01/2020 02:00-> 	

METAR FMMI 240200Z 00000KT 9999 SCT004 BKN020 18/18 Q1015
           TEMPO 4500 RADZ=

SA 	24/01/2020 01:30-> 	

METAR FMMI 240130Z 00000KT 9999 SCT004 BKN020 18/18 Q1015
           TEMPO 4500 RADZ=

SA 	24/01/2020 01:00-> 	

METAR FMMI 240100Z 35003KT 9999 SCT004 BKN020 18/18 Q1015
           TEMPO 4500 DZ=

SA 	24/01/2020 00:30-> 	

METAR FMMI 240030Z VRB03KT 9999 SCT004 BKN020 19/18 Q1014
           TEMPO 4500 RADZ=

SA 	24/01/2020 00:00-> 	

METAR FMMI 240000Z 32002KT 9999 SCT004 BKN020 18/18 Q1014
           TEMPO 4500 RADZ=

SA 	23/01/2020 23:30-> 	

METAR FMMI 232330Z 06002KT 9999 SCT004 BKN020 18/18 Q1014
           TEMPO 4500 RADZ=

SA 	23/01/2020 23:00-> 	

METAR FMMI 232300Z VRB01KT 9999 SCT004 BKN020 18/18 Q1014
           TEMPO 4500 RADZ=

SA 	23/01/2020 22:30-> 	

METAR FMMI 232230Z 08004KT 9999 -DZ SCT004 BKN020 18/18 Q1014
           TEMPO 4500 RADZ=

SA 	23/01/2020 22:00-> 	

METAR FMMI 232200Z VRB02KT 9999 -DZ SCT004 BKN020 18/18 Q1014
           TEMPO 4500 RADZ=

SA 	23/01/2020 21:30-> 	

METAR FMMI 232130Z VRB03KT 9999 -RADZ SCT004 BKN020 18/18
           Q1015 TEMPO 4000=

SA 	23/01/2020 21:00-> 	

METAR FMMI 232100Z VRB02KT 9999 -RADZ SCT004 BKN020 18/18
           Q1015 TEMPO 4000=

SA 	23/01/2020 20:30-> 	

METAR FMMI 232030Z VRB01KT 8000 -RADZ SCT004 BKN020 18/18
           Q1015 TEMPO 4000=

SA 	23/01/2020 20:00-> 	

METAR FMMI 232000Z 20003KT 6000 -RADZ SCT004 BKN020 19/18
           Q1015 TEMPO 4000=

SA 	23/01/2020 19:30-> 	

METAR FMMI 231930Z 21005KT 6000 -RADZ SCT004 BKN020 19/18
           Q1015 TEMPO 4000=

SA 	23/01/2020 19:00-> 	

METAR FMMI 231900Z 30005KT 5000 -RADZ SCT004 BKN020 19/19
           Q1015 TEMPO 2500=

SA 	23/01/2020 18:30-> 	

METAR FMMI 231830Z 30003KT 8000 -RADZ SCT004 BKN020 19/19
           Q1015 TEMPO 4500=

SA 	23/01/2020 18:00-> 	

METAR FMMI 231800Z 29004KT 6000 -RADZ SCT004 BKN020 19/19
           Q1015 TEMPO 2500 RADZ=

SA 	23/01/2020 17:30-> 	

METAR FMMI 231730Z VRB03KT 5000 RADZ SCT004 BKN020 19/19
           Q1014 TEMPO 2500=

SA 	23/01/2020 17:00-> 	

METAR FMMI 231700Z 26003KT 220V290 4500 RADZ SCT004 BKN020
           19/19 Q1014 TEMPO 2500=

SA 	23/01/2020 16:30-> 	

METAR FMMI 231630Z VRB02KT 9000 -RA SCT008 BKN020 19/19 Q1014
           TEMPO 4500 RADZ=

SA 	23/01/2020 16:00-> 	

METAR FMMI 231600Z 24004KT 210V280 7000 -RADZ SCT008 BKN020
           19/19 Q1013 TEMPO 4500 RADZ=

SA 	23/01/2020 15:30-> 	

METAR FMMI 231530Z 25006KT 210V290 7000 -RADZ SCT008 BKN020
           19/19 Q1013 TEMPO 4500 RADZ=

SP 	23/01/2020 15:14-> 	

SPECI FMMI 231514Z 26007KT 230V290 4500 -RADZ SCT004 BKN020
           20/19 Q1013 TEMPO 2500 RADZ=

SA 	23/01/2020 15:00-> 	

METAR FMMI 231500Z 27007KT 240V300 9999 VCSH SCT004 BKN020
           20/19 Q1012 TEMPO 4500 RADZ=

SA 	23/01/2020 14:30-> 	

METAR FMMI 231430Z 25004KT 220V290 9999 VCSH SCT004 BKN020
           20/19 Q1012 TEMPO 4500 DZRA=

SP 	23/01/2020 14:30-> 	

SPECI FMMI 231430Z 25004KT 220V290 9999 VCSH SCT004 BKN020
           20/19 Q1012 TEMPO 4500 DZRA=

SA 	23/01/2020 14:00-> 	

METAR FMMI 231400Z 24005KT 8000 -RADZ FEW004 SCT017 BKN020
           20/19 Q1011 TEMPO 4000 RADZ=

SA 	23/01/2020 13:30-> 	

METAR FMMI 231330Z 24003KT 190V300 8000 -RADZ FEW005 SCT010
           BKN020 20/19 Q1011 TEMPO 2500 RADZ=

SA 	23/01/2020 13:00-> 	

METAR FMMI 231300Z 22003KT 180V300 6000 -RADZ FEW005 SCT010
           BKN020 20/19 Q1011 TEMPO 2500 RADZ=

SA 	23/01/2020 12:30-> 	

METAR FMMI 231230Z 18007KT 5000 -RADZ FEW005 SCT010 BKN020
           20/19 Q1011 TEMPO 2500 RADZ=

SA 	23/01/2020 12:00-> 	

METAR FMMI 231200Z 20009KT 170V240 5000 -RADZ FEW005 SCT010
           BKN020 20/19 Q1011 TEMPO 2500 RADZ=

SA 	23/01/2020 11:30-> 	

METAR FMMI 231130Z 17006KT 130V220 5000 -RADZ FEW005 SCT010
           BKN020 20/19 Q1011 TEMPO 2500 RADZ=

SA 	23/01/2020 11:00-> 	

METAR FMMI 231100Z 23005KT 190V270 5000 -RADZ SCT010 BKN020
           20/19 Q1011 TEMPO 2500 RADZ=

SA 	23/01/2020 10:30-> 	

METAR FMMI 231030Z 19008KT 150V220 8000 -RADZ SCT010 BKN020
           21/19 Q1011 TEMPO 4500=

SA 	23/01/2020 10:00-> 	

METAR FMMI 231000Z 17008KT 130V210 9999 -RADZ SCT010 BKN020
           21/18 Q1011 NOSIG=

SA 	23/01/2020 09:30-> 	

METAR FMMI 230930Z 17008KT 130V200 8000 -RADZ SCT010 BKN020
           21/19 Q1011 NOSIG=

SA 	23/01/2020 09:00-> 	

METAR FMMI 230900Z 16009KT 130V190 9999 -RA FEW010 SCT017
           BKN020 21/18 Q1011 NOSIG=

SA 	23/01/2020 08:30-> 	

METAR FMMI 230830Z 16009KT 110V200 9999 FEW010 SCT017 BKN020
           21/18 Q1011 NOSIG=

SA 	23/01/2020 08:00-> 	

METAR FMMI 230800Z 17010KT 110V190 9999 FEW010 SCT017 BKN020
           21/17 Q1011 TEMPO 4000 RA=

SA 	23/01/2020 07:30-> 	

METAR FMMI 230730Z 17011KT 130V200 9999 FEW010 BKN020 20/18
           Q1012 TEMPO 4000 RA=

SA 	23/01/2020 07:00-> 	

METAR FMMI 230700Z 16011KT 130V200 9999 -RA SCT010 BKN020
           20/18 Q1012 TEMPO 4000 RA=

SA 	23/01/2020 06:30-> 	

METAR FMMI 230630Z 17013KT 7000 -RA SCT010 BKN020 19/17 Q1012
           TEMPO 4000 RA=

SA 	23/01/2020 06:00-> 	

METAR FMMI 230600Z 16011KT 120V200 7000 -RA SCT010 BKN020
           19/17 Q1012 TEMPO 4000 RA=

SA 	23/01/2020 05:30-> 	

METAR FMMI 230530Z 15011KT 9999 -RA SCT010 BKN020 18/17 Q1012
           TEMPO 4000 RA=

SA 	23/01/2020 05:00-> 	

METAR FMMI 230500Z 16011KT 130V190 9999 SCT010 BKN020 18/16
           Q1011 TEMPO 4000 RA=

SA 	23/01/2020 04:30-> 	

METAR FMMI 230430Z 15009KT 120V180 8000 -RA SCT010 BKN020
           18/17 Q1011 TEMPO 4000 RA=

SA 	23/01/2020 04:00-> 	

METAR FMMI 230400Z 15010KT 110V180 7000 -RA SCT006 BKN020
           18/16 Q1011 TEMPO 4000 RA=

SA 	23/01/2020 03:30-> 	

METAR FMMI 230330Z 15008KT 120V180 8000 -RA SCT006 BKN020
           17/16 Q1011 TEMPO 4000 RA=

SA 	23/01/2020 03:00-> 	

METAR FMMI 230300Z 16007KT 130V200 9999 -RA SCT006 BKN020
           17/17 Q1010 TEMPO 4000 RA=

SA 	23/01/2020 02:30-> 	

METAR FMMI 230230Z 15008KT 110V170 8000 -RA SCT006 BKN020
           17/17 Q1010 TEMPO 4000 RA=

SA 	23/01/2020 02:00-> 	

METAR FMMI 230200Z 14007KT 110V180 6000 -RA SCT007 BKN020
           17/17 Q1010 TEMPO 4000 RA=

SA 	23/01/2020 01:30-> 	

METAR FMMI 230130Z 15007KT 120V180 8000 -RADZ SCT007 BKN020
           17/17 Q1010 TEMPO 4000 RA=

SA 	23/01/2020 01:00-> 	

METAR FMMI 230100Z 14007KT 8000 -RA SCT007 BKN020 17/17 Q1010
           TEMPO 4000 RA=

SA 	23/01/2020 00:30-> 	

METAR FMMI 230030Z 14007KT 8000 -RA SCT007 BKN020 17/17 Q1010
           TEMPO 4000 RA=

SA 	23/01/2020 00:00-> 	

METAR FMMI 230000Z 14004KT 090V190 8000 -RA FEW006 BKN020
           18/17 Q1010 TEMPO 4000 RA=

SA 	22/01/2020 23:30-> 	

METAR FMMI 222330Z 16006KT 120V180 9999 -RA FEW006 BKN020
           17/17 Q1010 TEMPO 4000 RA=

SP 	22/01/2020 23:00-> 	

METAR FMMI 222300Z 14006KT 110V170 8000 -RA FEW006 BKN020
           17/17 Q1010 TEMPO 4000 RA=

SA 	22/01/2020 23:00-> 	

METAR FMMI 222300Z 14006KT 110V170 8000 -RA FEW006 BKN020
           17/17 Q1010 TEMPO 4000 RA=

SP 	22/01/2020 22:30-> 	

METAR FMMI 222230Z 14004KT 100V180 8000 -RA FEW006 BKN020
           17/17 Q1010 TEMPO 4000 RA=

SA 	22/01/2020 22:00-> 	

METAR FMMI 222200Z 15006KT 100V200 6000 -RA FEW007 BKN020
           17/17 Q1011 TEMPO 4000 RA=

SA 	22/01/2020 21:30-> 	

METAR FMMI 222130Z 14005KT 110V170 8000 -RA FEW007 BKN020
           17/17 Q1011 TEMPO 4000 RA=

SA 	22/01/2020 21:00-> 	

METAR FMMI 222100Z 14007KT 6000 -RA FEW007 BKN020 17/17 Q1011
           TEMPO 4000 RA=

SA 	22/01/2020 20:30-> 	

METAR FMMI 222030Z 15006KT 120V180 9999 -RA FEW007 BKN020
           18/17 Q1012 NOSIG=

SA 	22/01/2020 20:00-> 	

METAR FMMI 222000Z 14008KT 110V180 8000 -RA SCT009 BKN020
           18/17 Q1012 TEMPO 4000 RA=

SP 	22/01/2020 19:30-> 	

METAR FMMI 221930Z 14009KT 110V170 9000 -RA SCT009 BKN020
           18/17 Q1012 TEMPO 4000 RA=

SA 	22/01/2020 19:00-> 	

METAR FMMI 221900Z 13007KT 110V180 8000 -RA SCT009 BKN020
           18/17 Q1012 TEMPO 4000 RA=

SP 	22/01/2020 19:00-> 	

METAR FMMI 221900Z 13007KT 110V180 8000 -RA SCT009 BKN020
           18/17 Q1012 TEMPO 4000 RA=

SA 	22/01/2020 18:30-> 	

METAR FMMI 221830Z 13007KT 100V170 9999 -RA SCT009 BKN020
           18/17 Q1012 TEMPO 4000 RA=

SA 	22/01/2020 18:00-> 	

METAR FMMI 221800Z 15005KT 110V180 8000 -RA SCT009 BKN020
           18/18 Q1012 TEMPO 4000 RA=

SA 	22/01/2020 17:30-> 	

METAR FMMI 221730Z 13007KT 9999 FEW010 BKN020 18/17 Q1012
           TEMPO 4000 RA=

SA 	22/01/2020 17:00-> 	

METAR FMMI 221700Z 12008KT 090V150 9999 FEW010 BKN020 19/17
           Q1012 TEMPO 4000 RA=

SA 	22/01/2020 16:30-> 	

METAR FMMI 221630Z 10008KT 9999 FEW010 BKN020 19/18 Q1012
           TEMPO 4000 RA=

SA 	22/01/2020 16:00-> 	

METAR FMMI 221600Z 10008KT 9999 FEW010 BKN020 19/18 Q1012
           TEMPO 4000 RA=

SA 	22/01/2020 15:30-> 	

METAR FMMI 221530Z 09009KT 9999 -RA SCT010 BKN020 19/18 Q1011
           TEMPO 4000 RA=

SA 	22/01/2020 15:00-> 	

METAR FMMI 221500Z 09008KT 9999 -RA SCT008 BKN020 19/18 Q1011
           TEMPO 4000 RA=

SA 	22/01/2020 14:30-> 	

METAR FMMI 221430Z 10008KT 9999 -RA SCT008 BKN020 20/18 Q1011
           TEMPO 4000 RA=

SA 	22/01/2020 14:00-> 	

METAR FMMI 221400Z 10007KT 9999 -RA SCT008 BKN020 20/19 Q1011
           TEMPO 4000 RA=

SA 	22/01/2020 13:30-> 	

METAR FMMI 221330Z 11009KT 090V160 9999 -RA SCT010 BKN020
           20/19 Q1010 TEMPO 4000 RA=

SA 	22/01/2020 13:00-> 	

METAR FMMI 221300Z 11008KT 090V160 9999 -RA SCT008 BKN020
           19/19 Q1011 TEMPO 4000 RA=

SA 	22/01/2020 12:30-> 	

METAR FMMI 221230Z 10007KT 9999 -RA SCT007 BKN015 19/18 Q1011
           TEMPO 4000 RA=

SA 	22/01/2020 12:00-> 	

METAR FMMI 221200Z 08008KT 9000 -RA SCT007 BKN015 19/18 Q1012
           TEMPO 4000 RA=

SA 	22/01/2020 11:30-> 	

METAR FMMI 221130Z 09006KT 6000 -RA SCT007 BKN015 19/18 Q1012
           TEMPO 4000 RA=

SA 	22/01/2020 11:00-> 	

METAR FMMI 221100Z 11006KT 090V150 9999 -RADZ SCT008 BKN020
           19/18 Q1012 TEMPO 4500 SHRA=

SA 	22/01/2020 10:30-> 	

METAR FMMI 221030Z 11008KT 9999 -RADZ SCT008 BKN020 19/18
           Q1012 TEMPO 4500 SHRA=

SA 	22/01/2020 10:00-> 	

METAR FMMI 221000Z 08007KT 8000 -RA SCT009 BKN020 19/18 Q1012
           TEMPO 4500 SHRA=

SA 	22/01/2020 09:30-> 	

METAR FMMI 220930Z 08006KT 8000 -RA SCT009 BKN020 19/18 Q1013
           TEMPO 4500 SHRA=

SA 	22/01/2020 09:00-> 	

METAR FMMI 220900Z 07007KT 7000 -RA SCT010 BKN020 19/18 Q1013
           TEMPO 4000 SHRA=

SA 	22/01/2020 08:30-> 	

METAR FMMI 220830Z 08007KT 8000 -RA FEW010 BKN020 19/18 Q1013
           TEMPO 4500=

SA 	22/01/2020 08:00-> 	

METAR FMMI 220800Z 08008KT 8000 -RA FEW012 BKN020 20/18 Q1013
           TEMPO 4500=

SA 	22/01/2020 07:30-> 	

METAR FMMI 220730Z 11008KT 8000 -RA FEW012 BKN020 20/18 Q1013
           TEMPO 4500=

SA 	22/01/2020 07:00-> 	

METAR FMMI 220700Z 13008KT 100V180 9999 FEW017 BKN020 20/17
           Q1013 NOSIG=

SA 	22/01/2020 06:30-> 	

METAR FMMI 220630Z 12008KT 090V170 9999 FEW017 BKN020 20/18
           Q1013 NOSIG=

SA 	22/01/2020 06:00-> 	

METAR FMMI 220600Z 12009KT 090V160 9999 FEW017 BKN020 19/18
           Q1013 NOSIG=

SA 	22/01/2020 05:30-> 	

METAR FMMI 220530Z 09008KT 7000 -RADZ SCT010 BKN020 18/17
           Q1013 TEMPO 4500=

SA 	22/01/2020 05:00-> 	

METAR FMMI 220500Z 14005KT 120V180 7000 -RADZ SCT010 BKN020
           18/17 Q1013 TEMPO 4500=

SA 	22/01/2020 04:30-> 	

METAR FMMI 220430Z 14005KT 100V170 6000 -RADZ SCT010 BKN020
           18/17 Q1013 TEMPO 4500=

SA 	22/01/2020 04:00-> 	

METAR FMMI 220400Z 13004KT 100V190 7000 -RADZ SCT010 BKN020
           18/17 Q1013 TEMPO 4500=

SA 	22/01/2020 03:30-> 	

METAR FMMI 220330Z 14005KT 8000 -RA FEW005 BKN020 17/17 Q1013
           NOSIG=

SA 	22/01/2020 03:00-> 	

METAR FMMI 220300Z 14006KT 8000 -RA FEW005 BKN020 17/16 Q1012
           NOSIG=

SA 	22/01/2020 02:30-> 	

METAR FMMI 220230Z 14005KT 110V170 8000 -RA FEW005 BKN020
           17/16 Q1012 NOSIG=

SA 	22/01/2020 02:00-> 	

METAR FMMI 220200Z 14006KT 110V170 8000 -RA FEW005 BKN020
           17/17 Q1012 NOSIG=

SA 	22/01/2020 01:30-> 	

METAR FMMI 220130Z 14005KT 110V180 9999 FEW007 BKN017 18/17
           Q1012 NOSIG=

SA 	22/01/2020 01:00-> 	

METAR FMMI 220100Z 14005KT 110V170 9999 FEW007 BKN017 18/17
           Q1011 NOSIG=

SA 	22/01/2020 00:30-> 	

METAR FMMI 220030Z 14005KT 110V180 9999 FEW008 BKN017 18/17
           Q1012 NOSIG=

SA 	22/01/2020 00:00-> 	

METAR FMMI 220000Z 14005KT 9999 FEW008 BKN017 18/17 Q1012
           NOSIG=

SA 	21/01/2020 23:30-> 	

METAR FMMI 212330Z 13006KT 9999 FEW008 BKN017 18/17 Q1012
           NOSIG=

SA 	21/01/2020 23:00-> 	

METAR FMMI 212300Z 12006KT 090V170 9999 FEW008 BKN017 18/17
           Q1012 NOSIG=

SA 	21/01/2020 22:30-> 	

METAR FMMI 212230Z 14004KT 100V170 9999 FEW008 BKN020 18/17
           Q1012 NOSIG=

SA 	21/01/2020 22:00-> 	

METAR FMMI 212200Z 14005KT 9999 FEW008 BKN020 18/17 Q1012
           NOSIG=

SA 	21/01/2020 21:30-> 	

METAR FMMI 212130Z 14004KT 9999 FEW008 BKN020 18/18 Q1013
           NOSIG=

SA 	21/01/2020 21:00-> 	

METAR FMMI 212100Z 16005KT 120V190 8000 -RA FEW006 BKN017
           18/17 Q1013 NOSIG=

SA 	21/01/2020 20:30-> 	

METAR FMMI 212030Z 16007KT 130V190 8000 -RA FEW006 BKN017
           18/17 Q1013 NOSIG=

SA 	21/01/2020 20:00-> 	

METAR FMMI 212000Z 14006KT 8000 -RA FEW006 BKN017 19/18 Q1014
           NOSIG=

SA 	21/01/2020 19:30-> 	

METAR FMMI 211930Z 13006KT 9999 FEW006 BKN017 19/18 Q1014
           NOSIG=

SA 	21/01/2020 19:00-> 	

METAR FMMI 211900Z 14006KT 110V180 8000 -RA FEW007 SCT017
           BKN020 19/18 Q1014 NOSIG=

SA 	21/01/2020 18:30-> 	

METAR FMMI 211830Z 10008KT 8000 -RA FEW007 SCT017 BKN020
           19/18 Q1014 NOSIG=

SA 	21/01/2020 18:00-> 	

METAR FMMI 211800Z 10008KT 8000 -RA FEW007 SCT017 BKN020
           19/19 Q1013 NOSIG=

SA 	21/01/2020 17:30-> 	

METAR FMMI 211730Z 08009KT 8000 -RA FEW007 SCT017 BKN020
           19/19 Q1013 NOSIG=

SA 	21/01/2020 17:00-> 	

METAR FMMI 211700Z 07005KT 050V110 8000 -RA SCT005 BKN017
           20/19 Q1013 TEMPO 4000 RA=

SA 	21/01/2020 16:30-> 	

METAR FMMI 211630Z 04003KT 8000 -RA SCT005 BKN017 20/19 Q1013
           TEMPO 4000 RA=

SA 	21/01/2020 16:00-> 	

METAR FMMI 211600Z VRB02KT 8000 -RA SCT005 BKN017 20/19 Q1012
           TEMPO 4000 RA=

SA 	21/01/2020 15:30-> 	

METAR FMMI 211530Z VRB02KT 8000 -RA SCT005 BKN017 20/19 Q1012
           TEMPO 4000 RA=

SA 	21/01/2020 15:00-> 	

METAR FMMI 211500Z 07003KT 040V100 6000 -RA SCT005 BKN017
           20/19 Q1012 TEMPO 4000 RA=

SA 	21/01/2020 14:30-> 	

METAR FMMI 211430Z 04005KT 010V070 4000 -RA SCT006 BKN017
           20/19 Q1011 TEMPO 2500 RA=

SA 	21/01/2020 14:00-> 	

METAR FMMI 211400Z 17005KT 6000 -RA SCT008 BKN017 20/19 Q1011
           TEMPO 4000 RA=

SA 	21/01/2020 13:30-> 	

METAR FMMI 211330Z 17008KT 7000 -RA SCT008 BKN017 21/19 Q1011
           TEMPO 4000 RA=

SA 	21/01/2020 13:00-> 	

METAR FMMI 211300Z 11006KT 080V180 9999 SCT008 BKN020 22/19
           Q1011 TEMPO 4500 RA=

SA 	21/01/2020 12:30-> 	

METAR FMMI 211230Z 11006KT 070V140 9999 SCT008 BKN020 22/19
           Q1011 TEMPO 4500 RA=

SA 	21/01/2020 12:00-> 	

METAR FMMI 211200Z 11006KT 080V150 9999 SCT008 BKN020 23/20
           Q1011 TEMPO 4500 RA=

SA 	21/01/2020 11:30-> 	

METAR FMMI 211130Z 07005KT 050V110 8000 -RA SCT008 BKN020
           21/19 Q1011 TEMPO 4500 RA=

SA 	21/01/2020 11:00-> 	

METAR FMMI 211100Z 17008KT 100V200 6000 -RA SCT008 BKN020
           20/19 Q1011 TEMPO 3500 RA=

SA 	21/01/2020 10:30-> 	

METAR FMMI 211030Z VRB03KT 6000 -RA SCT008 BKN020 21/19 Q1011
           TEMPO 3500 RA=

SA 	21/01/2020 10:00-> 	

METAR FMMI 211000Z VRB03KT 6000 -RA SCT008 BKN020 20/19 Q1012
           TEMPO 3500 RA=

SA 	21/01/2020 09:30-> 	

METAR FMMI 210930Z 19007KT 7000 -RA FEW010 SCT020 BKN035
           21/19 Q1012 TEMPO 3500 RA=

SA 	21/01/2020 09:00-> 	

METAR FMMI 210900Z 19008KT 160V230 9999 -RA FEW010 SCT020
           BKN035 21/19 Q1012 TEMPO 3500 RA=

SA 	21/01/2020 08:30-> 	

METAR FMMI 210830Z 20007KT 170V230 9000 -RA FEW010 SCT020
           BKN035 22/21 Q1012 TEMPO 3500 RA=

SA 	21/01/2020 08:00-> 	

METAR FMMI 210800Z 17006KT 140V210 6000 -RA FEW009 SCT017
           BKN020 21/19 Q1013 TEMPO 3500 RA=

SA 	21/01/2020 07:30-> 	

METAR FMMI 210730Z 16004KT 110V200 7000 -RA FEW009 SCT017
           BKN020 21/20 Q1013 TEMPO 3500 RA=

SA 	21/01/2020 07:00-> 	

METAR FMMI 210700Z 13004KT 090V220 8000 -RA FEW007 SCT015
           BKN020 20/20 Q1013 TEMPO 3500 RA=

SA 	21/01/2020 06:30-> 	

METAR FMMI 210630Z 07005KT 7000 -RADZ FEW007 SCT015 BKN020
           20/19 Q1013 TEMPO 3500 RA=

SA 	21/01/2020 06:00-> 	

METAR FMMI 210600Z 07004KT 050V110 8000 -RADZ FEW007 SCT017
           BKN023 20/19 Q1013 TEMPO 3500 RA=

SA 	21/01/2020 05:30-> 	

METAR FMMI 210530Z 06003KT 7000 -RADZ FEW007 SCT015 BKN020
           20/19 Q1014 TEMPO 3500 RA=

SA 	21/01/2020 05:00-> 	

METAR FMMI 210500Z VRB02KT 8000 -RADZ FEW007 SCT015 BKN020
           20/19 Q1013 TEMPO 4000 RADZ=

SA 	21/01/2020 04:30-> 	

METAR FMMI 210430Z 02004KT 8000 -RADZ FEW007 SCT017 BKN020
           19/19 Q1013 NOSIG=

SA 	21/01/2020 04:00-> 	

METAR FMMI 210400Z 04003KT 8000 -RADZ FEW010 SCT017 BKN020
           19/19 Q1013 TEMPO 4000=

SA 	21/01/2020 03:30-> 	

METAR FMMI 210330Z 03004KT 7000 -RADZ FEW010 SCT017 BKN020
           19/19 Q1012 TEMPO 4000=

SA 	21/01/2020 03:00-> 	

METAR FMMI 210300Z VRB02KT 7000 -RADZ FEW010 SCT017 BKN020
           19/19 Q1012 TEMPO 4000=

SA 	21/01/2020 02:30-> 	

METAR FMMI 210230Z VRB01KT 7000 -RADZ FEW010 SCT017 BKN020
           19/18 Q1012 TEMPO 4000=

SA 	21/01/2020 02:00-> 	

METAR FMMI 210200Z VRB01KT 9999 FEW017 BKN020 19/18 Q1011
           NOSIG=

SA 	21/01/2020 01:30-> 	

METAR FMMI 210130Z 32003KT 9999 FEW017 BKN020 19/18 Q1011
           NOSIG=

SA 	21/01/2020 01:00-> 	

METAR FMMI 210100Z 33004KT 9999 FEW017 BKN020 19/18 Q1011
           NOSIG=

SA 	21/01/2020 00:30-> 	

METAR FMMI 210030Z 33004KT 9999 FEW010 BKN020 19/18 Q1011
           NOSIG=

SA 	21/01/2020 00:00-> 	

METAR FMMI 210000Z 36004KT 310V020 9999 FEW010 BKN020 19/18
           Q1011 NOSIG=

SA 	20/01/2020 23:30-> 	

METAR FMMI 202330Z VRB03KT 9999 FEW017 SCT020 20/18 Q1011
           NOSIG=

SA 	20/01/2020 23:00-> 	

METAR FMMI 202300Z 34002KT 9999 FEW017 SCT020 20/18 Q1011
           NOSIG=

SP 	20/01/2020 23:00-> 	

METAR FMMI 202300Z 34002KT 9999 FEW017 SCT020 20/18 Q1011
           NOSIG=

SA 	20/01/2020 22:30-> 	

METAR FMMI 202230Z VRB03KT 9999 FEW017 SCT020 19/18 Q1012
           NOSIG=

SA 	20/01/2020 22:00-> 	

METAR FMMI 202200Z 35004KT 9999 FEW017 SCT020 19/18 Q1012
           NOSIG=

SA 	20/01/2020 21:30-> 	

METAR FMMI 202130Z VRB03KT 9999 FEW017 SCT020 19/18 Q1013
           NOSIG=

SA 	20/01/2020 21:00-> 	

METAR FMMI 202100Z 32004KT 9999 FEW017 SCT020 20/19 Q1013
           NOSIG=

SP 	20/01/2020 21:00-> 	

METAR FMMI 202100Z 32004KT 9999 FEW017 SCT020 20/19 Q1013
           NOSIG=

SA 	20/01/2020 20:30-> 	

METAR FMMI 202030Z 33004KT 9999 FEW014 SCT020 20/19 Q1013
           NOSIG=

SA 	20/01/2020 20:00-> 	

METAR FMMI 202000Z VRB02KT 9999 FEW014 SCT020 20/19 Q1013
           NOSIG=

SA 	20/01/2020 19:30-> 	

METAR FMMI 201930Z 03004KT 9999 FEW014 SCT020 20/19 Q1014
           NOSIG=

SA 	20/01/2020 19:00-> 	

METAR FMMI 201900Z VRB03KT 9999 FEW014 SCT020 20/19 Q1013
           NOSIG=

SA 	20/01/2020 18:30-> 	

METAR FMMI 201830Z VRB03KT 9999 FEW017 SCT020 20/19 Q1013
           NOSIG=

SA 	20/01/2020 18:00-> 	

METAR FMMI 201800Z 03003KT 360V060 9999 FEW017 SCT020 20/19
           Q1013 NOSIG=

SA 	20/01/2020 17:30-> 	

METAR FMMI 201730Z 03004KT 360V080 9999 FEW010 SCT017 BKN020
           20/19 Q1013 NOSIG=

SA 	20/01/2020 17:00-> 	

METAR FMMI 201700Z 02004KT 9999 FEW010 SCT017 BKN020 20/19
           Q1013 NOSIG=

SA 	20/01/2020 16:30-> 	

METAR FMMI 201630Z 03006KT 350V060 9999 SCT013 BKN020 20/19
           Q1012 NOSIG=

SA 	20/01/2020 16:00-> 	

METAR FMMI 201600Z 02005KT 9999 SCT013 BKN020 20/19 Q1012
           NOSIG=

SA 	20/01/2020 15:30-> 	

METAR FMMI 201530Z 03004KT 360V060 9999 SCT013 BKN020 21/20
           Q1012 NOSIG=

SA 	20/01/2020 15:00-> 	

METAR FMMI 201500Z 04006KT 9999 FEW010 SCT017 BKN020 21/20
           Q1011 TEMPO 4500 SHRA=

SA 	20/01/2020 14:30-> 	

METAR FMMI 201430Z 02004KT 350V060 9999 -RA FEW010 SCT017
           BKN020 22/20 Q1011 NOSIG=

SA 	20/01/2020 14:00-> 	

METAR FMMI 201400Z 35008KT 9000 -RA FEW010 SCT017 BKN020
           22/19 Q1011 TEMPO 4500 SHRA=

SA 	20/01/2020 13:30-> 	

METAR FMMI 201330Z 07004KT 020V110 9999 -RA FEW010 SCT017
           BKN020 21/21 Q1011 TEMPO 4500 SHRA=

SA 	20/01/2020 13:00-> 	

METAR FMMI 201300Z 08006KT 9000 -RA FEW010 SCT017 BKN020
           21/20 Q1012 TEMPO 4500 SHRA=

SA 	20/01/2020 12:30-> 	

METAR FMMI 201230Z VRB02KT 7000 -RA FEW010 SCT017 BKN020
           21/20 Q1012 TEMPO 4500 SHRA=

SA 	20/01/2020 12:00-> 	

METAR FMMI 201200Z VRB01KT 8000 -RA FEW010 SCT017 BKN020
           20/19 Q1012 TEMPO 4500 SHRA=

SP 	20/01/2020 11:37-> 	

SPECI FMMI 201137Z VRB03KT 7000 -RA FEW010 SCT017 BKN020
           20/19 Q1012 TEMPO 4500 SHRA=

SA 	20/01/2020 11:30-> 	

METAR FMMI 201130Z VRB04KT 4000 RA FEW010 SCT017 BKN020 20/19
           Q1012 TEMPO 2500 SHRA=

SP 	20/01/2020 11:08-> 	

SPECI FMMI 201108Z 19006KT 110V240 7000 -RA FEW010 SCT017
           BKN020 20/=

SA 	20/01/2020 11:00-> 	

METAR FMMI 201100Z 23009KT 200V270 5000 RA FEW010 SCT017
           BKN020 20/19 Q1012 TEMPO 2500 SHRA=

SP 	20/01/2020 10:52-> 	

SPECI FMMI 201052Z 24009KT 200V290 8000 RA FEW010 SCT017
           BKN020 22/19 Q1012 TEMPO 4500 SHRA=

SA 	20/01/2020 10:30-> 	

METAR FMMI 201030Z 33006KT 290V360 9999 VCSH SCT017 BKN020
           26/19 Q1012 NOSIG=

SA 	20/01/2020 10:00-> 	

METAR FMMI 201000Z 33009KT 9999 VCSH SCT017 SCT020 25/19
           Q1012 NOSIG=

SA 	20/01/2020 09:30-> 	

METAR FMMI 200930Z 35007KT 300V020 9999 SCT017 SCT020 24/19
           Q1013 NOSIG=

SA 	20/01/2020 09:00-> 	

METAR FMMI 200900Z 32010KT 280V340 9999 SCT017 SCT020 25/19
           Q1013 NOSIG=

SA 	20/01/2020 08:30-> 	

METAR FMMI 200830Z 31010KT 280V360 9999 BKN017 25/19 Q1014
           NOSIG=

SA 	20/01/2020 08:00-> 	

METAR FMMI 200800Z 31008KT 9999 BKN017 25/19 Q1014 NOSIG=

SA 	20/01/2020 07:30-> 	

METAR FMMI 200730Z 29006KT 220V320 9999 SCT017 SCT020 24/19
           Q1014 NOSIG=

SA 	20/01/2020 07:00-> 	

METAR FMMI 200700Z VRB04KT 9999 SCT017 SCT020 24/20 Q1014
           NOSIG=

SA 	20/01/2020 06:30-> 	

METAR FMMI 200630Z 32007KT 270V340 9999 SCT010 BKN020 23/19
           Q1014 NOSIG=

SA 	20/01/2020 06:00-> 	

METAR FMMI 200600Z 31006KT 270V330 9999 FEW008 BKN020 22/19
           Q1015 NOSIG=

SA 	20/01/2020 05:30-> 	

METAR FMMI 200530Z 30007KT 270V330 9999 FEW008 BKN020 22/20
           Q1015 NOSIG=

SA 	20/01/2020 05:00-> 	

METAR FMMI 200500Z 32003KT 290V360 9999 SCT008 BKN020 21/20
           Q1014 TEMPO 4500 RADZ=

SA 	20/01/2020 04:30-> 	

METAR FMMI 200430Z 28003KT 230V310 7000 -DZ SCT007 BKN020
           20/19 Q1014 TEMPO 4500 RADZ=

SA 	20/01/2020 04:00-> 	

METAR FMMI 200400Z 31003KT 280V360 7000 -DZ SCT007 BKN020
           20/19 Q1014 TEMPO 4500 RADZ=

SA 	20/01/2020 03:30-> 	

METAR FMMI 200330Z 28004KT 240V310 9999 SCT010 BKN020 20/19
           Q1014 NOSIG=

SA 	20/01/2020 03:00-> 	

METAR FMMI 200300Z VRB03KT 9999 FEW015 BKN020 19/19 Q1014
           NOSIG=

SA 	20/01/2020 02:30-> 	

METAR FMMI 200230Z 22004KT 180V250 9999 FEW015 BKN020 19/19
           Q1014 NOSIG=

SA 	20/01/2020 02:00-> 	

METAR FMMI 200200Z VRB03KT 9999 FEW017 BKN020 19/18 Q1013
           NOSIG=

SA 	20/01/2020 01:30-> 	

METAR FMMI 200130Z VRB02KT 9999 FEW015 SCT020 19/18 Q1013
           NOSIG=

SA 	20/01/2020 01:00-> 	

METAR FMMI 200100Z VRB02KT 9999 FEW017 BKN020 19/18 Q1013
           NOSIG=

SA 	20/01/2020 00:30-> 	

METAR FMMI 200030Z 28003KT 250V310 9999 FEW017 BKN020 19/18
           Q1013 NOSIG=

SA 	20/01/2020 00:00-> 	

METAR FMMI 200000Z 30007KT 9999 FEW017 SCT020 19/18 Q1013
           NOSIG=

SA 	19/01/2020 23:30-> 	

METAR FMMI 192330Z 32006KT 9999 FEW017 SCT020 19/18 Q1013
           NOSIG=

SA 	19/01/2020 23:00-> 	

METAR FMMI 192300Z 33005KT 9999 FEW017 BKN020 19/18 Q1013
           NOSIG=

SA 	19/01/2020 22:30-> 	

METAR FMMI 192230Z 34008KT 9999 FEW017 BKN020 20/18 Q1014
           NOSIG=

SA 	19/01/2020 22:00-> 	

METAR FMMI 192200Z 32006KT 9999 FEW017 BKN020 20/18 Q1014
           NOSIG=

SA 	19/01/2020 21:30-> 	

METAR FMMI 192130Z 34008KT 9999 FEW010 BKN020 20/18 Q1015
           NOSIG=

SA 	19/01/2020 21:00-> 	

METAR FMMI 192100Z 33006KT 9999 FEW010 BKN020 20/18 Q1015
           NOSIG=

SA 	19/01/2020 20:30-> 	

METAR FMMI 192030Z 33005KT 9999 FEW010 BKN020 20/18 Q1015
           NOSIG=

SA 	19/01/2020 20:00-> 	

METAR FMMI 192000Z 32003KT 260V350 9999 FEW010 BKN020 20/18
           Q1015 NOSIG=

SA 	19/01/2020 19:30-> 	

METAR FMMI 191930Z 32005KT 290V350 9999 FEW010 BKN020 20/19
           Q1015 NOSIG=

SA 	19/01/2020 19:00-> 	

METAR FMMI 191900Z 33004KT 290V360 9999 -RA FEW017 BKN020
           20/19 Q1015 TEMPO 4000 RA=

SA 	19/01/2020 18:30-> 	

METAR FMMI 191830Z VRB02KT 9999 -RA FEW017 BKN020 20/19 Q1015
           TEMPO 4000 RA=

SA 	19/01/2020 18:00-> 	

METAR FMMI 191800Z 29004KT 250V310 9999 FEW017 BKN020 20/19
           Q1015 TEMPO 4000 RA=

SA 	19/01/2020 17:30-> 	

METAR FMMI 191730Z 28004KT 9999 FEW017CB SCT020 20/19 Q1015
           TEMPO 4000 RA=

SA 	19/01/2020 17:00-> 	

METAR FMMI 191700Z 31006KT 9999 -RA FEW015 FEW017CB BKN030
           20/19 Q1015 TEMPO 4000 TSRA=

SA 	19/01/2020 16:30-> 	

METAR FMMI 191630Z 35005KT 9999 -RA FEW015 FEW017CB BKN030
           20/18 Q1015 TEMPO 4000 TSRA=

SA 	19/01/2020 16:00-> 	

METAR FMMI 191600Z 33008KT 9999 -RA FEW015 SCT017CB BKN030
           20/19 Q1015 TEMPO 4000 TSRA=

SA 	19/01/2020 15:30-> 	

METAR FMMI 191530Z 32009KT 8000 -RA FEW015 SCT017CB BKN030
           20/19 Q1014 TEMPO 4000 TSRA=

SA 	19/01/2020 15:00-> 	

METAR FMMI 191500Z 32015KT 300V360 8000 -RA SCT017CB BKN023
           19/18 Q1013 TEMPO 4000 TSRA=

SA 	19/01/2020 14:30-> 	

METAR FMMI 191430Z 32018KT 7000 -RA SCT017CB BKN023 21/18
           Q1013 TEMPO 4000 TSRA=

SA 	19/01/2020 14:00-> 	

METAR FMMI 191400Z 32010KT 9999 SCT017CB SCT020 23/20 Q1012
           TEMPO 4000 TSRA=

SA 	19/01/2020 13:30-> 	

METAR FMMI 191330Z 31011KT 9999 VCTS SCT017CB BKN023 23/20
           Q1012 RETS TEMPO 4000 TSRA=

SA 	19/01/2020 13:00-> 	

METAR FMMI 191300Z 31011KT 9999 TS SCT017CB BKN030 22/21
           Q1012 TEMPO 4000 TSRA=

SA 	19/01/2020 12:30-> 	

METAR FMMI 191230Z 28011KT 240V300 9999 -TSRA SCT017CB BKN023
           21/20 Q1012 TEMPO 4000 TSRA=

SA 	19/01/2020 12:00-> 	

METAR FMMI 191200Z 28010KT 250V310 9999 -RA SCT017CB BKN023
           25/21 Q1012 TEMPO 4000 TSRA=

SA 	19/01/2020 11:30-> 	

METAR FMMI 191130Z 29011KT 250V310 9999 -RA SCT017CB BKN023
           23/21 Q1012 TEMPO 4000 RA=

SP 	19/01/2020 11:13-> 	

SPECI FMMI 191113Z 29013G30KT 250V320 8000 -RA SCT017CB BKN020
           23/21 Q1012 TEMPO 4000 RA=

SP 	19/01/2020 11:08-> 	

SPECI FMMI 191108Z 31017G30KT 4000 RA FEW010 SCT017CB 25/20
           Q1012 TEMPO 2500=

SA 	19/01/2020 11:00-> 	

METAR FMMI 191100Z 32012KT 9999 VCSH SCT017CB SCT020 28/20
           Q1012 TEMPO 4000 TSRA=

SA 	19/01/2020 10:30-> 	

METAR FMMI 191030Z 30011KT 260V320 9999 SCT017CB SCT020 28/20
           Q1013 TEMPO 4000 TSRA=

SA 	19/01/2020 10:00-> 	

METAR FMMI 191000Z 33008KT 290V010 9999 SCT017 SCT020 27/20
           Q1013 NOSIG=

SA 	19/01/2020 09:30-> 	

METAR FMMI 190930Z 32010KT 9999 SCT017TCU SCT020 27/20 Q1014
           NOSIG=

SA 	19/01/2020 09:00-> 	

METAR FMMI 190900Z 35008KT 300V020 9999 SCT017TCU SCT020
           26/20 Q1014 NOSIG=

SA 	19/01/2020 08:30-> 	

METAR FMMI 190830Z 33008KT 9999 SCT017CB SCT020 25/20 Q1015
           NOSIG=

SA 	19/01/2020 08:00-> 	

METAR FMMI 190800Z 31010KT 9999 -RA SCT017CB BKN020 26/21
           Q1015 NOSIG=

SA 	19/01/2020 07:30-> 	

METAR FMMI 190730Z 33007KT 290V010 9999 SCT017CB BKN020 25/20
           Q1015 NOSIG=

SA 	19/01/2020 07:00-> 	

METAR FMMI 190700Z VRB04KT 9999 FEW015 BKN020 25/20 Q1015
           NOSIG=

SA 	19/01/2020 06:30-> 	

METAR FMMI 190630Z 32004KT 270V030 9999 FEW015 BKN020 25/20
           Q1015 NOSIG=

SA 	19/01/2020 06:00-> 	

METAR FMMI 190600Z VRB02KT 9999 FEW010 SCT020 24/19 Q1015
           NOSIG=

SA 	19/01/2020 05:30-> 	

METAR FMMI 190530Z VRB03KT 9999 FEW007 SCT017 23/20 Q1015
           NOSIG=

SA 	19/01/2020 05:00-> 	

METAR FMMI 190500Z 31004KT 270V350 9999 FEW010 BKN017 22/20
           Q1016 NOSIG=

SA 	19/01/2020 04:30-> 	

METAR FMMI 190430Z VRB03KT 9999 FEW007 SCT015 21/20 Q1016
           NOSIG=

SA 	19/01/2020 04:00-> 	

METAR FMMI 190400Z 32004KT 9999 FEW007 SCT015 20/20 Q1016
           NOSIG=

SA 	19/01/2020 03:30-> 	

METAR FMMI 190330Z 31004KT 9999 -RA FEW010 BKN020 20/19 Q1016
           NOSIG=

SA 	19/01/2020 03:00-> 	

METAR FMMI 190300Z 35004KT 230V010 9999 FEW010 BKN020 20/19
           Q1015 NOSIG=

SA 	19/01/2020 02:30-> 	

METAR FMMI 190230Z 00000KT 9999 FEW007 BKN020 19/19 Q1015
           NOSIG=

SA 	19/01/2020 02:00-> 	

METAR FMMI 190200Z 00000KT 9999 FEW007 BKN020 19/18 Q1015
           TEMPO 4800 RA=

SP 	19/01/2020 02:00-> 	

METAR FMMI 190200Z 00000KT 9999 FEW007 BKN020 19/18 Q1015
           TEMPO 4800 RA=

SA 	19/01/2020 01:30-> 	

METAR FMMI 190130Z 06002KT 9999 FEW007 BKN020 19/19 Q1015
           TEMPO 4800 RA=

SA 	19/01/2020 01:00-> 	

METAR FMMI 190100Z 10005KT 9999 FEW007 BKN020 19/19 Q1015
           TEMPO 4800 RA=

SA 	19/01/2020 00:30-> 	

METAR FMMI 190030Z 09006KT 8000 -RA FEW007 BKN020 20/19 Q1015
           TEMPO 4000 RA=

SP 	19/01/2020 00:00-> 	

METAR FMMI 190000Z 10007KT 9999 FEW007 BKN020 20/19 Q1015
           TEMPO 4800 RA=

SA 	19/01/2020 00:00-> 	

METAR FMMI 190000Z 10007KT 9999 FEW007 BKN020 20/19 Q1015
           TEMPO 4800 RA=

SA 	18/01/2020 23:30-> 	

METAR FMMI 182330Z 11008KT 090V150 9999 FEW007 BKN020 20/19
           Q1015 TEMPO 4800 RA=

SA 	18/01/2020 23:00-> 	

METAR FMMI 182300Z 15003KT 100V180 9999 -RA FEW008 BKN020
           20/19 Q1015 TEMPO 4000 RA=

SA 	18/01/2020 22:30-> 	

METAR FMMI 182230Z 10004KT 080V140 7000 -RA FEW008 BKN020
           20/20 Q1015 TEMPO 4000 RA=

SA 	18/01/2020 22:00-> 	

METAR FMMI 182200Z 27006KT 210V300 9999 -RA FEW008 BKN020
           20/20 Q1015 NOSIG=

SP 	18/01/2020 21:30-> 	

METAR FMMI 182130Z VRB02KT 9999 FEW010 BKN020 21/20 Q1015
           NOSIG=

SP 	18/01/2020 21:00-> 	

METAR FMMI 182100Z VRB01KT 9999 FEW010 BKN020 21/20 Q1016
           NOSIG=

SA 	18/01/2020 21:00-> 	

METAR FMMI 182100Z VRB01KT 9999 FEW010 BKN020 21/20 Q1016
           NOSIG=

SA 	18/01/2020 20:30-> 	

METAR FMMI 182030Z VRB01KT 9999 FEW017 SCT020 21/20 Q1016
           NOSIG=

SA 	18/01/2020 20:00-> 	

METAR FMMI 182000Z 03001KT 9999 FEW017 SCT020 21/20 Q1016
           NOSIG=

SA 	18/01/2020 19:00-> 	

METAR FMMI 181900Z VRB01KT 9999 FEW017CB SCT020 21/20 Q1017
           TEMPO 4000 TSRA=

SA 	18/01/2020 18:30-> 	

METAR FMMI 181830Z 33003KT 9999 FEW017CB SCT020 22/20 Q1017
           TEMPO 4000 TSRA=

SP 	18/01/2020 18:00-> 	

METAR FMMI 181800Z 33002KT 8000 FEW039 22/20 Q1017 TEMPO
           4000 TSRA=

SA 	18/01/2020 18:00-> 	

METAR FMMI 181800Z 33002KT 8000 FEW039 22/20 Q1017 TEMPO
           4000 TSRA=

SP 	18/01/2020 17:30-> 	

METAR FMMI 181730Z 05003KT 9999 FEW017CB SCT020 22/20 Q1016
           TEMPO 4000 TSRA=

SA 	18/01/2020 17:00-> 	

METAR FMMI 181700Z VRB02KT 9999 FEW017CB SCT020 22/20 Q1016
           TEMPO 4000 TSRA=

SA 	18/01/2020 16:30-> 	

METAR FMMI 181630Z VRB01KT 9999 FEW017CB SCT020 22/20 Q1015
           TEMPO 4000 TSRA=

SA 	18/01/2020 16:00-> 	

METAR FMMI 181600Z VRB03KT 9999 SCT017CB SCT020 22/20 Q1015
           TEMPO 4000 TSRA=

SA 	18/01/2020 15:30-> 	

METAR FMMI 181530Z 32003KT 9999 SCT017CB SCT020 22/20 Q1015
           NOSIG=

SA 	18/01/2020 15:00-> 	

METAR FMMI 181500Z 31007KT 9999 SCT020CB SCT023 22/20 Q1014
           TEMPO 4000 TSRA=

SA 	18/01/2020 14:30-> 	

METAR FMMI 181430Z 29007KT 9999 SCT020CB SCT023 23/20 Q1014
           TEMPO 4000 TSRA=

SA 	18/01/2020 14:00-> 	

METAR FMMI 181400Z 30009KT 9999 SCT020CB 23/20 Q1013 TEMPO
           4000 TSRA=

SA 	18/01/2020 13:30-> 	

METAR FMMI 181330Z 29011KT 260V320 9999 SCT020CB 23/20 Q1013
           TEMPO 4000 TSRA=

SA 	18/01/2020 13:00-> 	

METAR FMMI 181300Z 29009KT 9999 SCT020CB SCT023 24/20 Q1013
           TEMPO 3000 TSRA=

SA 	18/01/2020 12:30-> 	

METAR FMMI 181230Z 30008KT 260V320 9999 VCSH SCT020CB SCT023
           23/20 Q1014 TEMPO 3000 TSRA=

SA 	18/01/2020 12:00-> 	

METAR FMMI 181200Z 30009KT 9999 -RA BKN020CB 23/20 Q1014
           TEMPO 3000 TSRA=

SA 	18/01/2020 11:30-> 	

METAR FMMI 181130Z 35007KT 9999 VCSH BKN020CB 25/19 Q1014
           TEMPO 3000 TSRA=

SA 	18/01/2020 11:00-> 	

METAR FMMI 181100Z 01008KT 9999 VCSH BKN020CB 25/20 Q1014
           TEMPO 4000 TSRA=

SA 	18/01/2020 10:30-> 	

METAR FMMI 181030Z 04006KT 9999 VCSH BKN020CB 26/20 Q1014
           TEMPO 4000 TSRA=

SA 	18/01/2020 10:00-> 	

METAR FMMI 181000Z 17003KT 080V250 9999 BKN020CB 28/19 Q1014
           TEMPO TS=

SA 	18/01/2020 09:30-> 	

METAR FMMI 180930Z VRB03KT 9999 BKN020TCU 27/19 Q1015 NOSIG=

SA 	18/01/2020 09:00-> 	

METAR FMMI 180900Z 28004KT 200V330 9999 BKN020TCU 26/19 Q1015
           NOSIG=

SA 	18/01/2020 08:30-> 	

METAR FMMI 180830Z VRB04KT 9999 BKN020 26/19 Q1016 NOSIG=

SA 	18/01/2020 08:00-> 	

METAR FMMI 180800Z VRB03KT 9999 SCT020 SCT023 25/19 Q1016
           NOSIG=

SA 	18/01/2020 07:30-> 	

METAR FMMI 180730Z 30004KT 220V030 9999 SCT020 SCT023 24/20
           Q1016 NOSIG=

SA 	18/01/2020 07:00-> 	

METAR FMMI 180700Z 29005KT 250V330 9999 BKN020 SCT023 24/19
           Q1017 NOSIG=

SA 	18/01/2020 06:30-> 	

METAR FMMI 180630Z 32003KT 270V040 9999 BKN020 SCT023 24/19
           Q1017 NOSIG=

SA 	18/01/2020 06:00-> 	

METAR FMMI 180600Z VRB01KT 9999 BKN020 24/19 Q1017 NOSIG=

SA 	18/01/2020 05:30-> 	

METAR FMMI 180530Z VRB01KT 9999 SCT017 SCT020 23/19 Q1017
           NOSIG=

SA 	18/01/2020 05:00-> 	

METAR FMMI 180500Z 00000KT 9999 SCT017 22/19 Q1016 NOSIG=

SA 	18/01/2020 04:30-> 	

METAR FMMI 180430Z VRB01KT 9999 FEW003 SCT020 21/20 Q1016
           NOSIG=

SA 	18/01/2020 04:00-> 	

METAR FMMI 180400Z VRB02KT 9999 FEW003 SCT020 20/20 Q1016
           NOSIG=

SA 	18/01/2020 03:30-> 	

METAR FMMI 180330Z 32002KT 9999 FEW003 SCT020 20/19 Q1016
           NOSIG=

SA 	18/01/2020 03:00-> 	

METAR FMMI 180300Z 00000KT 9999 FEW008 SCT020 19/19 Q1016
           NOSIG=

SA 	18/01/2020 02:30-> 	

METAR FMMI 180230Z 31003KT 9999 FEW008 SCT020 19/18 Q1016
           NOSIG=

SA 	18/01/2020 02:00-> 	

METAR FMMI 180200Z 00000KT 9999 FEW017 SCT020 19/19 Q1015
           NOSIG=

SA 	18/01/2020 01:30-> 	

METAR FMMI 180130Z 00000KT 9999 FEW017 SCT020 19/19 Q1015
           NOSIG=

SA 	18/01/2020 01:00-> 	

METAR FMMI 180100Z 00000KT 9999 FEW008 BKN020 20/19 Q1015
           NOSIG=

SA 	18/01/2020 00:30-> 	

METAR FMMI 180030Z VRB01KT 9999 FEW008 BKN020 20/19 Q1015
           NOSIG=

SA 	18/01/2020 00:00-> 	

METAR FMMI 180000Z 32002KT 9999 FEW008 BKN020 20/19 Q1016
           NOSIG=

SA 	17/01/2020 23:30-> 	

METAR FMMI 172330Z VRB02KT 9999 FEW007 BKN020 20/19 Q1016
           NOSIG=

SA 	17/01/2020 23:00-> 	

METAR FMMI 172300Z VRB01KT 9999 FEW007 BKN020 20/19 Q1016
           NOSIG=

SA 	17/01/2020 22:00-> 	

METAR FMMI 172200Z VRB02KT 9999 FEW007 BKN020 20/19 Q1016
           NOSIG=

SA 	17/01/2020 21:30-> 	

METAR FMMI 172130Z VRB01KT 9999 FEW007 BKN020 20/19 Q1016
           NOSIG=

SA 	17/01/2020 21:00-> 	

METAR FMMI 172100Z VRB03KT 9999 FEW017 BKN020 20/19 Q1017
           NOSIG=

SA 	17/01/2020 20:30-> 	

METAR FMMI 172030Z VRB03KT 9999 FEW017 BKN020 20/19 Q1017
           NOSIG=

SA 	17/01/2020 20:00-> 	

METAR FMMI 172000Z VRB02KT 9999 FEW017 BKN020 21/20 Q1018
           NOSIG=

SA 	17/01/2020 19:30-> 	

METAR FMMI 171930Z VRB02KT 9999 FEW017 BKN020 21/19 Q1018
           NOSIG=

SA 	17/01/2020 19:00-> 	

METAR FMMI 171900Z 04004KT 9999 FEW017 BKN020 21/20 Q1018
           NOSIG=

SA 	17/01/2020 18:30-> 	

METAR FMMI 171830Z 05004KT 360V070 9999 FEW017CB BKN020 21/19
           Q1017 NOSIG=

SA 	17/01/2020 18:00-> 	

METAR FMMI 171800Z 05007KT 9999 FEW017CB BKN020 21/19 Q1017
           NOSIG=

SA 	17/01/2020 17:30-> 	

METAR FMMI 171730Z VRB03KT 9999 FEW017CB BKN020 21/19 Q1017
           NOSIG=

SA 	17/01/2020 17:00-> 	

METAR FMMI 171700Z 05004KT 9999 FEW017CB BKN020 21/19 Q1016
           NOSIG=

SA 	17/01/2020 16:30-> 	

METAR FMMI 171630Z 05004KT 9999 VCSH FEW017CB BKN020 21/19
           Q1016 NOSIG=

SA 	17/01/2020 16:00-> 	

METAR FMMI 171600Z 02005KT 350V050 9999 FEW017CB BKN020 21/19
           Q1016 NOSIG=

SA 	17/01/2020 15:30-> 	

METAR FMMI 171530Z 02005KT 350V060 9999 FEW017CB BKN020 22/19
           Q1015 TEMPO TSRA=

SA 	17/01/2020 15:00-> 	

METAR FMMI 171500Z 04003KT 010V080 9999 VCSH FEW017CB SCT020
           22/20 Q1015 TEMPO 4000 TSRA=

SA 	17/01/2020 14:30-> 	

METAR FMMI 171430Z 33006KT 9999 -TSRA SCT017CB SCT020 22/20
           Q1015 TEMPO 4000 TSRA=

SA 	17/01/2020 14:00-> 	

METAR FMMI 171400Z 34010KT 310V010 9999 -TSRA SCT017CB SCT020
           21/19 Q1015 TEMPO 4000 TSRA=

SA 	17/01/2020 13:30-> 	

METAR FMMI 171330Z 32010KT 9999 -RA SCT020CB SCT023 21/19
           Q1014 TEMPO 4000 TSRA=

SA 	17/01/2020 13:00-> 	

METAR FMMI 171300Z 32009KT 9999 VCSH SCT020CB SCT023 22/19
           Q1014 TEMPO 4000 TSRA=

SA 	17/01/2020 12:30-> 	

METAR FMMI 171230Z 34008KT 300V360 9999 -RA SCT020CB SCT023
           23/18 Q1014 TEMPO 4000 TSRA=

SA 	17/01/2020 12:00-> 	

METAR FMMI 171200Z 36010KT 9999 SCT020CB SCT023 25/19 Q1014
           TEMPO 4000 TSRA=

SA 	17/01/2020 11:30-> 	

METAR FMMI 171130Z 34005KT 310V010 9999 SCT020CB SCT023 27/18
           Q1014 TEMPO 4000 TSRA=

SA 	17/01/2020 11:00-> 	

METAR FMMI 171100Z 36008KT 330V030 9999 SCT020CB 28/18 Q1015
           NOSIG=

SA 	17/01/2020 10:30-> 	

METAR FMMI 171030Z 33006KT 290V010 9999 SCT020CB 28/18 Q1015
           NOSIG=

SA 	17/01/2020 10:00-> 	

METAR FMMI 171000Z 01004KT 300V070 9999 SCT020 28/19 Q1016
           NOSIG=

SA 	17/01/2020 09:30-> 	

METAR FMMI 170930Z 02005KT 350V110 9999 SCT020 28/19 Q1016
           NOSIG=

SA 	17/01/2020 09:00-> 	

METAR FMMI 170900Z VRB04KT 9999 SCT020 27/18 Q1016 NOSIG=

SA 	17/01/2020 08:30-> 	

METAR FMMI 170830Z VRB03KT 9999 SCT020 27/19 Q1017 NOSIG=

SA 	17/01/2020 08:00-> 	

METAR FMMI 170800Z VRB04KT 9999 SCT020 27/20 Q1017 NOSIG=

SP 	17/01/2020 07:30-> 	

METAR FMMI 170730Z 12004KT 060V180 9999 SCT020 26/18 Q1017
           NOSIG=

SA 	17/01/2020 07:00-> 	

METAR FMMI 170700Z 07003KT 330V120 9999 SCT020 24/19 Q1018
           NOSIG=

SA 	17/01/2020 06:30-> 	

METAR FMMI 170630Z VRB03KT 9999 SCT020 24/19 Q1018 NOSIG=

SA 	17/01/2020 06:00-> 	

METAR FMMI 170600Z 18003KT 140V240 9999 SCT020 23/19 Q1018
           NOSIG=

SA 	17/01/2020 05:30-> 	

METAR FMMI 170530Z 17004KT 120V200 9999 FEW007 SCT020 21/19
           Q1019 NOSIG=

SA 	17/01/2020 05:00-> 	

METAR FMMI 170500Z 18004KT 140V210 9999 FEW003 SCT020 BKN030
           21/19 Q1019 NOSIG=

SA 	17/01/2020 04:30-> 	

METAR FMMI 170430Z 20003KT 9999 -RADZ FEW003 SCT020 BKN030
           20/19 Q1019 NOSIG=

SA 	17/01/2020 04:00-> 	

METAR FMMI 170400Z 00000KT 9999 -RADZ FEW010 SCT017 BKN023
           20/19 Q1019 NOSIG=

SA 	17/01/2020 03:30-> 	

METAR FMMI 170330Z VRB01KT 9999 -RADZ FEW010 SCT017 BKN023
           19/19 Q1019 NOSIG=

SA 	17/01/2020 03:00-> 	

METAR FMMI 170300Z 00000KT 9999 FEW010 BKN020 19/18 Q1018
           NOSIG=

SA 	17/01/2020 02:30-> 	

METAR FMMI 170230Z 18001KT 9999 FEW010 BKN020 19/18 Q1018
           NOSIG=

SA 	17/01/2020 02:00-> 	

METAR FMMI 170200Z VRB01KT 9999 FEW010 SCT020 19/18 Q1018
           NOSIG=

SP 	17/01/2020 02:00-> 	

METAR FMMI 170200Z VRB01KT 9999 FEW010 SCT020 19/18 Q1018
           NOSIG=

SA 	17/01/2020 01:30-> 	

METAR FMMI 170130Z VRB02KT 9999 VCSH FEW010 SCT020 19/18
           Q1018 NOSIG=

SA 	17/01/2020 01:00-> 	

METAR FMMI 170100Z 00000KT 9999 VCSH FEW010 SCT020 19/18
           Q1018 NOSIG=

SA 	17/01/2020 00:30-> 	

METAR FMMI 170030Z 20003KT 9999 -RA FEW010 BKN020 19/18 Q1018
           NOSIG=

SA 	17/01/2020 00:00-> 	

METAR FMMI 170000Z 20003KT 9999 -RA FEW010 BKN020 19/18 Q1018
           NOSIG=

SP 	17/01/2020 00:00-> 	

METAR FMMI 170000Z 20003KT 9999 -RA FEW010 BKN020 19/18 Q1018
           NOSIG=

SA 	16/01/2020 23:30-> 	

METAR FMMI 162330Z VRB02KT 9999 -RA FEW010 BKN020 19/19 Q1018
           TEMPO 4500 RA=

SA 	16/01/2020 23:00-> 	

METAR FMMI 162300Z 20004KT 9999 -RA FEW010 BKN020 20/19 Q1018
           TEMPO 4500 RA=

SA 	16/01/2020 22:30-> 	

METAR FMMI 162230Z 21002KT 9999 -RA FEW010 BKN020 20/19 Q1018
           TEMPO 4500 RA=

SA 	16/01/2020 22:00-> 	

METAR FMMI 162200Z 20002KT 9999 -RA FEW010 BKN020 20/19 Q1018
           TEMPO 4500 RA=

SA 	16/01/2020 21:30-> 	

METAR FMMI 162130Z VRB01KT 9999 -RA FEW017 BKN020 20/18 Q1018
           TEMPO 4500 RA=

SA 	16/01/2020 21:00-> 	

METAR FMMI 162100Z VRB02KT 9999 -RA FEW013 BKN017 20/18 Q1018
           TEMPO 4500 RA=

SA 	16/01/2020 20:30-> 	

METAR FMMI 162030Z 00000KT 9999 FEW013 BKN017 20/18 Q1018
           NOSIG=

SA 	16/01/2020 20:00-> 	

METAR FMMI 162000Z 08005KT 9999 FEW017CB BKN030 20/18 Q1019
           TEMPO 4500 TSRA=

SA 	16/01/2020 19:30-> 	

METAR FMMI 161930Z 11007KT 9999 FEW017CB BKN030 20/18 Q1019
           TEMPO 4500 TSRA=

SA 	16/01/2020 19:00-> 	

METAR FMMI 161900Z 10007KT 9999 FEW017CB BKN030 20/18 Q1019
           TEMPO 4500 TSRA=

SA 	16/01/2020 18:30-> 	

METAR FMMI 161830Z 09008KT 9999 FEW017CB BKN030 20/18 Q1019
           TEMPO 4500 TSRA=

SA 	16/01/2020 18:00-> 	

METAR FMMI 161800Z 10010KT 9999 -RA FEW017CB SCT020 20/18
           Q1019 TEMPO 4500 TSRA=

SA 	16/01/2020 17:30-> 	

METAR FMMI 161730Z 08010KT 9999 FEW017CB BKN023 21/19 Q1019
           TEMPO 4500 TSRA=

SA 	16/01/2020 17:00-> 	

METAR FMMI 161700Z 09009KT 9999 FEW017CB SCT023 21/19 Q1018
           TEMPO 4500 TSRA=

SA 	16/01/2020 16:30-> 	

METAR FMMI 161630Z 10008KT 9999 FEW017CB SCT023 21/19 Q1018
           TEMPO 4500 TSRA=

SA 	16/01/2020 16:00-> 	

METAR FMMI 161600Z 10007KT 9999 SCT017CB SCT023 21/19 Q1018
           TEMPO 4500 TSRA=

SA 	16/01/2020 15:30-> 	

METAR FMMI 161530Z 10009KT 9999 -RA SCT017CB SCT023 21/19
           Q1017 RETS TEMPO 4500 TSRA=

SA 	16/01/2020 15:00-> 	

METAR FMMI 161500Z 07004KT 040V100 9999 -TSRA SCT017CB BKN020
           21/20 Q1017 TEMPO 4500 TSRA=

SP 	16/01/2020 14:39-> 	

SPECI FMMI 161439Z 06003KT 010V120 9999 -TSRA SCT017CB BKN020
           21/20 Q1017 TEMPO 4500 TSRA=

SA 	16/01/2020 14:30-> 	

METAR FMMI 161430Z 35006KT 330V030 9999 -RA FEW010 SCT017CB
           21/19 Q1017 TEMPO 4500 TSRA=

SA 	16/01/2020 14:00-> 	

METAR FMMI 161400Z 10013KT 9999 -RA FEW010 SCT017CB 25/19
           Q1016 TEMPO 4500 TSRA=

SA 	16/01/2020 13:30-> 	

METAR FMMI 161330Z 10009KT 080V150 9999 VCSH FEW010 SCT017CB
           27/18 Q1015 TEMPO 4500 TSRA=

SA 	16/01/2020 13:00-> 	

METAR FMMI 161300Z 11006KT 020V170 9999 SCT017CB SCT020 28/18
           Q1016 NOSIG=

SA 	16/01/2020 12:30-> 	

METAR FMMI 161230Z 15008KT 050V200 9999 SCT017CB SCT020 28/19
           Q1016 NOSIG=

SA 	16/01/2020 12:00-> 	

METAR FMMI 161200Z 12010KT 090V160 9999 SCT017CB SCT020 27/19
           Q1017 NOSIG=

SA 	16/01/2020 11:30-> 	

METAR FMMI 161130Z 13010KT 090V190 9999 SCT017CB SCT020 27/19
           Q1017 NOSIG=

SA 	16/01/2020 11:00-> 	

METAR FMMI 161100Z 11010KT 9999 BKN020 27/19 Q1017 NOSIG=

SA 	16/01/2020 10:30-> 	

METAR FMMI 161030Z 15009KT 110V190 9999 BKN020 26/19 Q1017
           NOSIG=

SA 	16/01/2020 10:00-> 	

METAR FMMI 161000Z 12007KT 090V180 9999 BKN020 26/19 Q1018
           NOSIG=

SA 	16/01/2020 09:30-> 	

METAR FMMI 160930Z 10009KT 060V130 9999 BKN020 26/18 Q1018
           NOSIG=

SA 	16/01/2020 09:00-> 	

METAR FMMI 160900Z 10009KT 080V150 9999 BKN020 26/18 Q1018
           NOSIG=

SA 	16/01/2020 08:30-> 	

METAR FMMI 160830Z 12008KT 060V170 9999 BKN020 26/18 Q1019
           NOSIG=

SA 	16/01/2020 08:00-> 	

METAR FMMI 160800Z 13007KT 090V170 9999 BKN017 25/18 Q////=

SA 	16/01/2020 07:30-> 	

METAR FMMI 160730Z 12008KT 090V160 9999 BKN017 24/18 Q1019
           NOSIG=

SA 	16/01/2020 07:00-> 	

METAR FMMI 160700Z 11008KT 070V170 9999 BKN017 24/17 Q1019
           NOSIG=

SA 	16/01/2020 06:30-> 	

METAR FMMI 160630Z 17007KT 9999 BKN017 23/18 Q1020 NOSIG=

SA 	16/01/2020 06:00-> 	

METAR FMMI 160600Z 14007KT 090V190 9999 BKN017 23/18 Q1020
           NOSIG=

SA 	16/01/2020 05:30-> 	

METAR FMMI 160530Z 10009KT 9999 SCT017 BKN020 22/18 Q1020
           NOSIG=

SA 	16/01/2020 05:00-> 	

METAR FMMI 160500Z 11010KT 100V160 9999 SCT017 BKN020 21/17
           Q1020 NOSIG=

SA 	16/01/2020 04:30-> 	

METAR FMMI 160430Z 13007KT 100V170 9999 FEW017 BKN020 21/17
           Q1019 NOSIG=

SA 	16/01/2020 04:00-> 	

METAR FMMI 160400Z 11009KT 090V150 9999 FEW017 BKN020 20/17
           Q1019 NOSIG=

SA 	16/01/2020 03:30-> 	

METAR FMMI 160330Z 13006KT 100V170 9999 FEW017 BKN020 20/17
           Q1019 NOSIG=

SA 	16/01/2020 03:00-> 	

METAR FMMI 160300Z 11008KT 9999 FEW017 BKN020 20/17 Q1019
           NOSIG=

SA 	16/01/2020 02:30-> 	

METAR FMMI 160230Z 11008KT 9999 FEW017 BKN020 20/17 Q1019
           NOSIG=

SA 	16/01/2020 02:00-> 	

METAR FMMI 160200Z 12009KT 9999 FEW017 BKN020 20/17 Q1019
           NOSIG=

SA 	16/01/2020 01:30-> 	

METAR FMMI 160130Z 12008KT 100V160 9999 FEW017 BKN020 20/17
           Q1018 NOSIG=

SA 	16/01/2020 01:00-> 	

METAR FMMI 160100Z 12008KT 100V160 9999 FEW017 BKN020 20/17
           Q1018 NOSIG=

SA 	16/01/2020 00:30-> 	

METAR FMMI 160030Z 09006KT 9999 FEW017 BKN020 20/18 Q1018
           NOSIG=

SA 	16/01/2020 00:00-> 	

METAR FMMI 160000Z 10006KT 9999 FEW017 BKN020 20/17 Q1019
           NOSIG=

SA 	15/01/2020 23:30-> 	

METAR FMMI 152330Z 08006KT 9999 FEW017 BKN020 20/17 Q1019
           NOSIG=

SA 	15/01/2020 23:00-> 	

METAR FMMI 152300Z 10009KT 9999 FEW017 BKN020 20/17 Q1019
           NOSIG=

SA 	15/01/2020 22:30-> 	

METAR FMMI 152230Z 10007KT 9999 FEW017 BKN020 20/17 Q1019
           NOSIG=

SA 	15/01/2020 22:00-> 	

METAR FMMI 152200Z 10007KT 9999 FEW017 BKN020 20/17 Q1019
           NOSIG=

SA 	15/01/2020 21:30-> 	

METAR FMMI 152130Z 08007KT 9999 FEW017 BKN020 21/18 Q1019
           NOSIG=

SA 	15/01/2020 21:00-> 	

METAR FMMI 152100Z 11007KT 9999 FEW017 BKN020 21/18 Q1019
           NOSIG=

SA 	15/01/2020 20:30-> 	

METAR FMMI 152030Z 15006KT 120V180 9999 FEW017CB BKN020 21/18
           Q1020 NOSIG=

SP 	15/01/2020 20:00-> 	

SPECI FMMI 152000Z 14006KT 9999 FEW017CB BKN020 21/18 Q1020
           NOSIG=

SA 	15/01/2020 20:00-> 	

METAR COR FMMI 152000Z 14006KT 9999 FEW017CB BKN020 21/18
           Q1020 NOSIG=

SA 	15/01/2020 19:30-> 	

METAR FMMI 151930Z 08007KT 9999 FEW017CB BKN020 21/18 Q1020
           NOSIG=

SA 	15/01/2020 19:00-> 	

METAR FMMI 151900Z 08010KT 9999 FEW017CB BKN020 21/18 Q1020
           NOSIG=

SA 	15/01/2020 18:30-> 	

METAR FMMI 151830Z 09009KT 9999 VCTS FEW017CB BKN020 21/18
           Q1021 NOSIG=

SA 	15/01/2020 18:00-> 	

METAR FMMI 151800Z 10009KT 9999 VCTS FEW017CB SCT020 21/18
           Q1020 NOSIG=

SA 	15/01/2020 17:30-> 	

METAR FMMI 151730Z 10009KT 9999 VCTS FEW020CB 21/18 Q1020
           NOSIG=

SA 	15/01/2020 17:00-> 	

METAR FMMI 151700Z 10009KT 9999 VCTS FEW020CB 21/18 Q1020
           NOSIG=

SA 	15/01/2020 16:30-> 	

METAR FMMI 151630Z 10012KT 9999 VCTS FEW020CB 22/18 Q1019
           NOSIG=

SA 	15/01/2020 16:00-> 	

METAR FMMI 151600Z 11012KT 9999 FEW020CB 22/18 Q1019 TEMPO
           TS=

SA 	15/01/2020 15:30-> 	

METAR FMMI 151530Z 11012KT 9999 FEW020CB 23/18 Q1018 TEMPO
           TS=

SA 	15/01/2020 15:00-> 	

METAR FMMI 151500Z 11012KT 080V140 9999 FEW020CB 24/18 Q1018
           TEMPO TS=

SA 	15/01/2020 14:30-> 	

METAR FMMI 151430Z 13011KT 100V160 9999 SCT023CB 25/17 Q1017
           TEMPO TS=

SA 	15/01/2020 14:00-> 	

METAR FMMI 151400Z 12011KT 9999 BKN023CB 26/16 Q1017 TEMPO
           TS=

SA 	15/01/2020 13:30-> 	

METAR FMMI 151330Z 14010KT 090V180 9999 BKN023CB 26/16 Q1017
           TEMPO TS=

SA 	15/01/2020 13:00-> 	

METAR FMMI 151300Z 14010KT 100V180 9999 BKN023CB 27/17 Q1017
           TEMPO TS=

SA 	15/01/2020 12:30-> 	

METAR FMMI 151230Z 11011KT 080V170 9999 BKN023CB 28/17 Q1017
           NOSIG=

SA 	15/01/2020 12:00-> 	

METAR FMMI 151200Z 11007KT 060V150 9999 BKN023CB 28/15 Q1018
           NOSIG=

SA 	15/01/2020 11:30-> 	

METAR FMMI 151130Z 12007KT 090V190 9999 BKN023CB 28/16 Q1018
           NOSIG=

SA 	15/01/2020 11:00-> 	

METAR FMMI 151100Z VRB05KT 9999 BKN023CB 28/17 Q1018 NOSIG=

SA 	15/01/2020 10:30-> 	

METAR FMMI 151030Z 09007KT 040V210 9999 BKN023CB 28/16 Q1019
           NOSIG=

SA 	15/01/2020 10:00-> 	

METAR FMMI 151000Z VRB06KT 9999 BKN023CB 28/17 Q1019 NOSIG=

SA 	15/01/2020 09:30-> 	

METAR FMMI 150930Z 11006KT 040V200 9999 SCT020CB 28/17 Q1019
           NOSIG=

SA 	15/01/2020 09:00-> 	

METAR FMMI 150900Z 10008KT 060V140 9999 SCT020CB 27/16 Q1019
           NOSIG=

SA 	15/01/2020 08:30-> 	

METAR FMMI 150830Z 09008KT 030V140 9999 FEW017CB 27/16 Q1019
           NOSIG=

SA 	15/01/2020 08:00-> 	

METAR FMMI 150800Z 10009KT 070V140 9999 FEW017CB 26/16 Q1020
           NOSIG=

SA 	15/01/2020 07:30-> 	

METAR FMMI 150730Z 07006KT 010V100 9999 FEW017 25/17 Q1020
           NOSIG=

SA 	15/01/2020 07:00-> 	

METAR FMMI 150700Z 07007KT 040V130 9999 FEW017 25/17 Q1020
           NOSIG=

SA 	15/01/2020 06:30-> 	

METAR FMMI 150630Z 08006KT 010V120 9999 FEW017 23/17 Q1021
           NOSIG=

SA 	15/01/2020 06:00-> 	

METAR FMMI 150600Z 11006KT 070V170 9999 FEW020 SCT040 21/17
           Q1021 NOSIG=

SA 	15/01/2020 05:30-> 	

METAR FMMI 150530Z 14005KT 100V210 9999 FEW020 SCT040 20/16
           Q1020 NOSIG=

SA 	15/01/2020 05:00-> 	

METAR FMMI 150500Z 15005KT 110V190 9999 FEW020 SCT040 19/16
           Q1020 NOSIG=

SA 	15/01/2020 04:30-> 	

METAR FMMI 150430Z 12007KT 9999 FEW017 19/16 Q1020 NOSIG=

SA 	15/01/2020 04:00-> 	

METAR FMMI 150400Z 12007KT 090V150 9999 FEW017 18/16 Q1020
           NOSIG=

SA 	15/01/2020 03:30-> 	

METAR FMMI 150330Z 09007KT 9999 FEW010 SCT030 18/16 Q1020
           NOSIG=

SA 	15/01/2020 03:00-> 	

METAR FMMI 150300Z 12007KT 100V160 9999 FEW017 SCT020 18/16
           Q1020 NOSIG=

SA 	15/01/2020 02:30-> 	

METAR FMMI 150230Z 13004KT 110V170 9999 FEW017 17/16 Q1019
           NOSIG=

SA 	15/01/2020 02:00-> 	

METAR FMMI 150200Z 13004KT 100V160 9999 FEW017 17/16 Q1019
           NOSIG=

SA 	15/01/2020 01:30-> 	

METAR FMMI 150130Z VRB02KT 9999 FEW017 SCT020 17/16 Q1019
           NOSIG=

SA 	15/01/2020 01:00-> 	

METAR FMMI 150100Z VRB02KT 9999 FEW017 BKN020 17/16 Q1019
           NOSIG=

SA 	15/01/2020 00:30-> 	

METAR FMMI 150030Z VRB02KT 9999 FEW017 BKN020 17/16 Q1019
           NOSIG=

SA 	15/01/2020 00:00-> 	

METAR FMMI 150000Z VRB02KT 9999 FEW017 BKN020 18/16 Q1019
           NOSIG=

SA 	14/01/2020 23:30-> 	

METAR FMMI 142330Z 06004KT 9999 FEW017 BKN020 18/16 Q1019
           NOSIG=

SA 	14/01/2020 23:00-> 	

METAR FMMI 142300Z 07004KT 9999 FEW017 BKN020 18/16 Q1019
           NOSIG=

SP 	14/01/2020 22:30-> 	

METAR FMMI 142230Z 08004KT 060V130 9999 FEW017 BKN020 18/16
           Q1019 NOSIG=

SA 	14/01/2020 22:30-> 	

METAR FMMI 142230Z 08004KT 060V130 9999 FEW017 BKN020 18/16
           Q1019 NOSIG=

SP 	14/01/2020 22:00-> 	

METAR FMMI 142200Z 07006KT 9999 FEW017 BKN020 18/15 Q1020
           NOSIG=

SA 	14/01/2020 22:00-> 	

METAR FMMI 142200Z 07006KT 9999 FEW017 BKN020 18/15 Q1020
           NOSIG=

SA 	14/01/2020 21:30-> 	

METAR FMMI 142130Z 11008KT 9999 FEW017 BKN020 19/16 Q1020
           NOSIG=

SA 	14/01/2020 21:00-> 	

METAR FMMI 142100Z 10009KT 9999 FEW013 BKN020 20/17 Q1020
           NOSIG=

SA 	14/01/2020 20:30-> 	

METAR FMMI 142030Z 10011KT 9999 FEW013 BKN020 20/17 Q1020
           NOSIG=

SA 	14/01/2020 20:00-> 	

METAR FMMI 142000Z 09007KT 9999 FEW017CB BKN020 20/18 Q1020
           TEMPO 3500 TSRA=

SA 	14/01/2020 19:30-> 	

METAR FMMI 141930Z 10008KT 9999 -RA FEW017CB BKN020 20/17
           Q1020 TEMPO 3500 TSRA=

SA 	14/01/2020 19:00-> 	

METAR FMMI 141900Z 11009KT 9999 FEW017CB BKN020 20/18 Q1020
           TEMPO 3500 TSRA=

SA 	14/01/2020 18:30-> 	

METAR FMMI 141830Z 14007KT 110V190 9999 -RA FEW017CB BKN020
           20/18 Q1020 TEMPO 3500 TSRA=

SA 	14/01/2020 18:00-> 	

METAR FMMI 141800Z 12008KT 100V170 9999 TS FEW017CB BKN020
           21/18 Q1020 TEMPO 3500 TSRA=

SA 	14/01/2020 17:30-> 	

METAR FMMI 141730Z 12008KT 090V150 9999 TS FEW017CB BKN020
           21/17 Q1019 TEMPO 3500 TSRA=

SA 	14/01/2020 17:00-> 	

METAR FMMI 141700Z 12010KT 100V170 9999 TS FEW017CB SCT020
           21/17 Q1019 TEMPO 3500 TSRA=

SA 	14/01/2020 16:30-> 	

METAR FMMI 141630Z 12011KT 090V170 9999 TS FEW017CB BKN020
           21/17 Q1019 TEMPO 3500 TSRA=

SA 	14/01/2020 16:00-> 	

METAR FMMI 141600Z 13011KT 100V170 9999 TS SCT017CB 22/17
           Q1018 TEMPO 3500 TSRA=

SP 	14/01/2020 15:47-> 	

SPECI FMMI 141547Z 12012KT 100V170 9999 TS SCT017CB 22/17
           Q1018 TEMPO 3500 TSRA=

SA 	14/01/2020 15:30-> 	

METAR FMMI 141530Z 10013KT 9999 VCSH SCT020CB SCT023 22/17
           Q1018 TEMPO 3500 TSRA=

SA 	14/01/2020 15:00-> 	

METAR FMMI 141500Z 11016KT 090V150 9999 VCSH SCT020CB SCT023
           23/17 Q1017 TEMPO 3500 TSRA=

SA 	14/01/2020 14:30-> 	

METAR FMMI 141430Z 11012KT 090V160 9999 BKN020CB 25/18 Q1017
           TEMPO 3500 TSRA=

SA 	14/01/2020 14:00-> 	

METAR FMMI 141400Z 08010KT 9999 BKN020CB 26/16 Q1016 NOSIG=

SA 	14/01/2020 13:30-> 	

METAR FMMI 141330Z 07008KT 9999 BKN020CB 27/16 Q1016 TEMPO
           3500 TSRA=

SA 	14/01/2020 13:00-> 	

METAR FMMI 141300Z 12010KT 090V150 9999 BKN020CB 27/16 Q1016
           TEMPO TS=

SA 	14/01/2020 12:30-> 	

METAR FMMI 141230Z 09008KT 060V120 9999 BKN020CB 27/16 Q1016
           NOSIG=

SA 	14/01/2020 12:00-> 	

METAR FMMI 141200Z 13006KT 060V190 9999 BKN020CB 29/16 Q1016
           NOSIG=

SA 	14/01/2020 11:30-> 	

METAR FMMI 141130Z 14006KT 090V210 9999 BKN020CB 28/16 Q1017
           NOSIG=

SA 	14/01/2020 11:00-> 	

METAR FMMI 141100Z 11008KT 080V180 9999 BKN020CB 28/16 Q1017
           NOSIG=

SA 	14/01/2020 10:30-> 	

METAR FMMI 141030Z 10007KT 040V140 9999 BKN020CB 27/16 Q1017
           NOSIG=

SA 	14/01/2020 10:00-> 	

METAR FMMI 141000Z 13007KT 080V190 9999 BKN020TCU 28/17 Q1018
           NOSIG=

SA 	14/01/2020 09:30-> 	

METAR FMMI 140930Z 13007KT 080V190 9999 BKN023 27/16 Q1018
           NOSIG=

SA 	14/01/2020 09:00-> 	

METAR FMMI 140900Z 13007KT 080V210 9999 BKN023 26/16 Q1018
           NOSIG=

SA 	14/01/2020 08:30-> 	

METAR FMMI 140830Z 13007KT 070V200 9999 BKN020 26/16 Q1018
           NOSIG=

SA 	14/01/2020 08:00-> 	

METAR FMMI 140800Z 08008KT 040V120 9999 BKN020 25/17 Q1019
           NOSIG=

SA 	14/01/2020 07:30-> 	

METAR FMMI 140730Z 10004KT 030V200 9999 BKN020 25/17 Q1019
           NOSIG=

SA 	14/01/2020 07:00-> 	

METAR FMMI 140700Z 17004KT 100V270 9999 BKN020 25/17 Q1019
           NOSIG=

SA 	14/01/2020 06:30-> 	

METAR FMMI 140630Z 14004KT 080V240 9999 BKN017 24/17 Q1019
           NOSIG=

SA 	14/01/2020 06:00-> 	

METAR FMMI 140600Z VRB03KT 9999 BKN017 23/17 Q1019 NOSIG=

SA 	14/01/2020 05:30-> 	

METAR FMMI 140530Z 13006KT 080V180 9999 BKN017 22/17 Q1019
           NOSIG=

SA 	14/01/2020 05:00-> 	

METAR FMMI 140500Z 08004KT 030V140 9999 BKN017 20/17 Q1019
           NOSIG=

SA 	14/01/2020 04:30-> 	

METAR FMMI 140430Z 11004KT 080V220 9999 SCT017 SCT020 20/16
           Q1019 NOSIG=

SA 	14/01/2020 04:00-> 	

METAR FMMI 140400Z 12003KT 080V170 9999 SCT017 20/16 Q1019
           NOSIG=

SA 	14/01/2020 03:30-> 	

METAR FMMI 140330Z 10004KT 070V140 9999 FEW017 19/16 Q1018
           NOSIG=

SA 	14/01/2020 03:00-> 	

METAR FMMI 140300Z 05004KT 9999 FEW017 18/16 Q1018 NOSIG=

SA 	14/01/2020 02:30-> 	

METAR FMMI 140230Z 06005KT 9999 FEW017 SCT020 17/16 Q1017
           NOSIG=

SA 	14/01/2020 02:00-> 	

METAR FMMI 140200Z 08005KT 9999 FEW017 17/17 Q1017 NOSIG=

SA 	14/01/2020 01:30-> 	

METAR FMMI 140130Z 09005KT 9999 FEW017 SCT020 18/17 Q1017
           NOSIG=

SA 	14/01/2020 01:00-> 	

METAR FMMI 140100Z 09006KT 9999 FEW017 18/17 Q1017 NOSIG=

SA 	14/01/2020 00:30-> 	

METAR FMMI 140030Z 12005KT 100V160 9999 FEW010 BKN020 18/17
           Q1017 NOSIG=

SA 	14/01/2020 00:00-> 	

METAR FMMI 140000Z 11009KT 9999 FEW010 BKN020 19/17 Q1017
           NOSIG=

SA 	13/01/2020 23:30-> 	

METAR FMMI 132330Z 07005KT 9999 FEW010 BKN020 19/17 Q1017
           NOSIG=

SA 	13/01/2020 23:00-> 	

METAR FMMI 132300Z 09007KT 9999 FEW010 BKN020 19/17 Q1017
           NOSIG=

SA 	13/01/2020 22:30-> 	

METAR FMMI 132230Z 14006KT 9999 FEW010 BKN020 19/17 Q1017
           NOSIG=

SA 	13/01/2020 22:00-> 	

METAR FMMI 132200Z 12007KT 9999 FEW008 SCT017 BKN020 19/18
           Q1017 NOSIG=

SA 	13/01/2020 21:30-> 	

METAR FMMI 132130Z 14006KT 110V170 9999 FEW008 SCT017 BKN020
           19/18 Q1017 NOSIG=

SA 	13/01/2020 21:00-> 	

METAR FMMI 132100Z 10009KT 9999 FEW008 SCT017 BKN020 19/18
           Q1018 NOSIG=

SA 	13/01/2020 20:30-> 	

METAR FMMI 132030Z 16004KT 9999 FEW008 SCT017 BKN020 20/19
           Q1018 NOSIG=

SA 	13/01/2020 20:00-> 	

METAR FMMI 132000Z VRB01KT 9999 FEW008 SCT017 BKN020 19/19
           Q1019 NOSIG=

SA 	13/01/2020 19:30-> 	

METAR FMMI 131930Z 01004KT 350V060 9999 FEW008 SCT017 BKN020
           20/19 Q1019 NOSIG=

SA 	13/01/2020 19:00-> 	

METAR FMMI 131900Z VRB03KT 9999 FEW017CB BKN020 20/19 Q1019
           NOSIG=

SA 	13/01/2020 18:30-> 	

METAR FMMI 131830Z 17003KT 130V190 9999 FEW017CB BKN020 20/19
           Q1019 NOSIG=

SA 	13/01/2020 18:00-> 	

METAR FMMI 131800Z 15004KT 110V190 9999 FEW017CB BKN020 20/19
           Q1019 NOSIG=

SA 	13/01/2020 17:30-> 	

METAR FMMI 131730Z VRB02KT 9999 FEW017CB BKN020 19/19 Q1018
           NOSIG=

SA 	13/01/2020 17:00-> 	

METAR FMMI 131700Z VRB03KT 7000 -TSRA FEW017CB BKN020 19/18
           Q1018 NOSIG=

SA 	13/01/2020 16:30-> 	

METAR FMMI 131630Z VRB03KT 8000 -TSRA FEW017CB BKN020 19/18
           Q1018 NOSIG=

SA 	13/01/2020 16:00-> 	

METAR FMMI 131600Z 11009KT 6000 -TSRA FEW008 SCT017CB BKN020
           19/19 Q1017 TEMPO 4500 TSRA=

SA 	13/01/2020 15:30-> 	

METAR FMMI 131530Z 12007KT 090V150 6000 -TSRA FEW008 SCT017CB
           BKN020 19/18 Q1017 TEMPO 4500 TSRA=

SA 	13/01/2020 15:00-> 	

METAR FMMI 131500Z 14004KT 100V180 6000 -TSRA FEW008 SCT017CB
           BKN020 18/18 Q1017 TEMPO 4500 TSRA=

SA 	13/01/2020 14:30-> 	

METAR FMMI 131430Z 21004KT 180V280 4000 -TSRA FEW008 SCT017CB
           BKN020 18/17 Q1017 TEMPO 4500 TSRA=

SA 	13/01/2020 14:00-> 	

METAR FMMI 131400Z 09014KT 060V120 2000 TSRA FEW008 SCT017CB
           BKN020 18/15 Q1016 TEMPO 2500=

SA 	13/01/2020 13:30-> 	

METAR FMMI 131330Z 15012G23KT 120V200 3000 TSRA FEW010 BKN017CB
           23/18 Q1015 TEMPO 2500=

SA 	13/01/2020 13:00-> 	

METAR FMMI 131300Z VRB03KT 9999 SCT020CB SCT023 27/16 Q1014
           TEMPO TSRA=

SA 	13/01/2020 12:30-> 	

METAR FMMI 131230Z 06004KT 010V110 9999 SCT020CB 27/16 Q1015
           TEMPO TSRA=

SA 	13/01/2020 12:00-> 	

METAR FMMI 131200Z 04008KT 360V100 9999 BKN020CB 27/17 Q1015
           TEMPO TSRA=

SA 	13/01/2020 11:30-> 	

METAR FMMI 131130Z 07010KT 9999 BKN020CB 28/17 Q1015 TEMPO
           TSRA=

SA 	13/01/2020 11:00-> 	

METAR FMMI 131100Z 09013KT 9999 VCSH BKN020CB 28/18 Q1016
           TEMPO TSRA=

SA 	13/01/2020 10:30-> 	

METAR FMMI 131030Z 08007KT 030V120 9999 VCSH BKN020CB 29/17
           Q1016 TEMPO TSRA=

SA 	13/01/2020 10:00-> 	

METAR FMMI 131000Z 12002KT 9999 VCSH BKN020CB 28/16 Q1016
           TEMPO TSRA=

SA 	13/01/2020 09:30-> 	

METAR FMMI 130930Z 12002KT 9999 BKN020CB 28/15 Q1017 NOSIG=

SA 	13/01/2020 09:00-> 	

METAR FMMI 130900Z VRB03KT 9999 BKN020CB 28/15 Q1017 NOSIG=

SA 	13/01/2020 08:30-> 	

METAR FMMI 130830Z 19005KT 9999 SCT020CB 28/15 Q1018 NOSIG=

SA 	13/01/2020 08:00-> 	

METAR FMMI 130800Z 13004KT 9999 SCT020CB 27/16 Q1018 NOSIG=

SA 	13/01/2020 07:30-> 	

METAR FMMI 130730Z 12005KT 9999 SCT020 27/17 Q1018 NOSIG=

SP 	13/01/2020 07:00-> 	

METAR FMMI 130700Z VRB04KT 9999 SCT020 26/17 Q1019 NOSIG=

SA 	13/01/2020 07:00-> 	

METAR FMMI 130700Z VRB04KT 9999 SCT020 26/17 Q1019 NOSIG=

SA 	13/01/2020 06:30-> 	

METAR FMMI 130630Z VRB05KT 9999 SCT020 25/17 Q1019 NOSIG=

SA 	13/01/2020 06:00-> 	

METAR FMMI 130600Z 14005KT 090V200 9999 SCT020 24/17 Q1019
           NOSIG=

SA 	13/01/2020 05:30-> 	

METAR FMMI 130530Z 11005KT 070V170 9999 FEW017 24/17 Q1019
           NOSIG=

SA 	13/01/2020 05:00-> 	

METAR FMMI 130500Z VRB03KT 9999 FEW017 22/17 Q1019 NOSIG=

SA 	13/01/2020 04:00-> 	

METAR FMMI 130400Z 06004KT 9999 FEW017 20/17 Q1018 NOSIG=

SA 	13/01/2020 03:30-> 	

METAR FMMI 130330Z 05004KT 9999 FEW017 19/17 Q1018 NOSIG=

SA 	13/01/2020 03:00-> 	

METAR FMMI 130300Z 07002KT 9999 FEW017 18/17 Q1018 NOSIG=

SA 	13/01/2020 02:30-> 	

METAR FMMI 130230Z 00000KT 9999 FEW017 18/16 Q1017 NOSIG=

SA 	13/01/2020 02:00-> 	

METAR FMMI 130200Z 08003KT 9999 FEW017 SCT020 18/16 Q1017
           NOSIG=

SA 	13/01/2020 01:30-> 	

METAR FMMI 130130Z 09004KT 9999 FEW017 SCT020 18/16 Q1017
           NOSIG=

SA 	13/01/2020 01:00-> 	

METAR FMMI 130100Z 08004KT 9999 FEW017 BKN020 19/17 Q1017
           NOSIG=

SA 	13/01/2020 00:30-> 	

METAR FMMI 130030Z VRB03KT 9999 FEW017 BKN020 19/17 Q1017
           NOSIG=

SA 	13/01/2020 00:00-> 	

METAR FMMI 130000Z 09004KT 9999 FEW017 BKN020 19/17 Q1017
           NOSIG=

SA 	12/01/2020 23:30-> 	

METAR FMMI 122330Z 09004KT 070V130 9999 FEW017 BKN020 19/17
           Q1017 NOSIG=

SA 	12/01/2020 23:00-> 	

METAR FMMI 122300Z 11005KT 9999 FEW017 BKN020 19/17 Q1017
           NOSIG=

SA 	12/01/2020 22:30-> 	

METAR FMMI 122230Z 06004KT 9999 FEW017 SCT020 19/17 Q1018
           NOSIG=

SA 	12/01/2020 22:00-> 	

METAR FMMI 122200Z 07005KT 030V090 9999 FEW017 SCT020 19/17
           Q1018 NOSIG=

SA 	12/01/2020 21:30-> 	

METAR FMMI 122130Z 08006KT 9999 FEW017 SCT020 19/17 Q1018
           NOSIG=

SA 	12/01/2020 21:00-> 	

METAR FMMI 122100Z 09008KT 9999 FEW017 SCT020 20/17 Q1019
           NOSIG=

SA 	12/01/2020 20:30-> 	

METAR FMMI 122030Z 10010KT 9999 FEW017 BKN020 20/17 Q1019
           NOSIG=

SA 	12/01/2020 20:00-> 	

METAR FMMI 122000Z 11009KT 9999 FEW020CB BKN023 20/17 Q1019
           NOSIG=

SA 	12/01/2020 19:30-> 	

METAR FMMI 121930Z 10008KT 9999 FEW020CB BKN023 20/17 Q1019
           NOSIG=

SA 	12/01/2020 19:00-> 	

METAR FMMI 121900Z 10009KT 9999 VCTS FEW020CB BKN023 21/17
           Q1019 TEMPO TS=

SA 	12/01/2020 18:30-> 	

METAR FMMI 121830Z 08009KT 9999 VCTS FEW020CB BKN023 21/18
           Q1020 TEMPO TS=

SA 	12/01/2020 18:00-> 	

METAR FMMI 121800Z 10008KT 9999 FEW020CB BKN023 21/17 Q1019
           TEMPO TS=

SA 	12/01/2020 17:30-> 	

METAR FMMI 121730Z 11012KT 9999 VCTS FEW020CB 21/17 Q1019
           TEMPO TS=

SA 	12/01/2020 17:00-> 	

METAR FMMI 121700Z 13011KT 100V170 9999 VCTS FEW020CB 22/17
           Q1018 TEMPO TS=

SA 	12/01/2020 16:30-> 	

METAR FMMI 121630Z 10011KT 9999 VCTS FEW020CB 22/16 Q1018
           TEMPO TS=

SA 	12/01/2020 16:00-> 	

METAR FMMI 121600Z 11010KT 9999 FEW020CB 23/16 Q1018 TEMPO
           TS=

SA 	12/01/2020 15:30-> 	

METAR FMMI 121530Z 12010KT 100V160 9999 FEW020CB 24/15 Q1017
           TEMPO TS=

SA 	12/01/2020 15:00-> 	

METAR FMMI 121500Z 11013KT 9999 FEW020CB 25/15 Q1017 TEMPO
           TS=

SA 	12/01/2020 14:30-> 	

METAR FMMI 121430Z 10011KT 9999 FEW020CB SCT023 25/15 Q1016
           NOSIG=

SA 	12/01/2020 14:00-> 	

METAR FMMI 121400Z 11009KT 070V150 9999 FEW020CB SCT023 26/14
           Q1016 NOSIG=

SA 	12/01/2020 13:30-> 	

METAR FMMI 121330Z 10009KT 9999 FEW020CB SCT023 27/13 Q1016
           NOSIG=

SA 	12/01/2020 13:00-> 	

METAR FMMI 121300Z 10008KT 060V150 9999 FEW020CB SCT023 28/13
           Q1015 NOSIG=

SA 	12/01/2020 12:30-> 	

METAR FMMI 121230Z 12007KT 070V200 9999 FEW020CB SCT023 28/14
           Q1016 NOSIG=

SA 	12/01/2020 12:00-> 	

METAR FMMI 121200Z 13008KT 070V200 9999 FEW020CB SCT023 28/14
           Q1016 NOSIG=

SA 	12/01/2020 11:30-> 	

METAR FMMI 121130Z 11006KT 050V190 9999 FEW020CB SCT023 28/15
           Q1016 NOSIG=

SA 	12/01/2020 11:00-> 	

METAR FMMI 121100Z 09006KT 040V150 9999 FEW017TCU SCT020
           27/15 Q1017 NOSIG=

SA 	12/01/2020 10:30-> 	

METAR FMMI 121030Z 15004KT 070V230 9999 SCT020 28/16 Q1018
           NOSIG=

SA 	12/01/2020 10:00-> 	

METAR FMMI 121000Z VRB06KT 9999 BKN020 27/15 Q1018 NOSIG=

SA 	12/01/2020 09:30-> 	

METAR FMMI 120930Z VRB05KT 9999 BKN017 27/17 Q1019 NOSIG=

SA 	12/01/2020 09:00-> 	

METAR FMMI 120900Z VRB05KT 9999 SCT017 26/17 Q1019 NOSIG=

SA 	12/01/2020 08:30-> 	

METAR FMMI 120830Z 13005KT 060V210 9999 SCT017 26/17 Q1019
           NOSIG=

SA 	12/01/2020 08:00-> 	

METAR FMMI 120800Z 11006KT 050V180 9999 SCT017 25/17 Q1019
           NOSIG=

SA 	12/01/2020 07:30-> 	

METAR FMMI 120730Z 10007KT 070V160 9999 SCT017 24/17 Q1019
           NOSIG=

SA 	12/01/2020 07:00-> 	

METAR FMMI 120700Z 09007KT 050V120 9999 FEW017 BKN020 23/16
           Q1020 NOSIG=

SA 	12/01/2020 06:30-> 	

METAR FMMI 120630Z 10008KT 060V140 9999 FEW017 BKN020 23/16
           Q1020 NOSIG=

SA 	12/01/2020 06:00-> 	

METAR FMMI 120600Z 12006KT 080V180 9999 FEW017 BKN020 22/16
           Q1019 NOSIG=

SA 	12/01/2020 05:30-> 	

METAR FMMI 120530Z 12007KT 090V160 9999 FEW017 BKN020 21/16
           Q1020 NOSIG=

SA 	12/01/2020 05:00-> 	

METAR FMMI 120500Z 14006KT 100V200 9999 FEW017 SCT020 21/16
           Q1019 NOSIG=

SA 	12/01/2020 04:30-> 	

METAR FMMI 120430Z 12005KT 080V160 9999 FEW017 SCT020 20/16
           Q1019 NOSIG=

SA 	12/01/2020 04:00-> 	

METAR FMMI 120400Z VRB03KT 9999 FEW017 19/16 Q1019 NOSIG=

SA 	12/01/2020 03:30-> 	

METAR FMMI 120330Z 05004KT 030V100 9999 FEW017 17/16 Q1019
           NOSIG=

SA 	12/01/2020 03:00-> 	

METAR FMMI 120300Z 08003KT 9999 FEW017 16/15 Q1019 NOSIG=

SA 	12/01/2020 02:30-> 	

METAR FMMI 120230Z VRB02KT 9999 FEW017 16/15 Q1019 NOSIG=

SA 	12/01/2020 02:00-> 	

METAR FMMI 120200Z 00000KT 9999 FEW017 SCT020 16/15 Q1018
           NOSIG=

SA 	12/01/2020 01:30-> 	

METAR FMMI 120130Z 33002KT 9999 FEW017 SCT020 16/14 Q1018
           NOSIG=

SA 	12/01/2020 01:00-> 	

METAR FMMI 120100Z 09003KT 060V170 9999 FEW017 17/15 Q1018
           NOSIG=

SA 	12/01/2020 00:30-> 	

METAR FMMI 120030Z 10005KT 9999 FEW017 SCT020 17/15 Q1018
           NOSIG=

SA 	12/01/2020 00:00-> 	

METAR FMMI 120000Z 12007KT 9999 FEW017 17/15 Q1018 NOSIG=

SA 	11/01/2020 23:30-> 	

METAR FMMI 112330Z 15005KT 9999 FEW017 17/15 Q1018 NOSIG=

SA 	11/01/2020 23:00-> 	

METAR FMMI 112300Z 12005KT 9999 FEW017 17/15 Q1018 NOSIG=

SA 	11/01/2020 22:30-> 	

METAR FMMI 112230Z 11007KT 9999 FEW017 17/16 Q1019 NOSIG=

SA 	11/01/2020 22:00-> 	

METAR FMMI 112200Z 11002KT 9999 FEW017 18/16 Q1019 NOSIG=

SA 	11/01/2020 21:30-> 	

METAR FMMI 112130Z 12005KT 9999 FEW017TCU 18/16 Q1020 NOSIG=

SA 	11/01/2020 21:00-> 	

METAR FMMI 112100Z 13006KT 100V170 9999 FEW017TCU 18/16 Q1020
           NOSIG=

SA 	11/01/2020 20:30-> 	

METAR FMMI 112030Z 13005KT 9999 FEW017CB 18/16 Q1020 NOSIG=

SA 	11/01/2020 20:00-> 	

METAR FMMI 112000Z 12008KT 090V160 9999 FEW017CB 19/16 Q1020
           NOSIG=

SA 	11/01/2020 19:30-> 	

METAR FMMI 111930Z 13009KT 9999 FEW017CB 19/16 Q1021 NOSIG=

SA 	11/01/2020 19:00-> 	

METAR FMMI 111900Z 12010KT 9999 FEW020CB 19/16 Q1021 NOSIG=

SA 	11/01/2020 18:30-> 	

METAR FMMI 111830Z 11008KT 9999 FEW020CB 20/17 Q1021 NOSIG=

SA 	11/01/2020 18:00-> 	

METAR FMMI 111800Z 12009KT 100V160 9999 FEW020CB 20/17 Q1021
           NOSIG=

SA 	11/01/2020 17:30-> 	

METAR FMMI 111730Z 11009KT 090V150 9999 FEW020CB 20/17 Q1020
           NOSIG=

SA 	11/01/2020 17:00-> 	

METAR FMMI 111700Z 11014KT 9999 FEW017CB 21/17 Q1020 NOSIG=

SA 	11/01/2020 16:30-> 	

METAR FMMI 111630Z 11011KT 9999 FEW017CB 22/16 Q1019 NOSIG=

SA 	11/01/2020 16:00-> 	

METAR FMMI 111600Z 10011KT 9999 FEW023CB 23/15 Q1018 NOSIG=

SA 	11/01/2020 15:30-> 	

METAR FMMI 111530Z 11011KT 9999 FEW023CB 24/14 Q1018 NOSIG=

SA 	11/01/2020 15:00-> 	

METAR FMMI 111500Z 11011KT 100V170 9999 FEW026CB 25/14 Q1017
           NOSIG=

SA 	11/01/2020 14:30-> 	

METAR FMMI 111430Z 12011KT 080V160 9999 FEW030CB 27/12 Q1017
           NOSIG=

SA 	11/01/2020 14:00-> 	

METAR FMMI 111400Z 11011KT 090V150 9999 FEW030CB 27/11 Q1016
           NOSIG=

SA 	11/01/2020 13:30-> 	

METAR FMMI 111330Z 10011KT 080V140 9999 FEW030CB 28/12 Q1016
           NOSIG=

SA 	11/01/2020 13:00-> 	

METAR FMMI 111300Z 11009KT 080V150 9999 FEW030CB 29/11 Q1016
           NOSIG=

SA 	11/01/2020 12:30-> 	

METAR FMMI 111230Z 11009KT 080V150 9999 FEW030CB 29/10 Q1016
           NOSIG=

SA 	11/01/2020 12:00-> 	

METAR FMMI 111200Z 10009KT 050V140 9999 FEW030 29/10 Q1016
           NOSIG=

SA 	11/01/2020 11:30-> 	

METAR FMMI 111130Z 10007KT 070V190 9999 FEW026 29/10 Q1017
           NOSIG=

SA 	11/01/2020 11:00-> 	

METAR FMMI 111100Z 16007KT 080V210 9999 FEW023 29/10 Q1017
           NOSIG=

SA 	11/01/2020 10:30-> 	

METAR FMMI 111030Z VRB06KT 9999 FEW023 28/12 Q1017 NOSIG=

SA 	11/01/2020 10:00-> 	

METAR FMMI 111000Z 09004KT 010V170 9999 FEW023 28/13 Q1017
           NOSIG=

SA 	11/01/2020 09:30-> 	

METAR FMMI 110930Z 08005KT 020V190 9999 FEW020 27/13 Q1018
           NOSIG=

SA 	11/01/2020 09:00-> 	

METAR FMMI 110900Z 18005KT 080V230 9999 FEW020 27/13 Q1018
           NOSIG=

SA 	11/01/2020 08:30-> 	

METAR FMMI 110830Z VRB05KT 9999 FEW020 26/13 Q1018 NOSIG=

SA 	11/01/2020 08:00-> 	

METAR FMMI 110800Z 14006KT 080V220 9999 FEW020 25/13 Q1019
           NOSIG=

SA 	11/01/2020 07:30-> 	

METAR FMMI 110730Z 14007KT 090V190 9999 FEW020 24/13 Q1019
           NOSIG=

SA 	11/01/2020 07:00-> 	

METAR FMMI 110700Z 13006KT 060V200 9999 FEW020 23/14 Q1020
           NOSIG=

SA 	11/01/2020 06:30-> 	

METAR FMMI 110630Z 15007KT 100V210 9999 FEW020 23/13 Q1020
           NOSIG=

SA 	11/01/2020 06:00-> 	

METAR FMMI 110600Z 19008KT 130V230 9999 FEW020 22/14 Q1020
           NOSIG=

SA 	11/01/2020 05:30-> 	

METAR FMMI 110530Z 14007KT 090V190 9999 FEW020 21/14 Q1020
           NOSIG=

SA 	11/01/2020 05:00-> 	

METAR FMMI 110500Z 16009KT 110V200 9999 FEW020 19/13 Q1020
           NOSIG=

SA 	11/01/2020 04:30-> 	

METAR FMMI 110430Z 14010KT 110V190 9999 FEW020 18/13 Q1020
           NOSIG=

SA 	11/01/2020 04:00-> 	

METAR FMMI 110400Z 16006KT 120V190 9999 FEW020 18/14 Q1020
           NOSIG=

SA 	11/01/2020 03:30-> 	

METAR FMMI 110330Z 15004KT 100V200 9999 FEW020 17/14 Q1020
           NOSIG=

SA 	11/01/2020 03:00-> 	

METAR FMMI 110300Z 08004KT 9999 FEW017 15/14 Q1020 NOSIG=

SA 	11/01/2020 02:30-> 	

METAR FMMI 110230Z 03004KT 360V060 9999 FEW017 15/14 Q1020
           NOSIG=

SA 	11/01/2020 02:00-> 	

METAR FMMI 110200Z 05003KT 9999 FEW017 15/14 Q1019 NOSIG=

SA 	11/01/2020 01:30-> 	

METAR FMMI 110130Z 08004KT 060V150 9999 FEW017 15/15 Q1019
           NOSIG=

SA 	11/01/2020 01:00-> 	

METAR FMMI 110100Z 11006KT 9999 FEW017 15/15 Q1018 NOSIG=

SA 	11/01/2020 00:30-> 	

METAR FMMI 110030Z 13005KT 090V170 9999 FEW017 16/15 Q1018
           NOSIG=

SA 	11/01/2020 00:00-> 	

METAR FMMI 110000Z 12005KT 9999 FEW017 16/15 Q1018 NOSIG=

SA 	10/01/2020 23:30-> 	

METAR FMMI 102330Z 10005KT 9999 FEW017 16/15 Q1018 NOSIG=

SP 	10/01/2020 23:00-> 	

METAR FMMI 102300Z 09005KT 8000 NSC 16/15 Q1018 NOSIG=

SA 	10/01/2020 23:00-> 	

METAR COR FMMI 102300Z 09005KT 8000 FEW017 16/15 Q1018 NOSIG=

SA 	10/01/2020 22:30-> 	

METAR FMMI 102230Z 09008KT 9999 FEW017 17/15 Q1019 NOSIG=

SA 	10/01/2020 22:00-> 	

METAR FMMI 102200Z 12009KT 100V160 9999 FEW017 17/16 Q1019
           NOSIG=

SA 	10/01/2020 21:30-> 	

METAR FMMI 102130Z 12006KT 100V160 9999 FEW017 18/16 Q1019
           NOSIG=

SA 	10/01/2020 21:00-> 	

METAR FMMI 102100Z 12006KT 100V170 9999 FEW017 18/16 Q1019
           NOSIG=

SA 	10/01/2020 20:30-> 	

METAR FMMI 102030Z 14006KT 110V170 9999 FEW017 18/16 Q1020
           NOSIG=

SA 	10/01/2020 20:00-> 	

METAR FMMI 102000Z 15006KT 120V200 9999 FEW017 19/16 Q1020
           NOSIG=

SP 	10/01/2020 20:00-> 	

METAR FMMI 102000Z 15006KT 120V200 9999 FEW017 19/16 Q1020
           NOSIG=

SP 	10/01/2020 19:30-> 	

METAR FMMI 101930Z 13010KT 100V180 9999 FEW017 19/16 Q1020
           NOSIG=

SA 	10/01/2020 19:00-> 	

METAR FMMI 101900Z 14010KT 110V170 9999 FEW017CB 20/16 Q1021
           NOSIG=

SA 	10/01/2020 18:30-> 	

METAR FMMI 101830Z 14010KT 110V170 9999 FEW017 20/17 Q1020
           NOSIG=

SA 	10/01/2020 18:00-> 	

METAR FMMI 101800Z 14007KT 100V170 9999 VCTS FEW017CB 21/18
           Q1020 NOSIG=

SA 	10/01/2020 17:30-> 	

METAR FMMI 101730Z 11011KT 9999 VCTS FEW017CB 21/18 Q1019
           NOSIG=

SA 	10/01/2020 17:00-> 	

METAR FMMI 101700Z 12011KT 9999 VCTS FEW017CB 21/18 Q1019
           NOSIG=

SA 	10/01/2020 16:30-> 	

METAR FMMI 101630Z 11013KT 9999 VCTS FEW017CB 22/18 Q1019
           NOSIG=

SA 	10/01/2020 16:00-> 	

METAR FMMI 101600Z 11011KT 9999 FEW020CB 22/17 Q1018 NOSIG=

SA 	10/01/2020 15:30-> 	

METAR FMMI 101530Z 10012KT 9999 FEW020CB 23/17 Q1018 NOSIG=

SA 	10/01/2020 15:00-> 	

METAR FMMI 101500Z 09010KT 9999 FEW020CB 24/17 Q1017 NOSIG=

SA 	10/01/2020 14:30-> 	

METAR FMMI 101430Z 11006KT 090V160 9999 SCT020CB 27/16 Q1017
           NOSIG=

SA 	10/01/2020 14:00-> 	

METAR FMMI 101400Z 15004KT 080V210 9999 SCT020CB 26/16 Q1017
           NOSIG=

SA 	10/01/2020 13:30-> 	

METAR FMMI 101330Z 12006KT 070V170 9999 SCT020CB 27/17 Q1017
           NOSIG=

SA 	10/01/2020 13:00-> 	

METAR FMMI 101300Z VRB04KT 9999 SCT020CB 28/16 Q1017 NOSIG=

SA 	10/01/2020 12:30-> 	

METAR FMMI 101230Z 10004KT 060V170 9999 SCT020CB 28/14 Q1017
           NOSIG=

SA 	10/01/2020 12:00-> 	

METAR FMMI 101200Z 13006KT 060V180 9999 SCT020CB 28/17 Q1017
           NOSIG=

SA 	10/01/2020 11:30-> 	

METAR FMMI 101130Z 11006KT 070V180 9999 SCT020CB 27/17 Q1018
           NOSIG=

SP 	10/01/2020 11:30-> 	

METAR FMMI 101130Z 11006KT 070V180 9999 SCT020CB 27/17 Q1018
           NOSIG=

SA 	10/01/2020 11:00-> 	

METAR FMMI 101100Z 11007KT 070V180 9999 SCT020 SCT023 27/17
           Q1018 NOSIG=

SP 	10/01/2020 11:00-> 	

METAR FMMI 101100Z 11007KT 070V180 9999 SCT020 SCT023 27/17
           Q1018 NOSIG=

SA 	10/01/2020 10:30-> 	

METAR FMMI 101030Z 12007KT 060V170 9999 SCT020CB SCT023 27/17
           Q1018 NOSIG=

SA 	10/01/2020 10:00-> 	

METAR FMMI 101000Z 13008KT 090V180 9999 SCT020CB SCT023 27/17
           Q1019 NOSIG=

SA 	10/01/2020 09:30-> 	

METAR FMMI 100930Z 11007KT 080V180 9999 SCT020 SCT023 26/15
           Q1019 NOSIG=

SA 	10/01/2020 09:00-> 	

METAR FMMI 100900Z 19007KT 150V220 9999 BKN023 27/16 Q1019
           NOSIG=

SA 	10/01/2020 08:30-> 	

METAR FMMI 100830Z 17007KT 080V220 9999 BKN020 26/16 Q1019
           NOSIG=

SA 	10/01/2020 08:00-> 	

METAR FMMI 100800Z 10005KT 040V210 9999 BKN020 26/16 Q1020
           NOSIG=

SA 	10/01/2020 07:30-> 	

METAR FMMI 100730Z 10007KT 060V140 9999 BKN020 25/15 Q1020
           NOSIG=

SA 	10/01/2020 07:00-> 	

METAR FMMI 100700Z 17006KT 130V220 9999 BKN020 25/17 Q1020
           NOSIG=

SA 	10/01/2020 06:30-> 	

METAR FMMI 100630Z 14008KT 070V190 9999 BKN020 24/16 Q1020
           NOSIG=

SA 	10/01/2020 06:00-> 	

METAR FMMI 100600Z 15008KT 110V190 9999 SCT017 BKN020 23/17
           Q1020 NOSIG=

SA 	10/01/2020 05:30-> 	

METAR COR FMMI 100530Z 14009KT 110V170 9999 SCT017 BKN020
           22/17 Q1020 NOSIG=

SA 	10/01/2020 05:00-> 	

METAR FMMI 100500Z 16008KT 110V200 9999 SCT017 BKN020 20/16
           Q1020 NOSIG=

SA 	10/01/2020 04:30-> 	

METAR FMMI 100430Z 14007KT 100V180 9999 FEW017 BKN020 20/16
           Q1020 NOSIG=

SA 	10/01/2020 04:00-> 	

METAR FMMI 100400Z 14009KT 110V180 9999 FEW017 BKN020 20/16
           Q1019 NOSIG=

SA 	10/01/2020 03:30-> 	

METAR FMMI 100330Z 14007KT 100V170 9999 FEW017 20/16 Q1019
           NOSIG=

SA 	10/01/2020 03:00-> 	

METAR FMMI 100300Z 14006KT 100V170 9999 FEW017 SCT020 18/16
           Q1019 NOSIG=

SA 	10/01/2020 02:30-> 	

METAR FMMI 100230Z 15005KT 120V190 9999 FEW017 SCT020 18/16
           Q1019 NOSIG=

SA 	10/01/2020 02:00-> 	

METAR FMMI 100200Z 13007KT 110V170 9999 FEW017 SCT020 18/16
           Q1018 NOSIG=

SA 	10/01/2020 01:30-> 	

METAR FMMI 100130Z 14004KT 090V180 9999 FEW017 BKN020 18/16
           Q1018 NOSIG=

SA 	10/01/2020 01:00-> 	

METAR FMMI 100100Z 14005KT 110V180 9999 FEW017 BKN020 18/16
           Q1018 NOSIG=

SA 	10/01/2020 00:30-> 	

METAR FMMI 100030Z 12009KT 9999 FEW017 BKN020 18/15 Q1018
           NOSIG=

SP 	10/01/2020 00:00-> 	

METAR COR FMMI 100000Z 14007KT 100V170 9999 FEW017 BKN020
           19/16 Q1018 NOSIG=

SA 	10/01/2020 00:00-> 	

METAR FMMI 100000Z 14007KT 100V170 9999 FEW017 BKN020 19/16
           Q1018 NOSIG=

SA 	09/01/2020 23:30-> 	

METAR FMMI 092330Z 12006KT 100V160 9999 FEW017 BKN020 19/16
           Q1018 NOSIG=

SA 	09/01/2020 23:00-> 	

METAR FMMI 092300Z 14006KT 100V170 9999 FEW017 BKN020 19/16
           Q1018 NOSIG=

SA 	09/01/2020 22:30-> 	

METAR FMMI 092230Z 13006KT 100V160 9999 FEW017 BKN020 19/16
           Q1019 NOSIG=

SA 	09/01/2020 22:00-> 	

METAR FMMI 092200Z 14007KT 110V180 9999 FEW017 BKN020 19/16
           Q1019 NOSIG=

SA 	09/01/2020 21:30-> 	

METAR FMMI 092130Z 12009KT 100V170 9999 FEW017 BKN020 19/16
           Q1019 NOSIG=

SA 	09/01/2020 21:00-> 	

METAR FMMI 092100Z 12011KT 9999 FEW017 BKN020 19/16 Q1019
           NOSIG=

SA 	09/01/2020 20:30-> 	

METAR FMMI 092030Z 13008KT 100V170 9999 FEW017 BKN020 20/17
           Q1019 NOSIG=

SA 	09/01/2020 20:00-> 	

METAR FMMI 092000Z 13008KT 090V170 9999 FEW017 BKN020 20/17
           Q1020 NOSIG=

SA 	09/01/2020 19:30-> 	

METAR FMMI 091930Z 13009KT 100V170 9999 FEW017 BKN020 20/17
           Q1019 NOSIG=

SA 	09/01/2020 19:00-> 	

METAR FMMI 091900Z 14008KT 100V160 9999 FEW017 BKN020 20/17
           Q1020 NOSIG=

SA 	09/01/2020 18:30-> 	

METAR FMMI 091830Z 12011KT 100V160 9999 FEW017 BKN020 20/17
           Q1020 NOSIG=

SA 	09/01/2020 18:00-> 	

METAR FMMI 091800Z 11014KT 9999 FEW017 BKN020 21/17 Q1019
           NOSIG=

SA 	09/01/2020 17:30-> 	

METAR FMMI 091730Z 11009KT 9999 VCTS FEW017CB SCT020 21/18
           Q1019 NOSIG=

SA 	09/01/2020 17:00-> 	

METAR FMMI 091700Z 10011KT 9999 VCTS FEW017CB SCT020 21/18
           Q1019 NOSIG=

SA 	09/01/2020 16:30-> 	

METAR FMMI 091630Z 10011KT 9999 FEW017CB SCT020 22/17 Q1018
           NOSIG=

SA 	09/01/2020 16:00-> 	

METAR FMMI 091600Z 12009KT 100V170 9999 FEW017CB SCT020 23/15
           Q1018 NOSIG=

SA 	09/01/2020 15:30-> 	

METAR FMMI 091530Z 10011KT 9999 SCT017CB SCT020 23/16 Q1017
           NOSIG=

SA 	09/01/2020 15:00-> 	

METAR FMMI 091500Z 14008KT 110V190 9999 SCT017CB SCT020 24/16
           Q1017 NOSIG=

SA 	09/01/2020 14:30-> 	

METAR FMMI 091430Z 15007KT 120V180 9999 SCT017CB SCT020 25/15
           Q1017 NOSIG=

SA 	09/01/2020 14:00-> 	

METAR FMMI 091400Z 15010KT 100V190 9999 SCT020CB 25/16 Q1017
           NOSIG=

SA 	09/01/2020 13:30-> 	

METAR FMMI 091330Z 14007KT 090V200 9999 SCT020CB 26/16 Q1016
           NOSIG=

SA 	09/01/2020 13:00-> 	

METAR FMMI 091300Z 14010KT 100V180 9999 BKN020CB 27/16 Q1016
           NOSIG=

SA 	09/01/2020 12:30-> 	

METAR FMMI 091230Z 11008KT 080V180 9999 BKN020CB 27/17 Q1017
           NOSIG=

SA 	09/01/2020 12:00-> 	

METAR FMMI 091200Z 11011KT 080V190 9999 BKN020CB 26/16 Q1017
           NOSIG=

SA 	09/01/2020 11:30-> 	

METAR FMMI 091130Z 15009KT 100V200 9999 BKN020CB 27/17 Q1017
           NOSIG=

SA 	09/01/2020 11:00-> 	

METAR FMMI 091100Z 10005KT 040V170 9999 BKN020CB 28/17 Q1018
           NOSIG=

SA 	09/01/2020 10:30-> 	

METAR FMMI 091030Z 12007KT 060V180 9999 BKN020CB 27/17 Q1018
           NOSIG=

SA 	09/01/2020 10:00-> 	

METAR FMMI 091000Z 10007KT 060V160 9999 BKN020CB 27/16 Q1018
           NOSIG=

SA 	09/01/2020 09:30-> 	

METAR FMMI 090930Z 14008KT 100V190 9999 BKN020TCU 26/16 Q1019
           NOSIG=

SA 	09/01/2020 09:00-> 	

METAR FMMI 090900Z VRB05KT 9999 BKN020 27/17 Q1019 NOSIG=

SA 	09/01/2020 08:30-> 	

METAR FMMI 090830Z 15006KT 090V200 9999 BKN020 26/17 Q1019
           NOSIG=

SA 	09/01/2020 08:00-> 	

METAR FMMI 090800Z VRB07KT 9999 BKN020 25/17 Q1019 NOSIG=

SA 	09/01/2020 07:30-> 	

METAR FMMI 090730Z VRB05KT 9999 BKN020 25/16 Q1019 NOSIG=

SA 	09/01/2020 07:00-> 	

METAR FMMI 090700Z 16006KT 050V210 9999 SCT020 24/17 Q1019
           NOSIG=

SP 	09/01/2020 07:00-> 	

METAR FMMI 090700Z 16006KT 050V210 9999 SCT020 24/17 Q1019
           NOSIG=

SA 	09/01/2020 06:30-> 	

METAR FMMI 090630Z 14007KT 080V190 9999 SCT020 23/17 Q1020
           NOSIG=

SA 	09/01/2020 06:00-> 	

METAR FMMI 090600Z 17008KT 130V200 9999 BKN020 23/17 Q1020
           NOSIG=

SA 	09/01/2020 05:30-> 	

METAR FMMI 090530Z 09004KT 060V160 9999 FEW017 SCT020 22/17
           Q1020 NOSIG=

SA 	09/01/2020 05:00-> 	

METAR FMMI 090500Z 10005KT 070V170 9999 SCT017 21/17 Q1020
           NOSIG=

SA 	09/01/2020 04:30-> 	

METAR FMMI 090430Z 12005KT 080V170 9999 FEW017 SCT020 21/17
           Q1020 NOSIG=

SA 	09/01/2020 04:00-> 	

METAR FMMI 090400Z VRB02KT 9999 FEW017 SCT020 19/17 Q1020
           NOSIG=

SA 	09/01/2020 03:30-> 	

METAR FMMI 090330Z VRB01KT 9999 FEW017 SCT020 18/17 Q1020
           NOSIG=

SA 	09/01/2020 03:00-> 	

METAR FMMI 090300Z 08004KT 9999 FEW017 SCT020 18/17 Q1020
           NOSIG=

SA 	09/01/2020 02:30-> 	

METAR FMMI 090230Z 07002KT 9999 FEW017 SCT020 18/17 Q1019
           NOSIG=

SA 	09/01/2020 02:00-> 	

METAR FMMI 090200Z 10005KT 9999 FEW017 SCT020 18/17 Q1019
           NOSIG=

SA 	09/01/2020 01:30-> 	

METAR FMMI 090130Z 10006KT 9999 FEW017 BKN020 18/17 Q1019
           NOSIG=

SA 	09/01/2020 01:00-> 	

METAR FMMI 090100Z 10005KT 9999 FEW017 BKN020 18/17 Q1019
           NOSIG=

SA 	09/01/2020 00:30-> 	

METAR FMMI 090030Z 07003KT 9999 FEW017 BKN020 18/17 Q1019
           NOSIG=

SA 	09/01/2020 00:00-> 	

METAR FMMI 090000Z 11003KT 9999 FEW017 BKN020 18/17 Q1018
           NOSIG=

SA 	08/01/2020 23:30-> 	

METAR FMMI 082330Z 18002KT 9999 FEW017 BKN020 18/17 Q1019
           NOSIG=

SA 	08/01/2020 23:00-> 	

METAR FMMI 082300Z VRB02KT 9999 FEW017 SCT020 18/17 Q1019
           NOSIG=

SA 	08/01/2020 22:30-> 	

METAR FMMI 082230Z 17003KT 9999 FEW017 SCT020 18/17 Q1019
           NOSIG=

SA 	08/01/2020 22:00-> 	

METAR FMMI 082200Z 18003KT 9999 FEW017 SCT020 18/17 Q1019
           NOSIG=

SA 	08/01/2020 21:30-> 	

METAR FMMI 082130Z VRB02KT 9999 FEW017 SCT020 18/17 Q1020
           NOSIG=

SA 	08/01/2020 21:00-> 	

METAR FMMI 082100Z 16003KT 9999 FEW017 SCT020 18/17 Q1020
           NOSIG=

SA 	08/01/2020 20:30-> 	

METAR FMMI 082030Z 15004KT 130V190 9999 FEW017 SCT020 18/17
           Q1020 NOSIG=

SA 	08/01/2020 20:00-> 	

METAR FMMI 082000Z 10005KT 9999 FEW017 SCT020 19/17 Q1020
           NOSIG=

SA 	08/01/2020 19:30-> 	

METAR FMMI 081930Z 10005KT 9999 FEW017CB SCT020 19/17 Q1020
           NOSIG=

SA 	08/01/2020 19:00-> 	

METAR FMMI 081900Z 08004KT 9999 FEW017CB SCT020 19/17 Q1020
           NOSIG=

SA 	08/01/2020 18:30-> 	

METAR FMMI 081830Z 04003KT 020V080 9999 FEW017CB SCT020 19/17
           Q1020 TEMPO TSRA=

SA 	08/01/2020 18:00-> 	

METAR FMMI 081800Z 13004KT 100V170 9999 FEW017CB SCT020 19/17
           Q1021 TEMPO TSRA=

SA 	08/01/2020 17:30-> 	

METAR FMMI 081730Z 09003KT 9999 FEW017CB SCT020 19/17 Q1020
           NOSIG=

SA 	08/01/2020 17:00-> 	

METAR FMMI 081700Z 04004KT 020V080 9999 FEW017CB SCT020 19/17
           Q1020 TEMPO TSRA=

SA 	08/01/2020 16:30-> 	

METAR FMMI 081630Z 07006KT 9999 FEW017CB SCT020 19/17 Q1019
           TEMPO TSRA=

SA 	08/01/2020 16:00-> 	

METAR FMMI 081600Z 05005KT 9999 -RA FEW010 SCT017CB BKN023
           19/17 Q1019 TEMPO TSRA=

SA 	08/01/2020 15:30-> 	

METAR FMMI 081530Z 05007KT 9999 FEW010 SCT017CB BKN023 19/17
           Q1019 TEMPO TSRA=

SA 	08/01/2020 15:00-> 	

METAR FMMI 081500Z 08009KT 9999 FEW010 SCT017CB BKN023 20/18
           Q1019 TEMPO TSRA=

SA 	08/01/2020 14:30-> 	

METAR FMMI 081430Z 12006KT 090V170 9999 FEW010 SCT017CB BKN023
           20/18 Q1018 TEMPO TSRA=

SA 	08/01/2020 14:00-> 	

METAR FMMI 081400Z 11009KT 090V180 9999 VCTS FEW010 SCT017CB
           BKN023 21/18 Q1018 RETS TEMPO 4000 TSRA=

SA 	08/01/2020 13:30-> 	

METAR FMMI 081330Z 09007KT 9999 VCTS SCT017CB SCT020 21/18
           Q1018 TEMPO 4000 TSRA=

SA 	08/01/2020 13:00-> 	

METAR FMMI 081300Z 07009KT 030V100 9999 TS SCT017CB SCT020
           20/18 Q1017 TEMPO 4000 TSRA=

SA 	08/01/2020 12:30-> 	

METAR FMMI 081230Z 10011KT 9999 -TSRA FEW010 SCT020CB BKN023
           18/17 Q1018 RETSRA TEMPO 4000 TSRA=

SP 	08/01/2020 12:06-> 	

SPECI FMMI 081206Z 11010KT 070V130 7000 -TSRA FEW010 SCT020CB
           BKN023 17/17 Q1019 RETSRA WS R11 TEMPO 4000 TSRA=

SA 	08/01/2020 12:00-> 	

METAR FMMI 081200Z 12011KT 4000 TSRA FEW010 SCT020CB BKN023
           17/16 Q1019 WS R11 TEMPO 6000 -TSRA=

SP 	08/01/2020 11:56-> 	

SPECI FMMI 081156Z 16014G28KT 110V190 3000 TSRA FEW010 SCT020CB
           BKN023 18/17 Q1018 WS R11 TEMPO 6000 -TSRA=

SP 	08/01/2020 11:50-> 	

SPECI FMMI 081150Z 18018KT 1500 +TSRA FEW010 SCT020CB BKN023
           18/17 Q1018 WS R11 TEMPO 4000 TSRA=

SA 	08/01/2020 11:30-> 	

METAR FMMI 081130Z 07014KT 9999 TS FEW015 SCT020CB BKN023
           24/18 Q1017 TEMPO 4000 TSRA=

SA 	08/01/2020 11:00-> 	

METAR FMMI 081100Z 05009KT 360V070 9999 TS SCT020CB SCT023
           26/19 Q1017 TEMPO TSRA=

SA 	08/01/2020 10:30-> 	

METAR FMMI 081030Z 35011KT 320V020 9999 TS BKN020CB 25/18
           Q1018 TEMPO TSRA=

SP 	08/01/2020 10:09-> 	

SPECI COR FMMI 081009Z 35006KT 320V020 9999 -TSRA BKN020CB
           25/18 Q1018 TEMPO 4000 TSRA=

SA 	08/01/2020 10:00-> 	

METAR FMMI 081000Z 35008KT 310V020 9999 VCSH BKN020CB 26/18
           Q1018 TEMPO TSRA=

SA 	08/01/2020 09:30-> 	

METAR FMMI 080930Z VRB04KT 9999 BKN020CB 28/18 Q1018 TEMPO
           TS=

SA 	08/01/2020 09:00-> 	

METAR FMMI 080900Z VRB04KT 9999 BKN020CB 28/17 Q1018 TEMPO
           TS=

SA 	08/01/2020 08:30-> 	

METAR FMMI 080830Z 09006KT 050V120 9999 BKN020CB 27/18 Q1019
           NOSIG=

SA 	08/01/2020 08:00-> 	

METAR FMMI 080800Z VRB04KT 9999 BKN020TCU 26/18 Q1019 NOSIG=

SA 	08/01/2020 07:30-> 	

METAR FMMI 080730Z VRB03KT 9999 BKN020 25/19 Q1020 NOSIG=

SA 	08/01/2020 07:00-> 	

METAR FMMI 080700Z VRB03KT 9999 BKN020 25/19 Q1020 NOSIG=

SA 	08/01/2020 06:30-> 	

METAR FMMI 080630Z 07004KT 030V150 9999 SCT020 23/19 Q1020
           NOSIG=

SA 	08/01/2020 06:00-> 	

METAR FMMI 080600Z VRB03KT 9999 SCT017 SCT020 22/18 Q1020
           NOSIG=

SA 	08/01/2020 05:30-> 	

METAR FMMI 080530Z 16004KT 070V220 9999 FEW017 BKN020 21/19
           Q1020 NOSIG=

SA 	08/01/2020 05:00-> 	

METAR FMMI 080500Z 15004KT 060V210 9999 FEW017 BKN020 21/18
           Q1020 NOSIG=

SA 	08/01/2020 04:30-> 	

METAR FMMI 080430Z 17005KT 140V200 9999 SCT017 21/18 Q1019
           NOSIG=

SA 	08/01/2020 04:00-> 	

METAR FMMI 080400Z VRB02KT 9999 FEW017 SCT020 20/18 Q1019
           NOSIG=

SA 	08/01/2020 03:30-> 	

METAR FMMI 080330Z VRB02KT 9999 FEW010 SCT020 18/18 Q1019
           NOSIG=

SA 	08/01/2020 03:00-> 	

METAR FMMI 080300Z VRB02KT 9999 FEW010 SCT020 18/17 Q1019
           NOSIG=

SA 	08/01/2020 02:30-> 	

METAR FMMI 080230Z 06004KT 9999 FEW005 BKN020 18/17 Q1019
           NOSIG=

SA 	08/01/2020 02:00-> 	

METAR FMMI 080200Z 04002KT 9999 FEW010 BKN020 18/17 Q1019
           NOSIG=

SA 	08/01/2020 01:30-> 	

METAR FMMI 080130Z 00000KT 9999 FEW010 BKN020 18/17 Q1019
           NOSIG=

SA 	08/01/2020 01:00-> 	

METAR FMMI 080100Z 00000KT 9999 FEW010 BKN020 18/17 Q1019
           NOSIG=

SA 	08/01/2020 00:30-> 	

METAR FMMI 080030Z 27003KT 9999 FEW010 BKN020 18/17 Q1019
           NOSIG=

SA 	08/01/2020 00:00-> 	

METAR FMMI 080000Z 27003KT 7000 -RA FEW010 FEW017CB BKN020
           18/17 Q1019 NOSIG=

SA 	07/01/2020 23:30-> 	

METAR FMMI 072330Z 30005KT 9999 FEW010 FEW017CB BKN020 18/17
           Q1019 NOSIG=

SA 	07/01/2020 23:00-> 	

METAR FMMI 072300Z 30004KT 270V330 9999 FEW010 FEW017CB BKN020
           18/17 Q1019 NOSIG=

SA 	07/01/2020 22:30-> 	

METAR FMMI 072230Z 30004KT 9999 -RA FEW010 FEW017CB BKN020
           18/17 Q1020 NOSIG=

SA 	07/01/2020 22:00-> 	

METAR FMMI 072200Z VRB02KT 9999 FEW010 FEW017CB BKN020 18/17
           Q1020 NOSIG=

SA 	07/01/2020 21:30-> 	

METAR FMMI 072130Z 00000KT 9999 -RA FEW010 FEW017CB BKN020
           17/17 Q1019 NOSIG=

SA 	07/01/2020 21:00-> 	

METAR FMMI 072100Z VRB03KT 9999 -RA FEW010 FEW017CB BKN020
           17/17 Q1020 NOSIG=

SP 	07/01/2020 20:50-> 	

SPECI FMMI 072050Z 23003KT 200V270 9999 FEW010 FEW017CB BKN020
           17/17 Q1020 NOSIG=

SA 	07/01/2020 20:30-> 	

METAR FMMI 072030Z 22006KT 9999 -TSRA FEW010 FEW017CB BKN020
           18/17 Q1020 NOSIG=

SA 	07/01/2020 20:00-> 	

METAR FMMI 072000Z 23004KT 200V260 9999 -TSRA FEW010 FEW017CB
           BKN020 17/17 Q1020 NOSIG=

SA 	07/01/2020 19:30-> 	

METAR FMMI 071930Z VRB02KT 9999 -TSRA FEW010 SCT017CB BKN020
           17/17 Q1020 NOSIG=

SA 	07/01/2020 19:00-> 	

METAR FMMI 071900Z 35005KT 9999 -TSRA FEW010 SCT017CB BKN020
           17/17 Q1020 TEMPO 4000 TSRA=

SA 	07/01/2020 18:30-> 	

METAR FMMI 071830Z 31006KT 8000 -TSRA FEW010 SCT017CB BKN020
           17/17 Q1021 TEMPO 4000 TSRA=

SA 	07/01/2020 18:00-> 	

METAR FMMI 071800Z 36006KT 8000 -TSRA FEW010 SCT017CB BKN020
           17/16 Q1021 TEMPO 4000 TSRA=

SA 	07/01/2020 17:30-> 	

METAR FMMI 071730Z 34006KT 7000 -TSRA FEW010 SCT017CB BKN020
           17/17 Q1020 TEMPO 4000 TSRA=

SP 	07/01/2020 17:12-> 	

SPECI FMMI 071712Z=

SP 	07/01/2020 17:00-> 	

SPECI FMMI 071712=

SA 	07/01/2020 17:00-> 	

METAR FMMI 071700Z 21006KT 150V250 4000 TSRA FEW003 SCT017CB
           BKN020 17/16 Q1020 NOSIG=

SP 	07/01/2020 16:55-> 	

SPECI FMMI 071655Z 21006KT 150V250 3500 TSRA FEW003 SCT017CB
           BKN020 17/16 Q1020 NOSIG=

SA 	07/01/2020 16:30-> 	

METAR FMMI 071630Z 21016KT 2500 +TSRA FEW003 SCT017CB BKN020
           18/17 Q1020 TEMPO 4000 TSRA=

SP 	07/01/2020 16:10-> 	

SPECI FMMI 071610Z 21015G26KT 180V240 2500 +TSRA FEW003 SCT017CB
           BKN020 18/17 Q1019 TEMPO 4000 TSR=

SA 	07/01/2020 16:00-> 	

METAR FMMI 071600Z 20014KT 160V260 3500 TSRA FEW003 SCT017CB
           BKN020 19/17 Q1019 TEMPO 2000 +TSRA=

SP 	07/01/2020 15:51-> 	

SPECI FMMI 071551Z 19011KT 150V220 4500 TSRA FEW003 SCT017CB
           BKN020 22/16 Q1019 TEMPO 2000 +TSRA=

SP 	07/01/2020 15:46-> 	

SPECI FMMI 071546Z 18013KT 150V220 8000 -TSRA FEW003 SCT020CB
           BKN023 23/16 Q1019 TEMPO 4000 TSRA=

SA 	07/01/2020 15:30-> 	

METAR FMMI 071530Z 06004KT 030V090 9999 TS FEW003 SCT020CB
           BKN023 24/18 Q1018 TEMPO 4000 TSRA=

SA 	07/01/2020 15:00-> 	

METAR FMMI 071500Z 05008KT 9999 TS SCT020CB 25/18 Q1017 TEMPO
           4000 TSRA=

SP 	07/01/2020 14:57-> 	

SPECI FMMI 071457Z 05008KT 9999 TS SCT020CB 25/18 Q1017 TEMPO
           4000 TSRA=

SA 	07/01/2020 14:30-> 	

METAR FMMI 071430Z 04007KT 010V070 9999 SCT023CB 25/18 Q1017
           TEMPO TS=

SA 	07/01/2020 14:00-> 	

METAR FMMI 071400Z 07005KT 040V100 9999 SCT023CB 27/16 Q1016
           TEMPO TS=

SA 	07/01/2020 13:30-> 	

METAR FMMI 071330Z VRB04KT 9999 SCT023CB 28/15 Q1017 TEMPO
           TS=

SA 	07/01/2020 13:00-> 	

METAR FMMI 071300Z VRB03KT 9999 SCT023CB 29/16 Q1016 TEMPO
           TS=

SA 	07/01/2020 12:30-> 	

METAR FMMI 071230Z VRB03KT 9999 SCT023CB 27/17 Q1017 TEMPO
           TS=

SA 	07/01/2020 12:00-> 	

METAR FMMI 071200Z VRB03KT 9999 SCT023CB 27/17 Q1017 NOSIG=

SA 	07/01/2020 11:30-> 	

METAR FMMI 071130Z 36004KT 300V050 9999 SCT023CB 27/17 Q1017
           NOSIG=

SA 	07/01/2020 11:00-> 	

METAR FMMI 071100Z VRB02KT 9999 SCT023CB 27/17 Q1018 NOSIG=

SA 	07/01/2020 10:30-> 	

METAR FMMI 071030Z 08005KT 030V160 9999 SCT023CB 26/17 Q1018
           NOSIG=

SA 	07/01/2020 10:00-> 	

METAR FMMI 071000Z 07004KT 360V140 9999 SCT023CB 26/17 Q1019
           NOSIG=

SA 	07/01/2020 09:30-> 	

METAR FMMI 070930Z 07004KT 360V120 9999 SCT020 26/17 Q1019
           NOSIG=

SA 	07/01/2020 09:00-> 	

METAR FMMI 070900Z 07004KT 030V100 9999 BKN020 25/17 Q1019
           NOSIG=

SA 	07/01/2020 08:30-> 	

METAR FMMI 070830Z 06004KT 010V100 9999 BKN020 25/17 Q1019
           NOSIG=

SA 	07/01/2020 08:00-> 	

METAR FMMI 070800Z VRB02KT 9999 SCT017 SCT020 24/17 Q1020
           NOSIG=

SA 	07/01/2020 07:30-> 	

METAR FMMI 070730Z VRB03KT 9999 SCT017 SCT020 24/17 Q1020
           NOSIG=

SA 	07/01/2020 07:00-> 	

METAR FMMI 070700Z 18005KT 150V210 9999 SCT017 SCT020 23/17
           Q1020 NOSIG=

SA 	07/01/2020 06:30-> 	

METAR FMMI 070630Z VRB02KT 9999 SCT015 BKN020 22/17 Q1020
           NOSIG=

SA 	07/01/2020 06:00-> 	

METAR FMMI 070600Z VRB03KT 9999 SCT015 BKN020 22/17 Q1020
           NOSIG=

SA 	07/01/2020 05:30-> 	

METAR FMMI 070530Z 12005KT 090V180 9999 SCT014 SCT020 22/17
           Q1020 NOSIG=

SA 	07/01/2020 05:00-> 	

METAR FMMI 070500Z 12005KT 080V170 9999 SCT014 SCT020 22/17
           Q1020 NOSIG=

SA 	07/01/2020 04:30-> 	

METAR FMMI 070430Z 11005KT 080V150 9999 SCT014 BKN020 20/17
           Q1020 NOSIG=

SA 	07/01/2020 04:00-> 	

METAR FMMI 070400Z 06004KT 9999 FEW014 BKN020 20/17 Q1020
           NOSIG=

SA 	07/01/2020 03:30-> 	

METAR FMMI 070330Z 08005KT 9999 FEW014 BKN020 20/17 Q1019
           NOSIG=

SA 	07/01/2020 03:00-> 	

METAR FMMI 070300Z 10004KT 080V140 9999 FEW017 SCT020 19/17
           Q1019 NOSIG=

SA 	07/01/2020 02:30-> 	

METAR FMMI 070230Z 08004KT 9999 FEW017 BKN020 19/17 Q1018
           NOSIG=

SP 	07/01/2020 02:00-> 	

METAR FMMI 070200Z 07004KT 9999 FEW017 BKN020 19/17 Q1018
           NOSIG=

SA 	07/01/2020 02:00-> 	

METAR FMMI 070200Z 07004KT 9999 FEW017 BKN020 19/17 Q1018
           NOSIG=

SP 	07/01/2020 01:59-> 	

SPECI FMMI 070159Z 07004KT 040V100 9999 FEW017 BKN020 19/17
           Q1018 NOSIG=

SA 	07/01/2020 01:30-> 	

METAR FMMI 070130Z 08007KT 9999 FEW017 BKN020 19/17 Q1018
           NOSIG=

SA 	07/01/2020 01:00-> 	

METAR FMMI 070100Z 10008KT 9999 FEW017 BKN020 19/17 Q1018
           NOSIG=

SA 	07/01/2020 00:30-> 	

METAR FMMI 070030Z 09008KT 9999 FEW017 BKN020 19/17 Q1018
           NOSIG=

SA 	07/01/2020 00:00-> 	

METAR FMMI 070000Z 09008KT 9999 FEW017 BKN020 20/17 Q1018
           NOSIG=

SA 	06/01/2020 23:30-> 	

METAR FMMI 062330Z 07007KT 9999 FEW017 BKN020 20/17 Q1018
           NOSIG=

SP 	06/01/2020 23:00-> 	

METAR FMMI 062300Z 07007KT 9999 FEW017 BKN020 20/17 Q1018
           NOSIG=

SA 	06/01/2020 23:00-> 	

METAR FMMI 062300Z 07007KT 9999 FEW017 BKN020 20/17 Q1018
           NOSIG=

SA 	06/01/2020 22:30-> 	

METAR FMMI 062230Z 09010KT 9999 FEW017 BKN020 20/17 Q1018
           NOSIG=

SA 	06/01/2020 22:00-> 	

METAR FMMI 062200Z 06006KT 9999 FEW017 BKN020 20/17 Q1018
           NOSIG=

SA 	06/01/2020 21:30-> 	

METAR FMMI 062130Z 10007KT 9999 FEW017 BKN020 20/17 Q1019
           NOSIG=

SA 	06/01/2020 21:00-> 	

METAR FMMI 062100Z 14006KT 100V170 9999 FEW017 BKN020 20/17
           Q1018 NOSIG=

SA 	06/01/2020 20:30-> 	

METAR FMMI 062030Z 13007KT 090V180 9999 FEW017 BKN020 20/17
           Q1019 NOSIG=

SP 	06/01/2020 20:00-> 	

METAR FMMI 062000Z 09007KT 9999 FEW017 BKN020 20/17 Q1019
           NOSIG=

SA 	06/01/2020 20:00-> 	

METAR FMMI 062000Z 09007KT 9999 FEW017 BKN020 20/17 Q1019
           NOSIG=

SP 	06/01/2020 19:30-> 	

METAR FMMI 061930Z 13010KT 100V170 9999 VCTS FEW017CB SCT020
           21/17 Q1019 NOSIG=

SA 	06/01/2020 19:00-> 	

METAR FMMI 061900Z 13009KT 100V170 9999 VCTS FEW017CB SCT020
           21/18 Q1019 NOSIG=

SA 	06/01/2020 18:30-> 	

METAR FMMI 061830Z 14009KT 100V180 9999 VCTS FEW017CB SCT020
           21/18 Q1019 NOSIG=

SA 	06/01/2020 18:00-> 	

METAR FMMI 061800Z 11010KT 9999 TS FEW017CB SCT020 22/18
           Q1018 NOSIG=

SA 	06/01/2020 17:30-> 	

METAR FMMI 061730Z 12008KT 100V160 9999 TS FEW017CB 22/18
           Q1018 NOSIG=

SA 	06/01/2020 17:00-> 	

METAR FMMI 061700Z 10008KT 9999 TS FEW017CB 22/18 Q1018 TEMPO
           4000 TSRA=

SA 	06/01/2020 16:30-> 	

METAR FMMI 061630Z 10009KT 9999 TS FEW017CB 23/18 Q1017 TEMPO
           4000 TSRA=

SA 	06/01/2020 16:00-> 	

METAR FMMI 061600Z 11010KT 9999 TS SCT020CB 23/17 Q1017 TEMPO
           4000 TSRA=

SA 	06/01/2020 15:30-> 	

METAR FMMI 061530Z 10010KT 9999 TS SCT020CB 24/17 Q1016 TEMPO
           4000 TSRA=

SA 	06/01/2020 15:00-> 	

METAR FMMI 061500Z 10011KT 9999 TS SCT020CB 25/17 Q1016 TEMPO
           4000 TSRA=

SP 	06/01/2020 14:41-> 	

SPECI FMMI 061441Z 09011KT 9999 TS SCT020CB 26/16 Q1015 TEMPO
           4000 TSRA=

SA 	06/01/2020 14:30-> 	

METAR FMMI 061430Z 12010KT 090V160 9999 SCT020CB 26/15 Q1015
           TEMPO 4000 TSRA=

SA 	06/01/2020 14:00-> 	

METAR FMMI 061400Z 12010KT 090V180 9999 SCT020CB 27/15 Q1015
           NOSIG=

SA 	06/01/2020 13:30-> 	

METAR FMMI 061330Z 08012KT 9999 SCT020CB 28/16 Q1015 NOSIG=

SA 	06/01/2020 13:00-> 	

METAR FMMI 061300Z 12010KT 090V160 9999 SCT020CB 29/15 Q1015
           NOSIG=

SA 	06/01/2020 12:30-> 	

METAR FMMI 061230Z 17007KT 090V220 9999 SCT023CB 29/15 Q1015
           NOSIG=

SP 	06/01/2020 12:30-> 	

METAR FMMI 061230Z 17007KT 090V220 9999 SCT023CB 29/15 Q1015
           NOSIG=

SA 	06/01/2020 12:00-> 	

METAR FMMI 061200Z 11006KT 040V200 9999 SCT023CB 29/14 Q1015
           NOSIG=

SA 	06/01/2020 11:30-> 	

METAR FMMI 061130Z 08006KT 020V180 9999 SCT023CB 29/15 Q1016
           NOSIG=

SA 	06/01/2020 11:00-> 	

METAR FMMI 061100Z 09006KT 050V170 9999 BKN023CB 29/16 Q1016
           NOSIG=

SA 	06/01/2020 10:30-> 	

METAR FMMI 061030Z 12006KT 010V180 9999 SCT023CB 29/15 Q1016
           NOSIG=

SA 	06/01/2020 10:00-> 	

METAR FMMI 061000Z 16006KT 090V210 9999 BKN023CB 28/16 Q1016
           NOSIG=

SA 	06/01/2020 09:30-> 	

METAR FMMI 060930Z 15008KT 090V190 9999 BKN023CB 28/17 Q1017
           NOSIG=

SA 	06/01/2020 09:00-> 	

METAR FMMI 060900Z 15007KT 080V230 9999 BKN023TCU 28/16 Q1017
           NOSIG=

SA 	06/01/2020 08:30-> 	

METAR FMMI 060830Z VRB06KT 9999 BKN020 27/17 Q1017 NOSIG=

SA 	06/01/2020 08:00-> 	

METAR FMMI 060800Z 16008KT 090V230 9999 BKN020 27/16 Q1018
           NOSIG=

SA 	06/01/2020 07:30-> 	

METAR FMMI 060730Z VRB06KT 9999 SCT020 26/16 Q1018 NOSIG=

SA 	06/01/2020 07:00-> 	

METAR FMMI 060700Z VRB04KT 9999 SCT020 26/16 Q1018 NOSIG=

SA 	06/01/2020 06:30-> 	

METAR FMMI 060630Z 10004KT 040V170 9999 SCT020 25/16 Q1018
           NOSIG=

SA 	06/01/2020 06:00-> 	

METAR FMMI 060600Z 12006KT 070V200 9999 FEW020 24/16 Q1019
           NOSIG=

SA 	06/01/2020 05:30-> 	

METAR FMMI 060530Z 14006KT 090V250 9999 FEW017 24/16 Q1019
           NOSIG=

SA 	06/01/2020 05:00-> 	

METAR FMMI 060500Z 15006KT 100V190 9999 FEW017 22/16 Q1018
           NOSIG=

SA 	06/01/2020 04:30-> 	

METAR FMMI 060430Z 15004KT 110V200 9999 FEW017 22/16 Q1018
           NOSIG=

SA 	06/01/2020 04:00-> 	

METAR FMMI 060400Z 11004KT 070V170 9999 FEW017 21/16 Q1018
           NOSIG=

SA 	06/01/2020 03:30-> 	

METAR FMMI 060330Z 11004KT 9999 FEW017 19/16 Q1018 NOSIG=

SA 	06/01/2020 03:00-> 	

METAR FMMI 060300Z 14004KT 9999 FEW017 18/16 Q1018 NOSIG=

SA 	06/01/2020 02:30-> 	

METAR FMMI 060230Z 15004KT 110V190 9999 FEW017 17/16 Q1018
           NOSIG=

SA 	06/01/2020 02:00-> 	

METAR FMMI 060200Z 15004KT 120V180 9999 FEW017 SCT020 17/16
           Q1018 NOSIG=

SA 	06/01/2020 01:30-> 	

METAR FMMI 060130Z 17004KT 9999 FEW017 SCT020 17/16 Q1018
           NOSIG=

SA 	06/01/2020 01:00-> 	

METAR FMMI 060100Z VRB02KT 9999 FEW017 SCT020 17/16 Q1017
           NOSIG=

SA 	06/01/2020 00:30-> 	

METAR FMMI 060030Z 12004KT 100V170 9999 FEW017 SCT020 18/16
           Q1017 NOSIG=

SA 	06/01/2020 00:00-> 	

METAR FMMI 060000Z 10007KT 9999 FEW017 18/16 Q1017 NOSIG=

SA 	05/01/2020 23:30-> 	

METAR FMMI 052330Z 17004KT 9999 FEW017 18/17 Q1017 NOSIG=

SA 	05/01/2020 23:00-> 	

METAR FMMI 052300Z VRB03KT 9999 FEW017 19/17 Q1017 NOSIG=

SA 	05/01/2020 22:30-> 	

METAR FMMI 052230Z 13005KT 100V160 9999 FEW017 19/17 Q1017
           NOSIG=

SA 	05/01/2020 22:00-> 	

METAR FMMI 052200Z 00000KT 9999 FEW017 20/17 Q1018 NOSIG=

SA 	05/01/2020 21:30-> 	

METAR FMMI 052130Z 00000KT 9999 FEW017 19/17 Q1018 NOSIG=

SA 	05/01/2020 21:00-> 	

METAR FMMI 052100Z 15004KT 110V180 9999 FEW017 BKN020 19/17
           Q1018 NOSIG=

SA 	05/01/2020 20:30-> 	

METAR FMMI 052030Z 15005KT 9999 FEW017 BKN020 19/17 Q1018
           NOSIG=

SA 	05/01/2020 20:00-> 	

METAR FMMI 052000Z 16004KT 9999 FEW017 BKN020 19/17 Q1018
           NOSIG=

SA 	05/01/2020 19:30-> 	

METAR FMMI 051930Z 15008KT 130V190 9999 FEW017 BKN020 20/17
           Q1018 NOSIG=

SA 	05/01/2020 19:00-> 	

METAR FMMI 051900Z 13006KT 100V170 9999 FEW017CB BKN020 20/17
           Q1018 NOSIG=

SA 	05/01/2020 18:30-> 	

METAR FMMI 051830Z 13007KT 090V170 9999 FEW017CB BKN020 20/17
           Q1018 NOSIG=

SA 	05/01/2020 18:00-> 	

METAR FMMI 051800Z 11009KT 9999 FEW017CB BKN020 20/18 Q1018
           NOSIG=

SA 	05/01/2020 17:30-> 	

METAR FMMI 051730Z 14005KT 110V180 9999 VCTS FEW017CB SCT020
           21/18 Q1018 NOSIG=

SA 	05/01/2020 17:00-> 	

METAR FMMI 051700Z 14007KT 110V170 9999 VCTS FEW017CB SCT020
           21/18 Q1017 NOSIG=

SA 	05/01/2020 16:30-> 	

METAR FMMI 051630Z 14006KT 110V170 9999 VCTS FEW017CB SCT023
           21/17 Q1017 NOSIG=

SA 	05/01/2020 16:00-> 	

METAR FMMI 051600Z 15009KT 120V180 9999 TS FEW017CB SCT020
           22/17 Q1017 TEMPO TSRA=

SA 	05/01/2020 15:30-> 	

METAR FMMI 051530Z 14009KT 110V180 9999 SCT020CB SCT023 23/18
           Q1016 NOSIG=

SA 	05/01/2020 15:00-> 	

METAR FMMI 051500Z 15009KT 110V180 9999 SCT020CB SCT023 23/18
           Q1015 NOSIG=

SA 	05/01/2020 14:30-> 	

METAR FMMI 051430Z 14011KT 120V180 9999 BKN020CB 24/17 Q1015
           NOSIG=

SA 	05/01/2020 14:00-> 	

METAR FMMI 051400Z 15006KT 110V200 9999 BKN020CB 25/16 Q1014
           NOSIG=

SA 	05/01/2020 13:30-> 	

METAR FMMI 051330Z 13005KT 090V200 9999 BKN020CB 26/16 Q1014
           NOSIG=

SA 	05/01/2020 13:00-> 	

METAR FMMI 051300Z 12006KT 070V180 9999 BKN020CB 28/15 Q1014
           NOSIG=

SA 	05/01/2020 12:30-> 	

METAR FMMI 051230Z 08007KT 9999 BKN020CB 27/16 Q1014 NOSIG=

SA 	05/01/2020 12:00-> 	

METAR FMMI 051200Z 14005KT 050V200 9999 BKN020CB 27/15 Q1014
           NOSIG=

SA 	05/01/2020 11:30-> 	

METAR FMMI 051130Z 16006KT 090V210 9999 BKN020CB 29/16 Q1015
           NOSIG=

SA 	05/01/2020 11:00-> 	

METAR FMMI 051100Z 12006KT 050V200 9999 BKN020CB 28/15 Q1015
           NOSIG=

SA 	05/01/2020 10:30-> 	

METAR FMMI 051030Z 15006KT 100V220 9999 BKN020 28/16 Q1015
           NOSIG=

SA 	05/01/2020 10:00-> 	

METAR FMMI 051000Z 12006KT 070V170 9999 BKN020 27/16 Q1016
           NOSIG=

SA 	05/01/2020 09:30-> 	

METAR FMMI 050930Z 10006KT 040V180 9999 SCT020 27/16 Q1016
           NOSIG=

SA 	05/01/2020 09:00-> 	

METAR FMMI 050900Z VRB06KT 9999 SCT020 27/17 Q1016 NOSIG=

SA 	05/01/2020 08:30-> 	

METAR FMMI 050830Z VRB06KT 9999 SCT020 25/16 Q1017 NOSIG=

SA 	05/01/2020 08:00-> 	

METAR FMMI 050800Z 15008KT 110V190 9999 BKN020 24/16 Q1017
           NOSIG=

SA 	05/01/2020 07:30-> 	

METAR FMMI 050730Z 15006KT 090V190 9999 BKN020 24/16 Q1017
           NOSIG=

SA 	05/01/2020 07:00-> 	

METAR FMMI 050700Z 12007KT 090V180 9999 SCT020 SCT023 24/17
           Q1017 NOSIG=

SA 	05/01/2020 06:30-> 	

METAR FMMI 050630Z 17007KT 100V200 9999 SCT020 SCT023 23/17
           Q1017 NOSIG=

SA 	05/01/2020 06:00-> 	

METAR FMMI 050600Z 18008KT 9999 SCT020 SCT023 23/17 Q1017
           NOSIG=

SA 	05/01/2020 05:30-> 	

METAR FMMI 050530Z 17007KT 120V210 9999 SCT020 23/18 Q1018
           NOSIG=

SA 	05/01/2020 05:00-> 	

METAR FMMI 050500Z 16007KT 130V210 9999 SCT020 22/16 Q1017
           NOSIG=

SA 	05/01/2020 04:30-> 	

METAR FMMI 050430Z 17005KT 140V200 9999 FEW020 21/17 Q1017
           NOSIG=

SA 	05/01/2020 04:00-> 	

METAR FMMI 050400Z 17005KT 130V200 9999 FEW010 20/16 Q1017
           NOSIG=

SA 	05/01/2020 03:30-> 	

METAR FMMI 050330Z 15003KT 090V200 9999 FEW010 19/17 Q1017
           NOSIG=

SA 	05/01/2020 03:00-> 	

METAR FMMI 050300Z 11003KT 9999 FEW010 18/17 Q1017 NOSIG=

SA 	05/01/2020 02:30-> 	

METAR FMMI 050230Z 15004KT 9999 FEW010 17/16 Q1017 NOSIG=

SA 	05/01/2020 02:00-> 	

METAR FMMI 050200Z VRB02KT 9999 SCT017 17/16 Q1016 NOSIG=

SA 	05/01/2020 01:30-> 	

METAR FMMI 050130Z 15004KT 110V180 9999 FEW017 17/16 Q1016
           NOSIG=

SA 	05/01/2020 01:00-> 	

METAR FMMI 050100Z 09004KT 9999 FEW017 18/17 Q1016 NOSIG=

SA 	05/01/2020 00:30-> 	

METAR FMMI 050030Z 10005KT 9999 FEW017 SCT020 18/17 Q1015
           NOSIG=

SA 	05/01/2020 00:00-> 	

METAR FMMI 050000Z VRB03KT 9999 FEW017 SCT020 18/17 Q1016
           NOSIG=

SA 	04/01/2020 23:30-> 	

METAR FMMI 042330Z 16003KT 100V190 9999 FEW017 SCT020 18/17
           Q1016 NOSIG=

SA 	04/01/2020 23:00-> 	

METAR FMMI 042300Z 16003KT 9999 FEW017 SCT020 18/17 Q1016
           NOSIG=

SA 	04/01/2020 22:30-> 	

METAR FMMI 042230Z 11004KT 9999 FEW017 BKN020 18/17 Q1016
           NOSIG=

SA 	04/01/2020 22:00-> 	

METAR FMMI 042200Z VRB02KT 9999 FEW017 BKN020 18/17 Q1016
           NOSIG=

SA 	04/01/2020 21:30-> 	

METAR FMMI 042130Z VRB02KT 9999 FEW017 SCT020 18/17 Q1017
           NOSIG=

SA 	04/01/2020 21:00-> 	

METAR FMMI 042100Z VRB02KT 9999 FEW017 SCT020 18/17 Q1017
           NOSIG=

SA 	04/01/2020 20:30-> 	

METAR FMMI 042030Z VRB02KT 9999 FEW010 BKN020 18/17 Q1018
           NOSIG=

SA 	04/01/2020 20:00-> 	

METAR FMMI 042000Z 17004KT 130V200 9999 FEW010 BKN020 18/17
           Q1019 NOSIG=

SA 	04/01/2020 19:30-> 	

METAR FMMI 041930Z 16004KT 130V190 9999 FEW010 BKN020 19/17
           Q1019 NOSIG=

SA 	04/01/2020 19:00-> 	

METAR FMMI 041900Z 13008KT 100V170 9999 FEW010 BKN020 19/17
           Q1019 NOSIG=

SA 	04/01/2020 18:30-> 	

METAR FMMI 041830Z 10008KT 9999 FEW010 FEW017CB BKN020 19/18
           Q1019 TEMPO 4800 RA=

SA 	04/01/2020 18:00-> 	

METAR FMMI 041800Z 13006KT 110V170 9999 FEW017CB BKN020 20/18
           Q1019 TEMPO 4800 TSRA=

SA 	04/01/2020 17:30-> 	

METAR FMMI 041730Z 09006KT 9999 FEW017CB BKN020 19/17 Q1019
           TEMPO 4800 TSRA=

SA 	04/01/2020 17:00-> 	

METAR FMMI 041700Z 10008KT 9999 FEW017CB BKN020 20/18 Q1018
           TEMPO 4800 TSRA=

SA 	04/01/2020 16:30-> 	

METAR FMMI 041630Z 12008KT 100V170 9999 FEW017CB BKN020 20/17
           Q1018 TEMPO 4800 TSRA=

SA 	04/01/2020 16:00-> 	

METAR FMMI 041600Z 08005KT 9999 SCT017CB BKN020 20/18 Q1018
           TEMPO 4800 TSRA=

SA 	04/01/2020 15:30-> 	

METAR FMMI 041530Z 13005KT 090V170 9999 SCT017CB BKN020 20/18
           Q1018 NOSIG=

SA 	04/01/2020 15:00-> 	

METAR FMMI 041500Z 11004KT 080V160 9999 FEW015 FEW017CB BKN020
           20/18 Q1017 NOSIG=

SA 	04/01/2020 14:30-> 	

METAR FMMI 041430Z VRB02KT 9999 FEW015 FEW017CB BKN020 20/18
           Q1017 TEMPO 4500 TSRA=

SA 	04/01/2020 14:00-> 	

METAR FMMI 041400Z 09005KT 060V120 9999 FEW010 FEW017CB SCT020
           20/18 Q1016 TEMPO 4500 TSRA=

SA 	04/01/2020 13:30-> 	

METAR FMMI 041330Z VRB02KT 9999 -TSRA FEW020CB SCT023 19/18
           Q1016 TEMPO 4500 TSRA=

SA 	04/01/2020 13:00-> 	

METAR FMMI 041300Z 22004KT 180V290 6000 -TSRA SCT020CB SCT023
           19/18 Q1017 TEMPO 4000 TSRA=

SA 	04/01/2020 12:30-> 	

METAR FMMI 041230Z 22010KT 9999 -TSRA SCT020CB SCT023 19/18
           Q1016 TEMPO 4000 TSRA=

SA 	04/01/2020 12:00-> 	

METAR FMMI 041200Z 21015KT 190V250 9999 TS SCT017 BKN020CB
           21/17 Q1016 TEMPO 4000 TSRA=

SA 	04/01/2020 11:30-> 	

METAR FMMI 041130Z 16011KT 110V190 9999 TS SCT017 BKN020CB
           24/15 Q1015 TEMPO 4000 TSRA=

SP 	04/01/2020 11:04-> 	

SPECI FMMI 041104Z 16013KT 110V190 9999 TS FEW010 BKN020CB
           24/16 Q1015 TEMPO 4000 TSRA=

SA 	04/01/2020 11:00-> 	

METAR FMMI 041100Z 17014KT 9999 VCSH BKN020CB 28/16 Q1015
           TEMPO 4000 TSRA=

SP 	04/01/2020 10:53-> 	

SPECI FMMI 041053Z 17014KT 9999 SCT020CB 28/16 Q1015 TEMPO
           4000 TSRA=

SA 	04/01/2020 10:30-> 	

METAR FMMI 041030Z VRB04KT 9999 SCT020CB 29/17 Q1015 NOSIG=

SA 	04/01/2020 10:00-> 	

METAR FMMI 041000Z 07003KT 350V160 9999 SCT020CB 29/17 Q1016
           NOSIG=

SA 	04/01/2020 09:30-> 	

METAR FMMI 040930Z VRB03KT 9999 SCT020CB 28/16 Q1016 NOSIG=

SA 	04/01/2020 09:00-> 	

METAR FMMI 040900Z VRB04KT 9999 SCT020CB 28/16 Q1016 NOSIG=

SA 	04/01/2020 08:30-> 	

METAR FMMI 040830Z 23005KT 180V290 9999 SCT020CB 27/18 Q1017
           NOSIG=

SA 	04/01/2020 08:00-> 	

METAR FMMI 040800Z VRB04KT 9999 FEW020TCU 27/19 Q1017 NOSIG=

SA 	04/01/2020 07:30-> 	

METAR FMMI 040730Z 22005KT 170V280 9999 FEW020 25/18 Q1017
           NOSIG=

SA 	04/01/2020 07:00-> 	

METAR FMMI 040700Z 23004KT 170V290 9999 FEW017 25/18 Q1018
           NOSIG=

SA 	04/01/2020 06:30-> 	

METAR FMMI 040630Z VRB03KT 9999 FEW017 24/18 Q1018 NOSIG=

SA 	04/01/2020 06:00-> 	

METAR FMMI 040600Z VRB02KT 9999 FEW017 SCT020 23/18 Q1018
           NOSIG=

SA 	04/01/2020 05:30-> 	

METAR FMMI 040530Z VRB01KT 9999 FEW017 SCT020 21/18 Q1019
           NOSIG=

SA 	04/01/2020 05:00-> 	

METAR FMMI 040500Z VRB01KT 9999 FEW010 SCT020 BKN046 19/18
           Q1019 NOSIG=

SA 	04/01/2020 04:30-> 	

METAR FMMI 040430Z VRB01KT 9999 FEW008 SCT020 18/17 Q1019
           NOSIG=

SA 	04/01/2020 04:00-> 	

METAR FMMI 040400Z VRB03KT 9999 FEW008 SCT020 18/17 Q1019
           NOSIG=

SA 	04/01/2020 03:30-> 	

METAR FMMI 040330Z 03003KT 9999 FEW008 SCT020 17/17 Q1018
           NOSIG=

SA 	04/01/2020 03:00-> 	

METAR FMMI 040300Z VRB01KT 9999 FEW003 SCT020 17/17 Q1018
           NOSIG=

SA 	04/01/2020 02:30-> 	

METAR FMMI 040230Z 20004KT 9999 FEW003 SCT020 17/17 Q1018
           NOSIG=

SA 	04/01/2020 02:00-> 	

METAR FMMI 040200Z VRB02KT 9999 SCT010 BKN020 17/16 Q1018
           NOSIG=

SA 	04/01/2020 01:30-> 	

METAR FMMI 040130Z 32002KT 9999 SCT010 BKN020 17/16 Q1018
           NOSIG=

SA 	04/01/2020 01:00-> 	

METAR FMMI 040100Z 32005KT 9999 FEW010 BKN020 17/16 Q1017
           NOSIG=

SA 	04/01/2020 00:30-> 	

METAR FMMI 040030Z 32005KT 9999 FEW010 BKN020 17/16 Q1017
           NOSIG=

SA 	04/01/2020 00:00-> 	

METAR FMMI 040000Z 24004KT 210V280 9999 FEW010 BKN020 17/17
           Q1018 NOSIG=

SA 	03/01/2020 23:30-> 	

METAR FMMI 032330Z VRB02KT 9999 FEW010 BKN020 17/17 Q1017
           NOSIG=

SA 	03/01/2020 23:00-> 	

METAR FMMI 032300Z VRB02KT 9999 FEW010 BKN020 18/17 Q1017
           NOSIG=

SA 	03/01/2020 22:30-> 	

METAR FMMI 032230Z VRB02KT 9999 FEW010 BKN020 17/17 Q1017
           NOSIG=

SA 	03/01/2020 22:00-> 	

METAR FMMI 032200Z 05005KT 9999 -RA FEW010 OVC020 17/17 Q1018
           NOSIG=

SA 	03/01/2020 21:30-> 	

METAR FMMI 032130Z 28004KT 9999 -RA FEW010 OVC020 17/16 Q1019
           NOSIG=

SA 	03/01/2020 21:00-> 	

METAR FMMI 032100Z 26005KT 210V290 9999 -RA FEW010 OVC020
           17/17 Q1019 NOSIG=

SA 	03/01/2020 20:30-> 	

METAR FMMI 032030Z 29005KT 6000 -RA FEW010 BKN020 17/17 Q1020
           NOSIG=

SA 	03/01/2020 20:00-> 	

METAR FMMI 032000Z 27006KT 6000 -RA FEW010 BKN020 17/17 Q1020
           NOSIG=

SA 	03/01/2020 19:30-> 	

METAR FMMI 031930Z 28007KT 6000 -RA FEW010 BKN020 17/17 Q1021
           TEMPO 4000 RA=

SA 	03/01/2020 19:00-> 	

METAR FMMI 031900Z 30006KT 6000 -RA FEW010 BKN020 17/17 Q1021
           TEMPO 4000 RA=

SA 	03/01/2020 18:30-> 	

METAR FMMI 031830Z 32009KT 6000 -RA FEW007 FEW017TCU BKN020
           17/17 Q1020 TEMPO 4000 RA=

SP 	03/01/2020 18:18-> 	

SPECI FMMI 031818Z 32009KT 7000 -RA FEW007 FEW017TCU BKN020
           17/17 Q1020 TEMPO 4000 RA=

SA 	03/01/2020 18:00-> 	

METAR FMMI 031800Z 30009KT 4000 RA FEW007 FEW017TCU BKN020
           17/17 Q1020 TEMPO 2500 +RA=

SA 	03/01/2020 17:30-> 	

METAR FMMI 031730Z 21013KT 4000 RA FEW007 FEW017TCU BKN020
           18/17 Q1020 TEMPO 2500 +RA=

SP 	03/01/2020 17:17-> 	

SPECI FMMI 031717Z 21012KT 6000 -RA FEW007 FEW017TCU BKN020
           19/18 Q1020 TEMPO 4000 RA=

SA 	03/01/2020 17:00-> 	

METAR FMMI 031700Z 32003KT 8000 -RA FEW007 OVC020 19/18 Q1020
           NOSIG=

SA 	03/01/2020 16:30-> 	

METAR FMMI 031630Z 31004KT 7000 -RA FEW010 SCT017CB OVC020
           19/18 Q1020 TEMPO 4500 TSRA=

SA 	03/01/2020 16:00-> 	

METAR FMMI 031600Z 33009KT 6000 -RA FEW010 SCT017CB OVC020
           19/18 Q1019 TEMPO 4500 TSRA=

SA 	03/01/2020 15:30-> 	

METAR FMMI 031530Z 32008KT 9000 -RA FEW010 SCT017CB OVC020
           20/18 Q1019 TEMPO 4500 TSRA=

SA 	03/01/2020 15:00-> 	

METAR FMMI 031500Z 32005KT 9999 FEW010 SCT017CB BKN020 20/19
           Q1019 TEMPO 4500 TSRA=

SP 	03/01/2020 14:56-> 	

SPECI FMMI 031456Z 32005KT 9999 FEW010 SCT017CB BKN020 20/19
           Q1019 TEMPO 4500 TSRA=

SA 	03/01/2020 14:30-> 	

METAR FMMI 031430Z 31011KT 4500 -RA FEW010 SCT017CB BKN020
           20/18 Q1018 TEMPO 4500 TSRA=

SA 	03/01/2020 14:00-> 	

METAR FMMI 031400Z 33007KT 9999 FEW010 SCT017CB BKN020 21/18
           Q1018 TEMPO 4500 TSRA=

SA 	03/01/2020 13:30-> 	

METAR FMMI 031330Z 33010KT 9999 -RA FEW010 SCT017CB OVC020
           21/18 Q1018 TEMPO 4500 TSRA=

SA 	03/01/2020 13:00-> 	

METAR FMMI 031300Z 32010KT 9999 VCSH FEW010 SCT017CB BKN020
           21/18 Q1017 TEMPO 4500 TSRA=

SA 	03/01/2020 12:30-> 	

METAR FMMI 031230Z 34011KT 8000 -RA FEW010 SCT017CB BKN020
           20/18 Q1017 TEMPO 4500 TSRA=

SA 	03/01/2020 12:00-> 	

METAR FMMI 031200Z 34010KT 8000 -RA FEW010 SCT017CB BKN020
           20/19 Q1017 TEMPO 4500 TSRA=

SP 	03/01/2020 11:43-> 	

SPECI FMMI 031143Z 35012KT 310V020 8000 -RA FEW010 SCT017CB
           BKN020 20/19 Q1017 TEMPO 4500 TSRA=

SA 	03/01/2020 11:30-> 	

METAR FMMI 031130Z 35007KT 6000 -RA FEW007 SCT017CB BKN020
           21/19 Q1017 TEMPO 4500 TSRA=

SP 	03/01/2020 11:25-> 	

SPECI FMMI 031125Z 35006KT 6000 -RA FEW007 SCT017CB BKN020
           21/19 Q1017 TEMPO 4500 TSRA=

SA 	03/01/2020 11:00-> 	

METAR FMMI 031100Z 34009KT 310V010 9999 TS FEW007 SCT017CB
           BKN020 21/19 Q1017 TEMPO 4500 TSRA=

SA 	03/01/2020 10:30-> 	

METAR FMMI 031030Z 02007KT 350V050 6000 -TSRA FEW006 SCT017CB
           OVC020 20/19 Q1018 TEMPO 4500 TSRA=

SP 	03/01/2020 10:24-> 	

SPECI FMMI 031024Z 01007KT 350V050 6000 -TSRA FEW006 SCT017CB
           OVC020 20/19 Q1018 TEMPO 4500 TSRA=

SP 	03/01/2020 10:09-> 	

SPECI FMMI 031009Z 01011KT 6000 -RA FEW010 SCT017CB OVC020
           20/19 Q1018 TEMPO 4500 TSRA=

SA 	03/01/2020 10:00-> 	

METAR FMMI 031000Z 02008KT 4500 RA FEW010 SCT017 OVC020 20/19
           Q1018 TEMPO 2000=

SP 	03/01/2020 09:51-> 	

SPECI FMMI 030951Z 01008KT 340V040 4500 RA FEW010 SCT017
           OVC020 20/19 Q1018 TEMPO 2000=

SA 	03/01/2020 09:30-> 	

METAR FMMI 030930Z 02016KT 350V050 7000 -RADZ FEW010 SCT017
           BKN020 21/19 Q1018 TEMPO 4000 RA=

SA 	03/01/2020 09:00-> 	

METAR FMMI 030900Z 01012KT 340V040 9999 -RADZ FEW010 SCT017
           BKN020 23/20 Q1018 TEMPO 4000 RA=

SA 	03/01/2020 08:30-> 	

METAR FMMI 030830Z 02005KT 340V060 9999 VCSH SCT017 BKN020
           25/19 Q1018 NOSIG=

SA 	03/01/2020 08:00-> 	

METAR FMMI 030800Z 02006KT 340V050 9999 SCT017 BKN020 24/19
           Q1019 NOSIG=

SA 	03/01/2020 07:30-> 	

METAR FMMI 030730Z 33007KT 9999 SCT015 BKN020 24/19 Q1019
           NOSIG=

SA 	03/01/2020 07:00-> 	

METAR FMMI 030700Z 34008KT 310V010 9999 VCSH SCT015 BKN020
           23/18 Q1020 NOSIG=

SA 	03/01/2020 06:30-> 	

METAR FMMI 030630Z 32008KT 300V360 9999 SCT015 BKN020 23/18
           Q1020 NOSIG=

SA 	03/01/2020 06:00-> 	

METAR FMMI 030600Z 34004KT 280V010 9999 SCT015 BKN020 23/19
           Q1019 NOSIG=

SA 	03/01/2020 05:30-> 	

METAR FMMI 030530Z 33006KT 300V360 9999 FEW007 BKN020 21/18
           Q1020 NOSIG=

SA 	03/01/2020 05:00-> 	

METAR FMMI 030500Z 34005KT 310V010 8000 -DZ FEW007 SCT017
           BKN020 20/19 Q1019 TEMPO 4000 RA=

SA 	03/01/2020 04:30-> 	

METAR FMMI 030430Z VRB02KT 9000 FEW004 BKN020 20/19 Q1019
           TEMPO 4000 RA=

SA 	03/01/2020 04:00-> 	

METAR FMMI 030400Z 32004KT 5000 FEW004 BKN015 19/18 Q1019
           TEMPO 4000 RA=

SA 	03/01/2020 03:30-> 	

METAR FMMI 030330Z 00000KT 9999 FEW007 BKN023 19/18 Q1018
           NOSIG=

SA 	03/01/2020 03:00-> 	

METAR FMMI 030300Z 24001KT 9999 FEW007 BKN023 18/18 Q1018
           NOSIG=

SA 	03/01/2020 02:30-> 	

METAR FMMI 030230Z 00000KT 9999 FEW007 BKN023 18/18 Q1018
           NOSIG=

SA 	03/01/2020 02:00-> 	

METAR FMMI 030200Z VRB01KT 9999 FEW008 BKN020 18/17 Q1017
           NOSIG=

SA 	03/01/2020 01:30-> 	

METAR FMMI 030130Z 35003KT 9999 FEW008 BKN020 18/17 Q1017
           NOSIG=

SA 	03/01/2020 01:00-> 	

METAR FMMI 030100Z 01004KT 9999 FEW008 BKN020 18/18 Q1017
           NOSIG=

SA 	03/01/2020 00:30-> 	

METAR FMMI 030030Z 36004KT 9999 FEW008 BKN020 18/17 Q1017
           NOSIG=

SP 	03/01/2020 00:00-> 	

METAR FMMI 030000Z 01004KT 9999 FEW008 BKN020 18/18 Q1017
           NOSIG=

SA 	03/01/2020 00:00-> 	

METAR FMMI 030000Z 01004KT 9999 FEW008 BKN020 18/18 Q1017
           NOSIG=

SP 	02/01/2020 23:30-> 	

METAR FMMI 022330Z 02004KT 9999 FEW008 BKN020 18/18 Q1017
           NOSIG=

SA 	02/01/2020 23:30-> 	

METAR FMMI 022330Z 02004KT 9999 FEW008 BKN020 18/18 Q1017
           NOSIG=

SA 	02/01/2020 23:00-> 	

METAR FMMI 022300Z 04002KT 9999 FEW010 BKN023 18/18 Q1017
           NOSIG=

SA 	02/01/2020 22:30-> 	

METAR FMMI 022230Z 31002KT 9999 FEW010 BKN023 18/18 Q1017
           NOSIG=

SA 	02/01/2020 22:00-> 	

METAR FMMI 022200Z 00000KT 9999 FEW010 BKN023 18/18 Q1017
           NOSIG=

SA 	02/01/2020 21:30-> 	

METAR FMMI 022130Z 20003KT 9999 -RA FEW008 FEW017CB BKN023
           18/18 Q1017 TEMPO 4000 RA=

SA 	02/01/2020 21:00-> 	

METAR FMMI 022100Z 00000KT 9999 -RA FEW008 FEW017CB BKN023
           18/18 Q1018 TEMPO 4000 RA=

SA 	02/01/2020 20:30-> 	

METAR FMMI 022030Z VRB01KT 9999 -RA FEW008 FEW017CB BKN020
           18/18 Q1018 TEMPO 4000 RA=

SA 	02/01/2020 20:00-> 	

METAR FMMI 022000Z 33004KT 270V020 9999 -RA FEW008 FEW017CB
           BKN020 19/18 Q1018 TEMPO 4000 RA=

SA 	02/01/2020 19:30-> 	

METAR FMMI 021930Z 35004KT 9999 -RA FEW008 FEW017CB BKN020
           19/18 Q1019 TEMPO 4000 RA=

SA 	02/01/2020 19:00-> 	

METAR FMMI 021900Z 32007KT 8000 -RA FEW007 SCT017CB BKN020
           19/18 Q1019 NOSIG=

SA 	02/01/2020 18:30-> 	

METAR FMMI 021830Z 34005KT 6000 -RA FEW007 SCT017CB BKN020
           19/19 Q1019 TEMPO 4000 RA=

SA 	02/01/2020 18:00-> 	

METAR FMMI 021800Z 32005KT 9999 -RA FEW007 SCT017CB BKN020
           20/19 Q1019 TEMPO 4000 RA=

SA 	02/01/2020 17:30-> 	

METAR FMMI 021730Z 30003KT 250V330 9999 -RA FEW007 SCT017CB
           BKN020 20/19 Q1018 TEMPO 4000 RA=

SA 	02/01/2020 17:00-> 	

METAR FMMI 021700Z VRB02KT 9999 -RA FEW007 SCT017CB BKN020
           20/19 Q1018 TEMPO 4000 RA=

SA 	02/01/2020 16:30-> 	

METAR FMMI 021630Z 33005KT 9999 FEW008 SCT020 20/19 Q1018
           NOSIG=

SA 	02/01/2020 16:00-> 	

METAR FMMI 021600Z 34005KT 9999 -RA SCT017CB BKN023 20/19
           Q1018 TEMPO 4000 RA=

SA 	02/01/2020 15:30-> 	

METAR FMMI 021530Z 32008KT 300V360 9999 -RA SCT017CB BKN023
           20/18 Q1018 TEMPO 4000 RA=

SA 	02/01/2020 15:00-> 	

METAR FMMI 021500Z 35006KT 9999 -RA SCT017CB BKN023 20/19
           Q1017 TEMPO 4000 RA=

SA 	02/01/2020 14:30-> 	

METAR FMMI 021430Z 35007KT 9999 -TSRA SCT018CB BKN023 BKN036
           20/19 Q1016 TEMPO 4000 TSRA=

SA 	02/01/2020 14:00-> 	

METAR FMMI 021400Z 31005KT 9999 -TSRA SCT018CB BKN023 20/19
           Q1016 TEMPO 4000 TSRA=

SA 	02/01/2020 13:30-> 	

METAR FMMI 021330Z 34006KT 9999 -TSRA SCT018CB BKN023 21/19
           Q1015 TEMPO 4000 TSRA=

SA 	02/01/2020 13:00-> 	

METAR FMMI 021300Z 35010KT 310V020 9999 -TSRA SCT018CB BKN023
           BKN036 21/19 Q1015 TEMPO 4000 TSRA=

SA 	02/01/2020 12:30-> 	

METAR FMMI 021230Z 02005KT 350V050 9999 TS SCT020CB SCT023
           23/20 Q1015 TEMPO 4000 TSRA=

SP 	02/01/2020 12:25-> 	

SPECI FMMI 021225Z 02004KT 350V050 9999 TS SCT020CB SCT023
           23/20 Q1015 TEMPO 4000 TSRA=

SA 	02/01/2020 12:00-> 	

METAR FMMI 021200Z 33007KT 9999 -RA SCT020CB SCT023 22/20
           Q1015 TEMPO 4000 RA=

SA 	02/01/2020 11:30-> 	

METAR FMMI 021130Z 30008KT 280V350 9999 VCSH SCT020 SCT023
           24/19 Q1015 TEMPO 4000 RA=

SA 	02/01/2020 11:00-> 	

METAR FMMI 021100Z 04008KT 340V080 9999 VCSH SCT020 SCT023
           26/18 Q1015 TEMPO 4000 RA=

SA 	02/01/2020 10:30-> 	

METAR FMMI 021030Z VRB05KT 9999 VCSH SCT020 SCT023 25/19
           Q1016 TEMPO 4000 RA=

SA 	02/01/2020 10:00-> 	

METAR FMMI 021000Z 01006KT 340V050 9999VCSH SCT017 SCT020
           23/19 Q1016 TEMPO 4000 RA=

SA 	02/01/2020 09:30-> 	

METAR FMMI 020930Z 01009KT 340V060 9999 SCT017 SCT020 23/18
           Q1017 TEMPO 4000 RA=

SA 	02/01/2020 09:00-> 	

METAR FMMI 020900Z 04010KT 9999 SCT017 SCT020 24/19 Q1017
           TEMPO 4000 RA=

SP 	02/01/2020 08:55-> 	

SPECI FMMI 020855Z 05010KT 9999 SCT017 SCT020 24/19 Q1017
           TEMPO 4000 RA=

SA 	02/01/2020 08:30-> 	

METAR FMMI 020830Z 35006KT 330V030 9999 SCT017 SCT020 23/19
           Q1017 TEMPO 4000 RA=

SA 	02/01/2020 08:00-> 	

METAR FMMI 020800Z 01006KT 340V070 9999 SCT017 SCT020 23/19
           Q1017 NOSIG=

SA 	02/01/2020 07:30-> 	

METAR FMMI 020730Z 05007KT 010V080 9999 SCT017 BKN020 23/18
           Q1017 NOSIG=

SA 	02/01/2020 07:00-> 	

METAR FMMI 020700Z 03007KT 360V070 9999 SCT017 BKN020 22/18
           Q1017 NOSIG=

SA 	02/01/2020 06:30-> 	

METAR FMMI 020630Z 06006KT 360V080 9999 SCT017 BKN020 22/18
           Q1017 NOSIG=

SA 	02/01/2020 06:00-> 	

METAR FMMI 020600Z 06006KT 010V090 9999 FEW010 BKN020 22/18
           Q1017 NOSIG=

SA 	02/01/2020 05:30-> 	

METAR FMMI 020530Z 05007KT 9999 FEW010 BKN020 22/18 Q1017
           NOSIG=

SA 	02/01/2020 05:00-> 	

METAR FMMI 020500Z 09007KT 050V120 9999 FEW010 BKN020 22/19
           Q1017 NOSIG=

SA 	02/01/2020 04:30-> 	

METAR FMMI 020430Z 09007KT 9999 FEW004 BKN020 21/19 Q1017
           NOSIG=

SA 	02/01/2020 04:00-> 	

METAR FMMI 020400Z 15004KT 110V180 9999 FEW004 BKN020 19/18
           Q1017 NOSIG=

SA 	02/01/2020 03:30-> 	

METAR FMMI 020330Z 18004KT 9999 FEW004 BKN020 19/18 Q1017
           NOSIG=

SA 	02/01/2020 03:00-> 	

METAR FMMI 020300Z 17004KT 140V210 9999 FEW007 BKN020 19/18
           Q1016 NOSIG=

SA 	02/01/2020 02:30-> 	

METAR FMMI 020230Z 19003KT 9999 FEW007 SCT020 BKN046 18/18
           Q1016 NOSIG=

SA 	02/01/2020 02:00-> 	

METAR FMMI 020200Z 19004KT 9999 FEW007 SCT020 BKN046 18/18
           Q1016 NOSIG=

SA 	02/01/2020 01:30-> 	

METAR FMMI 020130Z 20004KT 9999 FEW017 SCT020 18/18 Q1016
           NOSIG=

SA 	02/01/2020 01:00-> 	

METAR FMMI 020100Z 18003KT 9999 FEW017 SCT020 18/18 Q1015
           NOSIG=

SA 	02/01/2020 00:30-> 	

METAR FMMI 020030Z 14004KT 9999 FEW017 SCT020 18/18 Q1015
           NOSIG=

SA 	02/01/2020 00:00-> 	

METAR FMMI 020000Z 16003KT 8000 -RA FEW010 BKN020 18/18 Q1015
           NOSIG=

SA 	01/01/2020 23:30-> 	

METAR FMMI 012330Z 17003KT 8000 -RA FEW010 BKN020 18/18 Q1015
           NOSIG=

SA 	01/01/2020 23:00-> 	

METAR FMMI 012300Z VRB03KT 8000 -RA FEW010 BKN020 19/18 Q1016
           NOSIG=

SA 	01/01/2020 22:30-> 	

METAR FMMI 012230Z 12007KT 7000 -RA FEW008 BKN020 19/18 Q1016
           NOSIG=

SA 	01/01/2020 22:00-> 	

METAR FMMI 012200Z 10011KT 7000 -RA FEW008 BKN020 19/18 Q1016
           NOSIG=

SA 	01/01/2020 21:30-> 	

METAR FMMI 012130Z 11010KT 7000 -RA FEW008 BKN020 19/18 Q1016
           NOSIG=

SA 	01/01/2020 21:00-> 	

METAR FMMI 012100Z 10010KT 7000 -RA FEW008 BKN020 19/18 Q1016
           NOSIG=

SA 	01/01/2020 20:30-> 	

METAR FMMI 012030Z 04008KT 9999 FEW017 BKN020 19/18 Q1017
           NOSIG=

SA 	01/01/2020 20:00-> 	

METAR FMMI 012000Z 05007KT 9999 FEW017 BKN020 20/18 Q1017
           NOSIG=

SA 	01/01/2020 19:30-> 	

METAR FMMI 011930Z 04006KT 9999 FEW017 BKN020 20/18 Q1017
           NOSIG=

SA 	01/01/2020 19:00-> 	

METAR FMMI 011900Z 03005KT 9999 TS SCT017CB BKN020 20/19
           Q1017 TEMPO 4000 TSRA=

SA 	01/01/2020 18:30-> 	

METAR FMMI 011830Z 04005KT 9999 TS SCT017CB BKN020 20/19
           Q1017 TEMPO 4000 TSRA=

SA 	01/01/2020 18:00-> 	

METAR FMMI 011800Z VRB03KT 9999 TS SCT017CB BKN020 20/19
           Q1016 TEMPO 4000 TSRA=

SA 	01/01/2020 17:30-> 	

METAR FMMI 011730Z 00000KT 9999 TS SCT017CB SCT020 20/19
           Q1016 TEMPO 4000 TSRA=

SA 	01/01/2020 17:00-> 	

METAR FMMI 011700Z VRB02KT 9999 TS SCT017CB SCT020 20/19
           Q1016 TEMPO 4000 TSRA=

SA 	01/01/2020 16:30-> 	

METAR FMMI 011630Z 31003KT 9999 TS SCT017CB SCT020 21/20
           Q1016 TEMPO 4000 TSRA=

SA 	01/01/2020 16:00-> 	

METAR FMMI 011600Z VRB02KT 9999 TS FEW010 SCT017CB BKN020
           21/20 Q1016 TEMPO TSRA=

SA 	01/01/2020 15:30-> 	

METAR FMMI 011530Z VRB01KT 9999 TS FEW010 SCT017CB BKN020
           21/20 Q1015 TEMPO TSRA=

SA 	01/01/2020 15:00-> 	

METAR FMMI 011500Z VRB03KT 9999 TS FEW010 SCT017CB BKN020
           21/19 Q1015 TEMPO TSRA=

SA 	01/01/2020 14:30-> 	

METAR FMMI 011430Z VRB03KT 9999 BKN020CB 21/19 Q1014 NOSIG=

SA 	01/01/2020 14:00-> 	

METAR FMMI 011400Z 09004KT 9999 BKN020CB 20/19 Q1014 NOSIG=

SA 	01/01/2020 13:30-> 	

METAR FMMI 011330Z 06005KT 010V100 8000 -TSRA FEW010 BKN020CB
           20/19 Q1013 NOSIG=

SA 	01/01/2020 13:00-> 	

METAR FMMI 011300Z 34008KT 8000 -TSRA FEW010 BKN020CB 20/19
           Q1013 TEMPO 4000 TSRA=

SA 	01/01/2020 12:30-> 	

METAR FMMI 011230Z 27003KT 220V330 9999 TS FEW010 BKN020CB
           20/19 Q1014 NOSIG=

SA 	01/01/2020 12:00-> 	

METAR FMMI 011200Z VRB05KT 6000 -TSRA FEW010 BKN020CB 19/19
           Q1014 TEMPO 4000 TSRA=

SA 	01/01/2020 11:30-> 	

METAR FMMI 011130Z 03017KT 3500 TSRA FEW010 BKN017CB 19/19
           Q1014 TEMPO 4000=

SP 	01/01/2020 11:20-> 	

SPECI FMMI 011120Z 01020G31KT 330V030 1500 SQ TSRA BKN020CB
           20/19 Q1014 TEMPO 2500=

SP 	01/01/2020 11:14-> 	

SPECI FMMI 011114Z 35022KT 1500 +TSRA BKN020CB 20/19 Q1014
           TEMPO 4000 TSRA=

SP 	01/01/2020 11:10-> 	

SPECI FMMI 011110Z 36018KT 2500 +TSRA BKN020CB 20/19 Q1013
           TEMPO 4000 TSRA=

SP 	01/01/2020 11:02-> 	

SPECI FMMI 011102Z 05015G26KT 4500 TSRA BKN020CB 22/20 Q1012
           TEMPO 2500=

SA 	01/01/2020 11:00-> 	

METAR FMMI 011100Z 05014KT 7000 -TSRA BKN020CB 23/20 Q1014
           TEMPO 4000 TSRA=

SA 	01/01/2020 10:30-> 	

METAR FMMI 011030Z VRB06KT 9999 TS BKN020CB 29/19 Q1013 TEMPO
           4000 TSRA=

SA 	01/01/2020 10:00-> 	

METAR FMMI 011000Z 28005KT 210V360 9999 BKN020TCU 30/20 Q1013
           NOSIG=

SA 	01/01/2020 09:30-> 	

METAR FMMI 010930Z VRB04KT 9999 BKN020 29/19 Q1014 NOSIG=

SA 	01/01/2020 09:00-> 	

METAR FMMI 01000Z VRB04KT 9999 BKN020 28/20 Q1014 NOSIG=

SA 	01/01/2020 08:30-> 	

METAR FMMI 010830Z VRB04KT 9999 BKN020 26/19 Q1015 NOSIG=

SA 	01/01/2020 08:00-> 	

METAR FMMI 010800Z 22004KT 110V250 9999 BKN020 27/20 Q1015
           NOSIG=

SA 	01/01/2020 07:30-> 	

METAR FMMI 010730Z VRB03KT 9999 BKN020 26/20 Q1015 NOSIG=

SA 	01/01/2020 07:00-> 	

METAR FMMI 010700Z 19003KT 080V250 9999 BKN020 25/19 Q1016
           NOSIG=

SA 	01/01/2020 06:30-> 	

METAR FMMI 010630Z 16003KT 110V220 9999 FEW017 25/19 Q1016
           NOSIG=

SA 	01/01/2020 06:00-> 	

METAR FMMI 010600Z VRB03KT 9999 FEW017 24/18 Q1016 NOSIG=

SA 	01/01/2020 05:30-> 	

METAR FMMI 010530Z VRB02KT 9999 FEW017 22/18 Q1016 NOSIG=

SA 	01/01/2020 05:00-> 	

METAR FMMI 010500Z VRB02KT 9999 FEW017 22/17 Q1016 NOSIG=

SA 	01/01/2020 04:30-> 	

METAR FMMI 010430Z 02003KT 340V060 9999 FEW017 21/17 Q1016
           NOSIG=

SA 	01/01/2020 04:00-> 	

METAR FMMI 010400Z VRB03KT 9999 FEW017 19/18 Q1016 NOSIG=

SA 	01/01/2020 03:30-> 	

METAR FMMI 010330Z 02005KT 9999 FEW010 SCT020 18/17 Q1016
           NOSIG=

SA 	01/01/2020 03:00-> 	

METAR FMMI 010300Z VRB01KT 9999 FEW010 SCT020 18/17 Q1016
           NOSIG=

SA 	01/01/2020 02:30-> 	

METAR FMMI 010230Z VRB01KT 9999 FEW017 SCT020 17/17 Q1016
           NOSIG=

SA 	01/01/2020 02:00-> 	

METAR FMMI 010200Z 00000KT 9999 FEW017 SCT020 17/17 Q1015
           NOSIG=

SA 	01/01/2020 01:30-> 	

METAR FMMI 010130Z VRB03KT 9999 FEW017 SCT020 17/17 Q1015
           NOSIG=

SA 	01/01/2020 01:00-> 	

METAR FMMI 010100Z 00000KT 9999 FEW017 SCT020 17/17 Q1015
           NOSIG=


No short TAF reports from FMMI during solicited interval in the database.


large TAF from FMMI, Antananarivo / Ivato (Madagascar). FT 	31/01/2020 23:00-> 	

TAF FMMI 312300Z 0100/0206 13010KT 9999 FEW017 SCT020
         BECMG 0110/0113 FEW020CB SCT023
         BECMG 0119/0121 SCT020=

FT 	31/01/2020 17:00-> 	

TAF FMMI 311700Z 3118/0124 13010KT 9999 FEW020CB SCT023
         BECMG 3119/3122 FEW017 SCT020
         BECMG 0110/0113 FEW020CB SCT023=

FT 	31/01/2020 11:00-> 	

TAF FMMI 311100Z 3112/0118 13008KT 9999 BKN020
         BECMG 3112/3113 FEW017CB BKN020
         BECMG 3118/3120 FEW017 SCT020
         BECMG 0110/0113 FEW017CB BKN020=

FT 	31/01/2020 05:00-> 	

TAF FMMI 310500Z 3106/0112 12010KT 9999 SCT020
         BECMG 3110/3113 FEW020CB SCT023
         BECMG 3118/3120 FEW017 SCT020=

FT 	30/01/2020 23:00-> 	

TAF FMMI 302300Z 3100/0106 10004KT 9999 FEW010 BKN020
         PROB30 TEMPO 3100/3108 4500 RADZ
         BECMG 3110/3113 FEW020CB SCT023
         BECMG 3118/3120 FEW017 SCT020=

FT 	30/01/2020 18:00-> 	

TAF FMMI 301800Z 3018/3124 25008KT 9999 SCT017CB BKN020
         TEMPO 3018/3020 4000 TSRA
         BECMG 3020/3022 FEW010 BKN020
         PROB30 TEMPO 3100/3108 4500 RADZ
         BECMG 3110/3113 FEW020CB SCT023=

FT 	30/01/2020 11:00-> 	

TAF FMMI 301100Z 3012/3118 06005KT 9999 SCT020CB SCT023
         PROB40 TEMPO 3014/3020 34015KT 4000 TSRA
         BECMG 3020/3022 FEW010 BKN020
         BECMG 3110/3113 FEW020CB SCT023=

FT 	30/01/2020 05:00-> 	

TAF FMMI 300500Z 3006/3112 09005KT 9999 FEW017 BKN020
         BECMG 3008/3011 SCT020CB
         PROB40 TEMPO 3014/3024 VRB15KT 4000 TSRA
         BECMG 3020/3022 FEW010 BKN020=

FT 	29/01/2020 23:00-> 	

TAF FMMI 292300Z 3000/3106 10004KT 9999 FEW017 BKN020
         BECMG 3008/3011 BKN020CB
         PROB40 TEMPO 3012/3021 VRB15KT 4000 TSRA
         BECMG 3020/3022 FEW010 BKN020=

FT 	29/01/2020 17:00-> 	

TAF FMMI 291700Z 2918/3024 10004KT 9999 FEW017CB BKN020
         PROB40 TEMPO 2918/2921 4500 TSRA
         BECMG 2920/2922 FEW010 BKN020
         PROB30 TEMPO 3000/3005 4500 RA
         BECMG 3008/3011 BKN020CB
         PROB40 TEMPO 3012/3021 VRB15KT 4000 TSRA
         BECMG 3020/3022 FEW010 BKN020=

FT 	29/01/2020 11:00-> 	

TAF FMMI 291100Z 2912/3018 VRB04KT 9999 BKN019CB
         PROB40 TEMPO 2913/2921 VRB15KT 4000 TSRA
         BECMG 2920/2922 FEW010 BKN020
         BECMG 3008/3011 BKN020CB
         PROB40 TEMPO 3012/3018 VRB15KT 4000 TSRA=

FT 	29/01/2020 05:00-> 	

TAF FMMI 290500Z 2906/3012 06004KT 9999 FEW017 SCT020
         BECMG 2908/2910 34010KT BKN020CB
         PROB40 TEMPO 2912/2921 4000 TSRA
         BECMG 2920/2922 12004KT FEW010 BKN020
         BECMG 3008/3010 06010KT SCT020CB
         PROB40 TEMPO 3010/3012 4000 TSRA=

FT 	28/01/2020 23:00-> 	

TAF FMMI 282300Z 2900/3006 VRB03KT 9999 FEW017 SCT020
         PROB30 2902/2906 3000 BR BKN007
         BECMG 2908/2910 32013KT SCT020CB SCT023
         TEMPO 2913/2921 4000 TSRA
         BECMG 2920/2922 12003KT FEW007 SCT017 BKN020=

FT 	28/01/2020 17:00-> 	

TAF FMMI 281700Z 2818/2924 VRB03KT 9999 SCT017CB SCT020
         TEMPO 2818/2821 4500 TSRA
         BECMG 2821/2823 FEW017 SCT020
         PROB40 2902/2906 1500 BR BKN006
         BECMG 2908/2910 32013KT SCT020CB SCT023
         TEMPO 2912/2921 4000 TSRA=

FT 	28/01/2020 11:00-> 	

TAF FMMI 281100Z 2812/2918 VRB04KT 9999 SCT020 SCT023
         BECMG 2813/2815 SCT020CB
         PROB30 TEMPO 2815/2820 4500 TSRA
         BECMG 2818/2820 FEW017 BKN020
         PROB30 TEMPO 2820/2903 4500 DZRA
         BECMG 2908/2910 SCT020CB
         PROB40 TEMPO 2912/2918 4000 TSRA=

FT 	28/01/2020 05:00-> 	

TAF FMMI 280500Z 2806/2912 06004KT 9999 FEW017 BKN020
         BECMG 2808/2811 SCT017CB SCT023
         PROB40 TEMPO 2813/2822 VRB15G25KT 4000 TSRA
         BECMG 2821/2824 FEW017 BKN020
         PROB40 2902/2906 1500 BR BKN006=

FT 	27/01/2020 23:00-> 	

TAF FMMI 272300Z 2800/2906 VRB05KT 9999 FEW007 BKN020
         BECMG 2808/2811 SCT017CB SCT020
         PROB40 TEMPO 2812/2822 VRB15G25KT 4000 TSRA
         BECMG 2821/2824 FEW017 BKN020=

FT 	27/01/2020 17:00-> 	

TAF FMMI 271700Z 2718/2824 VRB05KT 9999 SCT017CB BKN020
         PROB30 TEMPO 2718/2721 4500 RA
         BECMG 2718/2721 FEW007 BKN020
         BECMG 2808/2811 SCT017CB SCT020
         PROB40 TEMPO 2812/2822 VRB15G25KT 4000 TSRA=

FT 	27/01/2020 11:00-> 	

TAF FMMI 271100Z 2712/2818 VRB03KT 9999 SCT017CB BKN020
         PROB30 TEMPO 2712/2718 4500 RA
         BECMG 2718/2721 FEW007 BKN020
         BECMG 2810/2812 32013KT SCT020CB SCT023
         PROB40 TEMPO 2813/2818 4500 TSRA=

FT 	27/01/2020 05:00-> 	

TAF FMMI 270500Z 2706/2812 VRB05KT 9999 FEW017 BKN020
         BECMG 2708/2712 SCT017CB BKN020
         PROB30 TEMPO 2710/2722 4000 SHRA
         BECMG 2718/2721 FEW010 BKN020=

FT 	26/01/2020 23:00-> 	

TAF FMMI 262300Z 2700/2806 12008KT 9999 FEW010 BKN020
         PROB30 TEMPO 2700/2705 4000 RADZ
         BECMG 2708/2711 SCT017CB BKN020
         PROB40 TEMPO 2708/2716 4000 TSRA
         BECMG 2718/2721 FEW010 BKN020
         PROB30 TEMPO 2722/2803 4500 RADZ=

FT 	26/01/2020 17:00-> 	

TAF FMMI 261700Z 2618/2724 12008KT 9999 FEW010 BKN020
         PROB40 TEMPO 2618/2705 4000 RADZ
         BECMG 2708/2711 SCT017CB BKN020
         PROB40 TEMPO 2708/2722 4000 TSRA=

FT 	26/01/2020 11:00-> 	

TAF FMMI 261100Z 2612/2718 12013KT 9999 FEW017CB BKN020
         PROB40 TEMPO 2612/2705 4000 SHRA
         BECMG 2618/2621 VRB03KT FEW010 BKN020
         BECMG 2708/2711 SCT017CB BKN020
         PROB40 TEMPO 2711/2718 VRB15KT 4000 TSRA=

FT 	26/01/2020 05:00-> 	

TAF FMMI 260500Z 2606/2712 14008KT 9999 FEW010 BKN020
         BECMG 2610/2613 FEW017CB BKN020
         PROB30 TEMPO 2614/2705 4000 RA
         BECMG 2618/2621 FEW017 BKN020=

FT 	25/01/2020 23:00-> 	

TAF FMMI 252300Z 2600/2706 14010KT 9999 FEW010 BKN020
         BECMG 2610/2613 FEW017CB BKN020
         PROB30 TEMPO 2615/2624 4000 RA
         BECMG 2618/2621 FEW017 BKN020=

FT 	25/01/2020 17:00-> 	

TAF FMMI 251700Z 2518/2624 14010KT 9999 FEW010 BKN020
         BECMG 2610/2613 SCT017CB SCT020
         BECMG 2618/2621 FEW017 BKN020=

FT 	25/01/2020 11:00-> 	

TAF FMMI 251100Z 2512/2618 16010KT 9999 FEW007 BKN020
         PROB30 TEMPO 2512/2519 4500 RADZ
         PROB40 TEMPO 2612/2617 4800 RADZ=

FT 	25/01/2020 05:00-> 	

TAF FMMI 250500Z 2506/2612 14008KT 9999 FEW013 BKN020
         PROB30 TEMPO 2506/2518 4500 RADZ=

FT 	24/01/2020 23:00-> 	

TAF FMMI 242300Z 2500/2606 16008KT 9999 FEW010 BKN020
         PROB30 TEMPO 2500/2503 4500 RADZ
         PROB30 TEMPO 2506/2512 4500 RADZ=

FT 	24/01/2020 17:00-> 	

TAF FMMI 241700Z 2418/2524 16008KT 9999 FEW010 BKN020
         PROB30 TEMPO 2418/2503 4500 RADZ=

FT 	24/01/2020 11:00-> 	

TAF FMMI 241100Z 2412/2518 VRB04KT 9999 SCT017CB SCT020
         PROB40 TEMPO 2415/2421 4000 RA FEW010 BKN020
         PROB30 TEMPO 2421/2503 4500 RADZ=

FT 	24/01/2020 05:00-> 	

TAF FMMI 240500Z 2406/2512 14006KT 9999 FEW017 BKN020
         PROB30 TEMPO 2406/2408 4500 RADZ
         BECMG 2408/2410 30010KT SCT020CB SCT023
         PROB40 TEMPO 2414/2421 4000 TSRA
         BECMG 2418/2420 16006KT FEW017 BKN020
         PROB30 TEMPO 2422/2503 4500 RADZ=

FT 	23/01/2020 23:00-> 	

TAF FMMI 232300Z 2400/2506 VRB02KT 9999 FEW007 BKN020
         TEMPO 2400/2403 4500 RA
         BECMG 2408/2410 10012KT SCT020CB SCT023
         PROB40 TEMPO 2410/2420 4500 TSRA
         BECMG 2420/2422 16005KT FEW007 BKN020=

FT 	23/01/2020 17:00-> 	

TAF FMMI 231700Z 2318/2424 VRB02KT 9000 SCT007 BKN020
         TEMPO 2318/2403 4500 RA
         BECMG 2408/2410 10012KT SCT020CB SCT023
         PROB40 TEMPO 2410/2421 4500 TSRA=

FT 	23/01/2020 15:15-> 	

TAF AMD FMMI 231515Z 2316/2418 26006KT 9000 SCT010 BKN020
         TEMPO 2316/2403 4000 RADZ
         BECMG 2408/2410 SCT020CB
         PROB40 TEMPO 2410/2418 4000 TSRA=

FT 	23/01/2020 11:00-> 	

TAF FMMI 231100Z 2312/2418 16008KT 9000 SCT010 BKN020
         TEMPO 2312/2403 4000 RADZ
         BECMG 2408/2410 10010KT SCT020CB
         PROB40 TEMPO 2410/2418 4000 TSRA=

FT 	23/01/2020 05:00-> 	

TAF FMMI 230500Z 2306/2412 13010KT 9000 SCT010 BKN020
         TEMPO 2306/2324 4000 RA=

FT 	22/01/2020 23:00-> 	

TAF FMMI 222300Z 2300/2406 13006KT 9000 FEW010 BKN020
         TEMPO 2300/2324 4000 RA=

FT 	22/01/2020 17:00-> 	

TAF FMMI 221700Z 2218/2324 10008KT 9000 FEW010 BKN020
         TEMPO 2218/2324 4000 RA=

FT 	22/01/2020 11:00-> 	

TAF FMMI 221100Z 2212/2318 11008KT 8000 SCT010 BKN020
         TEMPO 2212/2318 4000 RA=

FT 	22/01/2020 05:00-> 	

TAF FMMI 220500Z 2206/2312 12005KT 8000 SCT010 BKN020
         TEMPO 2206/2312 3500 RA=

FT 	21/01/2020 23:00-> 	

TAF FMMI 212300Z 2200/2306 10008KT 8000 FEW007 BKN017
         TEMPO 2200/2306 3500 RA=

FT 	21/01/2020 17:00-> 	

TAF FMMI 211700Z 2118/2224 10008KT 8000 FEW007 FEW017CB BKN017
          TEMPO 2118/2224 3500 RA=

FT 	21/01/2020 11:00-> 	

TAF FMMI 211100Z 2112/2218 10008KT 8000 SCT008 BKN020
         TEMPO 2112/2218 3500 RA=

FT 	21/01/2020 05:00-> 	

TAF FMMI 210500Z 2106/2212 04007KT 9999 FEW010 SCT016 BKN020
         TEMPO 2106/2212 3500 RA
         BECMG 2107/2110 FEW010 SCT017CB BKN020
         PROB40 TEMPO 2112/2116 TS=

FT 	20/01/2020 23:00-> 	

TAF FMMI 202300Z 2100/2206 VRB05KT 9999 FEW010 BKN020
         PROB30 TEMPO 2100/2106 4500 RA
         TEMPO 2106/2206 3500 RA
         BECMG 2107/2110 FEW010 SCT017CB BKN020=

FT 	20/01/2020 17:00-> 	

TAF FMMI 201700Z 2018/2124 VRB05KT 9999 FEW010 SCT016 BKN020
         PROB40 TEMPO 2018/2103 3500 RA
         PROB30 TEMPO 2103/2106 4500 RA
         TEMPO 2106/2124 3500 RA=

FT 	20/01/2020 11:00-> 	

TAF FMMI 201100Z 2012/2118 30006KT 9999 FEW010 BKN020CB
         TEMPO 2012/2023 VRB16KT 3000 TSRA
         BECMG 2020/2023 FEW010 BKN020
         PROB40 TEMPO 2023/2118 4000 RA
         BECMG 2109/2112 FEW010 SCT017CB BKN020=

FT 	20/01/2020 05:00-> 	

TAF FMMI 200500Z 2006/2112 32006KT 9999 FEW010 BKN020
         PROB30 TEMPO 2006/2010 4500 RA
         BECMG 2008/2010 FEW010 BKN020CB
         TEMPO 2010/2023 VRB16KT 3000 TSRA
         BECMG 2020/2023 FEW010 BKN020
         PROB40 TEMPO 2023/2112 4000 RA=

FT 	19/01/2020 23:00-> 	

TAF FMMI 192300Z 2000/2106 32008KT 9999 FEW010 BKN020
         PROB40 TEMPO 2006/2011 4500 RA
         BECMG 2008/2010 BKN020CB
         TEMPO 2012/2020 3500 TSRA
         BECMG 2018/2020 FEW010 BKN020
         TEMPO 2020/2104 4000 RA=

FT 	19/01/2020 17:59-> 	

TAF COR FMMI 191759Z 1918/2024 32008KT 9999 FEW017CB BKN020
         TEMPO 1918/2004 4000 RA
         BECMG 1920/1922 FEW010 BKN020
         PROB40 TEMPO 2006/2011 4500 RA
         BECMG 2008/2010 BKN020CB
         TEMPO 2011/2020 3500 TSRA
         BECMG 2018/2020 FEW010 BKN020
         TEMPO 2020/2024 4000 RA=

FT 	19/01/2020 17:00-> 	

TAF FMMI 191700Z 1918/2024 32008KT 9999 SCT017CB BKN020
         TEMPO 1918/2004 4000 RA
         BECMG 1918/1921 FEW010 BKN020
         BECMG 2008/2010 BKN020CB
         TEMPO 2012/2020 3500 TSRA
         BECMG 2018/2020 FEW010 BKN020
         TEMPO 2020/2024 4000 RA=

FT 	19/01/2020 11:00-> 	

TAF FMMI 191100Z 1912/2018 32010KT 9999 SCT017CB BKN020
         TEMPO 1912/1920 3500 TSRA
         BECMG 1918/1921 FEW010 BKN020
         TEMPO 1920/2005 4500 RA
         BECMG 2008/2011 BKN020CB
         TEMPO 2008/2018 3500 TSRA=

FT 	19/01/2020 05:00-> 	

TAF FMMI 190500Z 1906/2012 30008KT 9999 FEW017 BKN020
         BECMG 1908/1910 SCT020CB SCT023
         TEMPO 1909/1920 4000 TSRA
         BECMG 1918/1920 FEW010 BKN020
         TEMPO 1920/2004 4500 RA
         BECMG 2006/2008 BKN020CB
         TEMPO 2008/2012 3500 TSRA=

FT 	18/01/2020 23:00-> 	

TAF FMMI 182300Z 1900/2006 VRB03KT 9999 FEW007 BKN020
         TEMPO 1900/1904 4800 RA
         BECMG 1908/1910 32013KT SCT020CB SCT023
         TEMPO 1909/2006 4500 RA
         TEMPO 1912/1920 TS
         BECMG 1920/1922 14005KT SCT007 BKN020=

FT 	18/01/2020 17:00-> 	

TAF FMMI 181700Z 1818/1924 VRB03KT 9999 SCT017CB SCT020
         TEMPO 1818/1822 4000 TSRA
         BECMG 1820/1823 FEW007 BKN020
         BECMG 1908/1910 32013KT SCT020CB SCT023
         TEMPO 1909/1921 4500 RA
         TEMPO 1912/1918 TS=

FT 	18/01/2020 11:00-> 	

TAF FMMI 181100Z 1812/1918 34010KT 9999 BKN020CB
         TEMPO 1812/1821 3000 TSRA
         BECMG 1820/1822 04006KT FEW017 BKN020
         BECMG 1908/1910 32010KT BKN020CB
         TEMPO 1910/1918 4000 TSRA=

FT 	18/01/2020 05:00-> 	

TAF FMMI 180500Z 1806/1912 VRB03KT 9999 FEW007 BKN020
         BECMG 1808/1811 30013KT FEW007 SCT017CB BKN023
         TEMPO 1811/1821 4500 TSRA
         BECMG 1820/1822 06005KT FEW007 BKN020
         TEMPO 1900/1906 4500 RA=

FT 	17/01/2020 23:00-> 	

TAF FMMI 172300Z 1800/1906 VRB03KT 9999 FEW010 BKN020
         PROB40 TEMPO 1800/1805 4500 RA
         BECMG 1808/1811 30013KT SCT020CB SCT023
         TEMPO 1811/1824 4500 TSRA
         BECMG 1900/1903 FEW010 BKN020
         PROB40 TEMPO 1900/1904 4500 RA=

FT 	17/01/2020 17:00-> 	

TAF FMMI 171700Z 1718/1824 VRB03KT 9999 FEW017CB BKN020
         PROB40 TEMPO 1718/1723 4000 TSRA
         BECMG 1721/1724 FEW010 BKN020
         TEMPO 1800/1805 4500 RA
         BECMG 1808/1811 30013KT SCT020CB SCT023
         TEMPO 1811/1824 4500 TSRA=

FT 	17/01/2020 11:00-> 	

TAF FMMI 171100Z 1712/1818 32005KT 9999 SCT017CB BKN020
         PROB40 TEMPO 1712/1722 VRB15KT 4000 TSRA
         BECMG 1721/1724 FEW010 BKN020
         PROB30 TEMPO 1800/1810 4500 -RA
         BECMG 1810/1812 SCT020CB SCT023
         TEMPO 1813/1818 4500 TSRA=

FT 	17/01/2020 05:00-> 	

TAF FMMI 170500Z 1706/1812 VRB05KT 9999 FEW010 SCT017 BKN023
         PROB30 TEMPO 1706/1710 4500 -RA
         BECMG 1708/1711 SCT017CB BKN020
         PROB40 TEMPO 1711/1722 VRB15KT 4000 TSRA
         BECMG 1721/1724 FEW010 BKN020
         PROB30 TEMPO 1800/1810 4500 -RA=

FT 	16/01/2020 23:00-> 	

TAF FMMI 162300Z 1700/1806 VRB05KT 9999 FEW010 BKN020
         BECMG 1708/1711 SCT017CB BKN020
         PROB40 TEMPO 1711/1722 VRB15KT 4000 TSRA
         BECMG 1721/1724 FEW010 BKN020=

FT 	16/01/2020 17:00-> 	

TAF FMMI 161700Z 1618/1724 VRB05KT 9999 SCT017CB BKN020
         PROB30 TEMPO 1618/1621 4000 TSRA
         BECMG 1620/1623 FEW017 BKN020
         BECMG 1708/1711 SCT017CB BKN020
         PROB30 TEMPO 1710/1713 4500 SHRA
         PROB40 TEMPO 1713/1721 VRB15KT 4000 TSRA=

FT 	16/01/2020 11:00-> 	

TAF FMMI 161100Z 1612/1718 12010KT 9999 SCT017CB BKN020
         PROB40 TEMPO 1613/1622 4000 TSRA
         BECMG 1619/1622 00000KT FEW007 BKN020
         PROB30 TEMPO 1622/1708 RA
         BECMG 1710/1712 SCT017CB=

FT 	16/01/2020 05:00-> 	

TAF FMMI 160500Z 1606/1712 10008KT 9999 FEW017 BKN020
         BECMG 1608/1611 SCT017CB BKN020
         PROB40 TEMPO 1613/1620 4000 TSRA
         BECMG 1619/1622 FEW007 BKN020=

FT 	15/01/2020 23:00-> 	

TAF FMMI 152300Z 1600/1706 10008KT 9999 FEW017 BKN020
         BECMG 1608/1611 SCT017CB BKN020
         PROB40 TEMPO 1613/1620 4000 TSRA
         BECMG 1619/1622 FEW007 BKN020=

FT 	15/01/2020 17:00-> 	

TAF FMMI 151700Z 1518/1624 10008KT 9999 SCT020CB
         PROB30 TEMPO 1518/1520 TS
         BECMG 1519/1521 FEW017 BKN020
         BECMG 1608/1611 SCT017CB BKN020
         PROB40 TEMPO 1613/1620 4000 TSRA
         BECMG 1619/1622 FEW007 BKN020=

FT 	15/01/2020 11:00-> 	

TAF FMMI 151100Z 1512/1618 10008KT 9999 BKN020CB
         PROB30 TEMPO 1514/1520 4000 TSRA
         BECMG 1519/1521 FEW017 BKN020
         BECMG 1608/1611 SCT017CB BKN020
         PROB40 TEMPO 1613/1618 4000 TSRA=

FT 	15/01/2020 05:00-> 	

TAF FMMI 150500Z 1506/1612 12008KT 9999 FEW017 SCT020
         BECMG 1509/1512 SCT020CB
         PROB30 TEMPO 1515/1520 4000 TSRA
         BECMG 1519/1522 FEW007 BKN020=

FT 	14/01/2020 23:00-> 	

TAF FMMI 142300Z 1500/1606 12006KT 9999 FEW017 BKN020
         BECMG 1509/1512 FEW020CB SCT023
         PROB30 TEMPO 1516/1520 4500 TSRA
         BECMG 1518/1520 FEW017 BKN020=

FT 	14/01/2020 17:00-> 	

TAF FMMI 141700Z 1418/1524 12006KT 9999 FEW017CB BKN020
         PROB40 TEMPO 1418/1421 4000 TSRA
         BECMG 1420/1422 FEW010 BKN020
         PROB30 TEMPO 1421/1424 4500 RA
         BECMG 1509/1512 SCT020CB
         PROB30 TEMPO 1515/1520 4500 TSRA
         BECMG 1518/1520 FEW017 BKN020=

FT 	14/01/2020 11:00-> 	

TAF FMMI 141100Z 1412/1518 08008KT 9999 BKN020CB
         PROB40 TEMPO 1414/1422 VRB18KT 3500 TSRA
         BECMG 1421/1423 FEW017 BKN020
         BECMG 1509/1512 BKN020CB=

FT 	14/01/2020 05:00-> 	

TAF FMMI 140500Z 1406/1512 10008KT 9999 SCT017 SCT020
         BECMG 1408/1411 SCT020CB
         TEMPO 1414/1420 16015G25KT 3000 TSRA
         BECMG 1420/1422 FEW010 BKN020
         PROB30 TEMPO 1421/1424 4500 RA
         BECMG 1508/1510 SCT020CB=

FT 	13/01/2020 23:00-> 	

TAF FMMI 132300Z 1400/1506 08007KT 9999 FEW010 BKN020
         BECMG 1408/1411 SCT017CB SCT020
         TEMPO 1410/1420 16015G25KT 3000 TSRA
         BECMG 1420/1422 FEW010 BKN020=

FT 	13/01/2020 17:00-> 	

TAF FMMI 131700Z 1318/1424 08010KT 9999 FEW008 SCT017CB BKN020
          PROB40
         TEMPO 1318/1321 4500 TSRA
         BECMG 1321/1323 14004KT FEW017 BKN020
         PROB30 TEMPO 1321/1402 4500 RA
         BECMG 1408/1411 08010KT SCT017CB SCT020
         PROB40 TEMPO 1410/1420 VRB20KT 3000 TSRA=

FT 	13/01/2020 11:00-> 	

TAF FMMI 131100Z 1312/1418 08014KT 9999 BKN020CB
         PROB40 TEMPO 1312/1321 4000 TSRA
         BECMG 1320/1322 10004KT FEW017 BKN020
         PROB30 TEMPO 1321/1402 4500 RA
         BECMG 1408/1411 10014KT SCT017CB SCT020
         PROB40 TEMPO 1412/1418 4000 TSRA=

FT 	13/01/2020 05:00-> 	

TAF FMMI 130500Z 1306/1412 08006KT 9999 SCT020
         BECMG 1308/1311 SCT017CB SCT020
         PROB40 TEMPO 1312/1320 VRB16KT 4000 TSRA
         BECMG 1320/1322 FEW017 BKN020
         BECMG 1408/1411 SCT017CB SCT020=

FT 	12/01/2020 23:00-> 	

TAF FMMI 122300Z 1300/1406 08006KT 9999 FEW017 SCT020
         BECMG 1310/1312 FEW017CB SCT020
         PROB30 TEMPO 1314/1324 4500 TSRA
         BECMG 1320/1322 FEW017 BKN020=

FT 	12/01/2020 17:00-> 	

TAF FMMI 121700Z 1218/1324 10010KT 9999 FEW017CB SCT020
         TEMPO 1218/1220 TS
         BECMG 1220/1222 FEW017 SCT020
         BECMG 1310/1312 FEW017CB SCT020
         PROB30 TEMPO 1314/1324 4500 TSRA=

FT 	12/01/2020 11:00-> 	

TAF FMMI 121100Z 1212/1318 12008KT 9999 FEW020CB SCT023
         PROB30 TEMPO 1215/1219 TS
         BECMG 1219/1221 FEW017 BKN020
         BECMG 1309/1312 SCT017CB SCT020
         PROB40 TEMPO 1313/1318 VRB18KT 4000 TSRA=

FT 	12/01/2020 05:00-> 	

TAF FMMI 120500Z 1206/1312 12005KT 9999 FEW017 SCT020
         BECMG 1210/1212 12015KT FEW017CB SCT020
         PROB30 TEMPO 1216/1221 4500 TSRA
         BECMG 1219/1221 VRB03KT FEW017 BKN020=

FT 	11/01/2020 23:00-> 	

TAF FMMI 112300Z 1200/1306 VRB03KT 9999 FEW017 BKN020
         BECMG 1210/1212 FEW017CB SCT020
         BECMG 1211/1214 12013KT
         PROB30 TEMPO 1214/1219 TS
         BECMG 1219/1221 VRB03KT FEW017 BKN020=

FT 	11/01/2020 17:00-> 	

TAF FMMI 111700Z 1118/1224 VRB06KT 9999 FEW017 SCT020
         BECMG 1210/1212 FEW017CB SCT020
         PROB30 TEMPO 1214/1219 TS
         BECMG 1219/1221 FEW017 BKN020=

FT 	11/01/2020 11:00-> 	

TAF FMMI 111100Z 1112/1218 10008KT 9999 FEW023CB
         BECMG 1118/1120 FEW017 SCT020=

FT 	11/01/2020 05:00-> 	

TAF FMMI 110500Z 1106/1212 10008KT 9999 FEW020
         BECMG 1110/1113 FEW023CB
         BECMG 1118/1120 FEW017 SCT020=

FT 	10/01/2020 23:00-> 	

TAF FMMI 102300Z 1100/1206 10008KT 9999 FEW007 SCT020
         BECMG 1110/1112 SCT020CB
         BECMG 1118/1120 FEW007 BKN020=

FT 	10/01/2020 17:00-> 	

TAF FMMI 101700Z 1018/1124 14008KT 9999 FEW017CB
         BECMG 1020/1022 FEW007 BKN020
         BECMG 1110/1112 SCT020CB=

FT 	10/01/2020 11:00-> 	

TAF FMMI 101100Z 1012/1118 14008KT 9999 SCT020CB SCT023
         PROB30 TEMPO 1016/1021 4500 TSRA
         BECMG 1020/1023 FEW017 SCT020
         BECMG 1110/1113 SCT023CB=

FT 	10/01/2020 05:00-> 	

TAF FMMI 100500Z 1006/1112 14010KT 9999 SCT017 BKN020
         BECMG 1009/1011 SCT020CB SCT023
         PROB30 TEMPO 1015/1022 4500 TSRA
         BECMG 1020/1023 FEW007 BKN020
         TEMPO 1023/1103 4500 DZRA=

FT 	09/01/2020 23:00-> 	

TAF FMMI 092300Z 1000/1106 12008KT 9999 FEW017 BKN020
         BECMG 1008/1010 SCT020CB
         PROB30 TEMPO 1015/1022 4500 TSRA
         BECMG 1020/1022 FEW017 BKN020=

FT 	09/01/2020 17:00-> 	

TAF FMMI 091700Z 0918/1024 12008KT 9999 FEW017CB SCT020
         BECMG 0920/0922 FEW017 BKN020
         BECMG 1008/1010 SCT020CB
         PROB30 TEMPO 1015/1022 4500 TSRA
         BECMG 1020/1022 FEW017 BKN020=

FT 	09/01/2020 11:00-> 	

TAF FMMI 091100Z 0912/1018 13010KT 9999 BKN017CB
         PROB40 TEMPO 0912/0920 4000 TSRA
         BECMG 0920/0922 FEW010 BKN020
         BECMG 1008/1010 SCT020CB
         TEMPO 1014/1018 4500 TSRA=

FT 	09/01/2020 05:00-> 	

TAF FMMI 090500Z 0906/1012 12008KT 9999 SCT017 SCT020
         BECMG 0908/0911 SCT017CB SCT020
         PROB30 TEMPO 0912/0920 4000 TSRA
         BECMG 0920/0922 FEW010 BKN020
         BECMG 1008/1010 SCT020CB=

FT 	08/01/2020 23:00-> 	

TAF FMMI 082300Z 0900/1006 10005KT 9999 FEW010 BKN020
         BECMG 0908/0911 SCT017CB SCT020
         PROB30 TEMPO 0910/0918 VRB15KT 4000 TSRA
         BECMG 0918/0922 FEW010 BKN020=

FT 	08/01/2020 17:00-> 	

TAF FMMI 081700Z 0818/0924 06006KT 9999 FEW010 SCT017CB BKN020
          PROB40
         TEMPO 0818/0821 4000 TSRA
         BECMG 0820/0823 FEW010 BKN020
         PROB30 TEMPO 0821/0902 4500 RA
         BECMG 0908/0911 SCT017CB SCT020
         PROB30 TEMPO 0910/0918 VRB16KT 4000 TSRA=

FT 	08/01/2020 11:00-> 	

TAF FMMI 081100Z 0812/0918 VRB05KT 9999 SCT020CB SCT023
         PROB40 TEMPO 0812/0821 4000 TSRA
         BECMG 0820/0823 FEW010 BKN020
         PROB40 TEMPO 0821/0902 4500 RA
         BECMG 0908/0910 SCT017CB SCT020
         PROB40 TEMPO 0911/0918 4000 TSRA=

FT 	08/01/2020 05:00-> 	

TAF FMMI 080500Z 0806/0912 VRB05KT 9999 SCT017 SCT020
         BECMG 0808/0811 SCT017CB BKN020
         TEMPO 0810/0820 VRB15G25KT 3000 TSRA
         BECMG 0820/0823 FEW010 BKN020
         PROB30 TEMPO 0820/0901 4500 RA
         BECMG 0908/0911 SCT017CB SCT020=

FT 	07/01/2020 23:00-> 	

TAF FMMI 072300Z 0800/0906 VRB05KT 9999 FEW010 BKN020
         BECMG 0808/0811 SCT017CB BKN020
         TEMPO 0810/0821 VRB15KT 4000 TSRA
         BECMG 0820/0823 FEW009 BKN020=

FT 	07/01/2020 17:00-> 	

TAF FMMI 071700Z 0718/0824 VRB05KT 9999 SCT017CB BKN020
         TEMPO 0718/0722 VRB15KT 4000 TSRA
         BECMG 0720/0723 FEW009 BKN020
         BECMG 0808/0811 SCT017CB BKN020
         TEMPO 0810/0821 VRB15KT 4000 TSRA
         BECMG 0820/0823 FEW009 BKN020=

FT 	07/01/2020 11:00-> 	

TAF FMMI 071100Z 0712/0818 06005KT 9999 SCT017CB BKN020
         PROB40 TEMPO 0714/0721 VRB15KT 4000 TSRA
         BECMG 0720/0723 FEW017 BKN020
         BECMG 0808/0811 SCT017CB BKN020
         TEMPO 0810/0818 VRB15KT 4000 TSRA=

FT 	07/01/2020 05:00-> 	

TAF FMMI 070500Z 0706/0812 VRB05KT 9999 FEW017 BKN020
         BECMG 0708/0711 SCT017CB BKN020
         PROB40 TEMPO 0714/0721 VRB15KT 4000 TSRA
         BECMG 0720/0723 FEW017 BKN020
         BECMG 0808/0811 SCT017CB BKN020=

FT 	06/01/2020 23:00-> 	

TAF FMMI 062300Z 0700/0806 VRB05KT 9999 FEW017 BKN020
         BECMG 0708/0711 SCT017CB BKN020
         PROB40 TEMPO 0713/0721 VRB15KT 4000 TSRA
         BECMG 0720/0723 FEW017 BKN020=

FT 	06/01/2020 17:00-> 	

TAF FMMI 061700Z 0618/0724 VRB05KT 9999 FEW017CB BKN020
         PROB30 TEMPO 0618/0620 TSRA
         BECMG 0620/0622 FEW017 BKN020
         BECMG 0708/0711 SCT017CB BKN020
         PROB40 TEMPO 0712/0721 VRB15KT 4000 TSRA=

FT 	06/01/2020 11:00-> 	

TAF FMMI 061100Z 0612/0718 11006KT 9999 BKN020CB
         PROB40 TEMPO 0614/0621 4000 TSRA
         BECMG 0620/0622 FEW010 BKN020
         BECMG 0708/0711 BKN020CB
         PROB40 TEMPO 0713/0718 4000 TSRA=

FT 	06/01/2020 05:00-> 	

TAF FMMI 060500Z 0606/0712 VRB05KT 9999 SCT020
         BECMG 0610/0612 SCT020CB
         PROB40 TEMPO 0614/0621 VRB15KT 4000 TSRA
         BECMG 0620/0622 FEW010 BKN020=

FT 	05/01/2020 23:00-> 	

TAF FMMI 052300Z 0600/0706 14005KT 9999 FEW010 BKN020
         BECMG 0609/0611 SCT017CB SCT020
         PROB40 TEMPO 0614/0620 VRB15KT 4000 TSRA
         BECMG 0620/0622 FEW010 BKN020=

FT 	05/01/2020 17:00-> 	

TAF FMMI 051700Z 0518/0624 14005KT 9999 FEW017CB SCT020
         BECMG 0520/0522 FEW010 BKN020
         BECMG 0609/0611 SCT017CB SCT020
         PROB40 TEMPO 0614/0620 VRB15KT 4000 TSRA=

FT 	05/01/2020 11:00-> 	

TAF FMMI 051100Z 0512/0618 VRB05KT 9999 BKN020CB
         TEMPO 0514/0520 VRB15KT 4000 TSRA
         BECMG 0519/0521 FEW010 BKN020
         BECMG 0610/0612 FEW017CB SCT020
         PROB40 TEMPO 0614/0618 VRB15KT 4000 TSRA=

FT 	05/01/2020 05:00-> 	

TAF FMMI 050500Z 0506/0612 16008KT 9999 FEW017 BKN020
         BECMG 0510/0512 SCT020CB SCT023
         TEMPO 0514/0520 4000 TSRA
         BECMG 0518/0520 FEW010 BKN020=

FT 	04/01/2020 23:00-> 	

TAF FMMI 042300Z 0500/0606 17005KT 9999 FEW010 BKN020
         PROB30 TEMPO 0500/0504 4500 -RA
         BECMG 0510/0512 SCT020CB SCT023
         TEMPO 0514/0518 4000 TSRA
         BECMG 0518/0520 FEW010 BKN020=

FT 	04/01/2020 17:00-> 	

TAF FMMI 041700Z 0418/0524 13005KT 9999 SCT017CB BKN020
         PROB40 TEMPO 0418/0424 VRB15KT 4000 TSRA
         BECMG 0420/0423 FEW010 BKN020
         BECMG 0510/0512 SCT020CB SCT023
         TEMPO 0514/0518 4000 TSRA=

FT 	04/01/2020 11:00-> 	

TAF FMMI 041100Z 0412/0518 32005KT 9999 SCT017CB SCT020
         PROB40 TEMPO 0413/0423 VRB15KT 4000 TSRA
         BECMG 0420/0423 FEW010 BKN020
         BECMG 0510/0512 SCT020CB SCT023
         TEMPO 0515/0518 4000 TSRA=

FT 	04/01/2020 05:00-> 	

TAF FMMI 040500Z 0406/0512 VRB05KT 9999 FEW010 SCT020
         BECMG 0409/0412 SCT017CB SCT020
         PROB40 TEMPO 0414/0424 VRB15KT 4000 TSRA
         BECMG 0419/0422 FEW010 BKN020=

FT 	03/01/2020 23:00-> 	

TAF FMMI 032300Z 0400/0506 32008KT 9999 FEW010 BKN020
         PROB30 TEMPO 0400/0406 4000 RA
         BECMG 0409/0412 SCT017CB SCT020
         PROB40 TEMPO 0414/0502 VRB18KT 4000 TSRA
         BECMG 0419/0422 FEW010 BKN020=

FT 	03/01/2020 17:00-> 	

TAF FMMI 031700Z 0318/0424 32008KT 9999 FEW007 SCT017CB BKN020
          TEMPO 0318/0407 4000 RA
         BECMG 0320/0323 FEW007 BKN017
         BECMG 0409/0412 SCT017CB SCT020
         PROB40 TEMPO 0414/0424 VRB18KT 4000 TSRA=

FT 	03/01/2020 11:00-> 	

TAF FMMI 031100Z 0312/0418 32010KT 9999 FEW010 SCT017CB OVC020
          TEMPO 0312/0409 VRB24KT 4500 RA
         BECMG 0319/0322 FEW007 BKN017
         PROB40 TEMPO 0415/0418 4500 RA=

FT 	03/01/2020 05:00-> 	

TAF FMMI 030500Z 0306/0412 32008KT 9999 FEW010 BKN020
         PROB30 TEMPO 0306/0309 4500 RA
         BECMG 0307/0310 SCT017CB BKN020
         TEMPO 0309/0320 VRB18KT 4000 TSRA
         BECMG 0319/0322 FEW007 BKN017
         PROB40 TEMPO 0320/0402 4500 RA=

FT 	02/01/2020 23:00-> 	

TAF FMMI 022300Z 0300/0406 34005KT 9999 FEW007 BKN020
         PROB30 TEMPO 0300/0309 4500 RA
         BECMG 0307/0310 SCT017CB BKN020
         PROB40 TEMPO 0309/0322 VRB15KT 4000 TSRA
         BECMG 0319/0322 FEW007 BKN017=

FT 	02/01/2020 17:00-> 	

TAF FMMI 021700Z 0218/0324 VRB05KT 9999 SCT017CB BKN020
         PROB40 TEMPO 0218/0222 VRB15KT 3500 TSRA
         BECMG 0221/0224 FEW007 BKN017
         PROB30 TEMPO 0222/0309 4500 RA
         BECMG 0307/0310 SCT017CB BKN020
         PROB40 TEMPO 0309/0321 VRB15KT 4000 TSRA=

FT 	02/01/2020 11:00-> 	

TAF FMMI 021100Z 0212/0318 02007KT 9999 FEW010 SCT017CB BKN020
          TEMPO 0212/0222 VRB17KT 3000 TSRA
         BECMG 0221/0224 FEW007 BKN017
         PROB30 TEMPO 0300/0305 4000 RA
         BECMG 0308/0311 SCT017CB BKN020
         PROB40 TEMPO 0309/0318 VRB18KT 4000 TSRA=

FT 	02/01/2020 05:00-> 	

TAF FMMI 020500Z 0206/0312 VRB05KT 9999 FEW010 BKN017
         BECMG 0208/0210 FEW010 BKN017CB
         TEMPO 0210/0222 VRB15G25KT 3000 TSRA
         BECMG 0221/0224 FEW007 BKN017
         PROB30 TEMPO 0222/0305 4000 SHRA
         PROB40 TEMPO 0308/0312 4000 SHRA=

FT 	01/01/2020 23:00-> 	

TAF FMMI 012300Z 0200/0306 VRB05KT 9999 FEW007 BKN017
         PROB30 TEMPO 0200/0205 4000 SHRA
         BECMG 0206/0209 FEW010 BKN017CB
         TEMPO 0210/0222 VRB15G25KT 3000 TSRA
         BECMG 0221/0224 FEW007 BKN017
         PROB30 TEMPO 0222/0305 4000 SHRA=

FT 	01/01/2020 17:00-> 	

TAF FMMI 011700Z 0118/0224 VRB05KT 9999 FEW007 BKN017CB
         PROB40 TEMPO 0118/0122 VRB15KT 4000 TSRA
         BECMG 0122/0201 FEW010 BKN020
         PROB30 TEMPO 0122/0205 4000 SHRA
         BECMG 0206/0209 FEW010 BKN017CB
         TEMPO 0208/0222 VRB15G25KT 3000 TSRA=

FT 	01/01/2020 11:00-> 	

TAF FMMI 011100Z 0112/0218 VRB05KT 9999 BKN017CB
         TEMPO 0112/0122 VRB15G25KT 3000 TSRA
         BECMG 0122/0201 FEW010 BKN020
         PROB30 TEMPO 0122/0205 4000 DZRA
         BECMG 0207/0210 BKN020CB
         TEMPO 0210/0218 VRB15KT 3500 TSRA=

FT 	01/01/2020 05:00-> 	

TAF FMMI 010500Z 0106/0212 VRB05KT 9999 FEW017 SCT020
         BECMG 0106/0108 SCT017CB BKN020
         TEMPO 0114/0122 VRB15G25KT 3000 TSRA
         BECMG 0122/0201 FEW010 BKN020
         PROB30 TEMPO 0122/0205 4000 DZRA
         PROB40 TEMPO 0208/0212 4000 SHRA=