202003010000 METAR FMMI 010000Z 09005KT 9999 FEW017 BKN020 18/15 Q1014
                        NOSIG=
202003010030 METAR FMMI 010030Z VRB03KT 9999 FEW017 BKN020 18/16 Q1014
                        NOSIG=
202003010100 METAR FMMI 010100Z 17004KT 9999 FEW017 BKN020 18/15 Q1014
                        NOSIG=
202003010130 METAR FMMI 010130Z VRB03KT 9999 FEW017 BKN020 17/15 Q1014
                        NOSIG=
202003010200 METAR FMMI 010200Z 06004KT 9999 SCT039 17/15 Q1014 NOSIG=
202003010230 METAR FMMI 010230Z 11004KT 090V160 9999 FEW017 BKN020 17/15
                        Q1014 NOSIG=
202003010300 METAR FMMI 010300Z 06004KT 010V080 9999 FEW017 SCT020 17/15
                        Q1014 NOSIG=
202003010330 METAR FMMI 010330Z 08004KT 9999 FEW017 SCT020 17/15 Q1014
                        NOSIG=
202003010400 METAR FMMI 010400Z 05003KT 9999 FEW017 SCT020 18/16 Q1015
                        NOSIG=
202003010430 METAR FMMI 010430Z 08003KT 050V110 9999 FEW017 SCT020 19/14
                        Q1015 NOSIG=
202003010500 METAR FMMI 010500Z 13004KT 070V190 9999 FEW017 21/13 Q1015
                        NOSIG=
202003010530 METAR FMMI 010530Z 11007KT 070V170 9999 FEW017 22/14 Q1015
                        NOSIG=
202003010600 METAR FMMI 010600Z 09007KT 060V120 9999 FEW017 23/14 Q1015
                        NOSIG=
202003010630 METAR FMMI 010630Z VRB04KT 9999 FEW017 24/15 Q1016 NOSIG=
202003010700 METAR FMMI 010700Z 05003KT 360V110 9999 FEW020 SCT023 25/15
                        Q1015 NOSIG=
202003010730 METAR FMMI 010730Z 16004KT 110V250 9999 FEW020 SCT023 26/16
                        Q1015 NOSIG=
202003010800 METAR FMMI 010800Z VRB03KT 9999 FEW020 26/16 Q1015 NOSIG=
202003010830 METAR FMMI 010830Z VRB04KT 9999 SCT020 26/15 Q1014 NOSIG=
202003010900 METAR FMMI 010900Z VRB03KT 9999 SCT020 27/15 Q1014 NOSIG=
202003010930 METAR FMMI 010930Z VRB04KT 9999 SCT020 28/17 Q1014 NOSIG=
202003011000 METAR FMMI 011000Z VRB03KT 9999 SCT020 27/16 Q1013 NOSIG=
202003011030 METAR FMMI 011030Z 25005KT 190V290 9999 SCT020 28/16 Q1012
                        NOSIG=
202003011100 METAR FMMI 011100Z VRB04KT 9999 SCT020CB 27/17 Q1012 NOSIG=
202003011130 METAR FMMI 011130Z 03005KT 330V080 9999 SCT020TCU 28/17 Q1012
                        NOSIG=
202003011200 METAR FMMI 011200Z VRB03KT 9999 SCT020CB 28/16 Q1012 NOSIG=
202003011230 METAR FMMI 011230Z VRB03KT 9999 SCT020CB 29/16 Q1012 NOSIG=
202003011300 METAR FMMI 011300Z VRB04KT 9999 SCT020CB 30/17 Q1012 NOSIG=
202003011330 METAR FMMI 011330Z 34004KT 280V060 9999 SCT020CB 29/15 Q1012
                        NOSIG=
202003011400 METAR FMMI 011400Z 06006KT 350V080 9999 SCT020CB 27/19 Q1012
                        NOSIG=
202003011430 METAR FMMI 011430Z 06010KT 9999 SCT020CB 25/18 Q1012 TEMPO
                        4000 TSRA=
202003011500 METAR FMMI 011500Z 08007KT 9999 SCT017CB SCT020 24/18 Q1013
                        TEMPO 4000 TSRA=
202003011530 METAR FMMI 011530Z 07007KT 030V090 9999 TS SCT017CB SCT020
                        23/18 Q1013 TEMPO 4000 TSRA=
202003011600 METAR FMMI 011600Z 06004KT 340V110 8000 -TSRA SCT017CB SCT020
                        23/18 Q1014 TEMPO 4000 TSRA=
202003011630 METAR FMMI 011630Z 24008KT 210V270 8000 -TSRA SCT017CB SCT020
                        20/19 Q1015 TEMPO 4000 TSRA=
202003011700 METAR FMMI 011700Z 19006KT 130V210 9999 -RA SCT017CB SCT020
                        20/19 Q1015 TEMPO 4000 RA=
202003011730 METAR FMMI 011730Z 22005KT 120V290 9999 VCTS FEW009 SCT017CB
                        20/19 Q1015 TEMPO 4000 RA=
202003011800 METAR FMMI 011800Z 18011KT 4000 RA SCT008 SCT017CB BKN020
                        19/18 Q1016 TEMPO 6000=
202003011816 SPECI FMMI 011816Z 12012KT 6000 -RA SCT007 SCT017CB BKN023
                        19/18 Q1016 NOSIG=
202003011830 METAR FMMI 011830Z 12010KT 100V190 9999 -RA SCT005 FEW017CB
                        BKN023 19/18 Q1016 TEMPO 4000 RA=
202003011900 METAR FMMI 011900Z 11009KT 090V150 9999 -RA SCT007 FEW017CB
                        BKN023 19/18 Q1016 TEMPO 4000 DZRA=
202003011930 METAR FMMI 011930Z 07005KT 9999 SCT010 BKN023 18/17 Q1016
                        TEMPO 4000 RADZ=
202003012000 METAR FMMI 012000Z 10004KT 9999 SCT010 BKN023 18/17 Q1016
                        TEMPO 4000 RADZ=
202003012030 METAR FMMI 012030Z 11004KT 9999 -RA FEW010 BKN023 18/17 Q1016
                        TEMPO 4000 RADZ=
202003012100 METAR FMMI 012100Z 03004KT 360V070 9999 -RA FEW010 BKN023
                        18/18 Q1015 TEMPO 4000 RADZ=
202003012130 METAR FMMI 012130Z VRB01KT 9999 -RA FEW010 BKN023 18/18 Q1015
                        TEMPO 4000 RADZ=
202003012200 METAR FMMI 012200Z VRB03KT 9999 FEW017 BKN038 19/18 Q1015
                        NOSIG=
202003012230 METAR FMMI 012230Z 17004KT 9999 FEW017 BKN023 19/18 Q1015
                        NOSIG=
202003012300 METAR FMMI 012300Z 16004KT 120V190 9999 FEW010 SCT017 19/18
                        Q1015 NOSIG=
202003012330 METAR FMMI 012330Z 13004KT 9999 FEW010 BKN020 19/18 Q1015
                        NOSIG=
202003020000 METAR FMMI 020000Z 12005KT 9999 SCT009 BKN020 19/18 Q1014
                        NOSIG=
202003020030 METAR FMMI 020030Z 09008KT 9999 SCT009 BKN020 19/18 Q1014
                        NOSIG=
202003020100 METAR FMMI 020100Z 09007KT 9999 FEW009 BKN020 19/18 Q1014
                        NOSIG=
202003020130 METAR FMMI 020130Z 14004KT 9999 FEW010 BKN020 19/17 Q1015
                        NOSIG=
202003020200 METAR FMMI 020200Z 14005KT 9999 SCT009 BKN020 19/17 Q1015
                        NOSIG=
202003020230 METAR FMMI 020230Z 13007KT 110V170 9999 SCT009 BKN020 19/17
                        Q1015 NOSIG=
202003020300 METAR FMMI 020300Z 13008KT 100V160 9999 FEW010 BKN020 18/16
                        Q1016 NOSIG=
202003020330 METAR FMMI 020330Z 14006KT 110V190 9999 FEW010 SCT017 BKN020
                        18/16 Q1016 NOSIG=
202003020400 METAR FMMI 020400Z 15006KT 120V190 9999 FEW010 SCT017 BKN020
                        18/16 Q1016 NOSIG=
202003020430 METAR FMMI 020430Z 14007KT 110V180 9999 FEW010 BKN020 19/16
                        Q1017 NOSIG=
202003020500 METAR FMMI 020500Z 15007KT 120V180 9999 FEW010 BKN020 19/16
                        Q1017 NOSIG=
202003020530 METAR FMMI 020530Z 15007KT 110V180 9999 FEW017 BKN020 21/17
                        Q1017 NOSIG=
202003020600 METAR FMMI 020600Z 15007KT 100V200 9999 SCT017 22/17 Q1018
                        NOSIG=
202003020630 METAR FMMI 020630Z 18006KT 080V220 9999 BKN017 23/18 Q1018
                        NOSIG=
202003020700 METAR FMMI 020700Z 15005KT 090V240 9999 BKN017 23/17 Q1017
                        NOSIG=
202003020730 METAR FMMI 020730Z VRB04KT 9999 BKN020 25/18 Q1017 NOSIG=
202003020800 METAR FMMI 020800Z 13003KT 070V200 9999 BKN017 SCT020 24/17
                        Q1017 NOSIG=
202003020830 METAR FMMI 020830Z VRB04KT 9999 BKN017 SCT020 25/18 Q1017
                        NOSIG=
202003020900 METAR FMMI 020900Z 06006KT 030V100 9999 BKN020 SCT023 24/17
                        Q1016 NOSIG=
202003020930 METAR FMMI 020930Z 06004KT 020V140 9999 BKN020TCU SCT023
                        25/18 Q1016 NOSIG=
202003021000 METAR FMMI 021000Z 08004KT 030V120 9999 BKN020TCU SCT023
                        23/17 Q1016 TEMPO 4500 SHRA=
202003021030 METAR FMMI 021030Z 06004KT 030V100 9999 VCSH BKN020TCU SCT023
                        23/17 Q1016 TEMPO 4500 SHRA=
202003021100 METAR FMMI 021100Z 05006KT 020V080 9999 SCT020 BKN023 25/18
                        Q1015 TEMPO 4500 SHRA=
202003021130 METAR FMMI 021130Z 08006KT 050V120 9999 VCSH SCT020 BKN023
                        25/17 Q1015 TEMPO 4500 SHRA=
202003021200 METAR FMMI 021200Z 07009KT 9999 SCT020 BKN023 25/18 Q1015
                        TEMPO 4500 SHRA=
202003021230 METAR FMMI 021230Z 07008KT 040V110 9999 SCT023 25/18 Q1015
                        NOSIG=
202003021300 METAR FMMI 021300Z 08006KT 040V110 9999 FEW020CB SCT023 25/18
                        Q1015 NOSIG=
202003021330 METAR FMMI 021330Z 07006KT 9999 FEW020CB SCT023 25/18 Q1015
                        NOSIG=
202003021400 METAR FMMI 021400Z 10008KT 9999 FEW020CB 23/17 Q1015 NOSIG=
202003021430 METAR FMMI 021430Z 08005KT 9999 FEW020CB 24/18 Q1015 NOSIG=
202003021500 METAR FMMI 021500Z 08007KT 9999 FEW020CB 23/17 Q1016 NOSIG=
202003021530 METAR FMMI 021530Z 10008KT 9999 FEW020CB 21/16 Q1016 NOSIG=
202003021600 METAR FMMI 021600Z 11011KT 9999 VCTS FEW020CB 21/16 Q1017
                        NOSIG=
202003021630 METAR FMMI 021630Z 12011KT 100V170 9999 VCTS FEW020CB 21/16
                        Q1017 NOSIG=
202003021700 METAR FMMI 021700Z 13009KT 100V170 9999 VCTS FEW020CB 21/16
                        Q1017 NOSIG=
202003021730 METAR FMMI 021730Z 15007KT 120V180 9999 FEW020CB 21/16 Q1018
                        NOSIG=
202003021800 METAR FMMI 021800Z 15008KT 110V200 9999 FEW017CB SCT020 20/16
                        Q1018 NOSIG=
202003021830 METAR FMMI 021830Z 14008KT 110V170 9999 FEW017CB SCT020 20/16
                        Q1019 NOSIG=
202003021900 METAR FMMI 021900Z 17006KT 9999 -SHRA FEW017CB SCT020 20/16
                        Q1019 NOSIG=
202003021930 METAR FMMI 021930Z 17005KT 130V190 9999 -SHRA FEW017CB SCT020
                        19/17 Q1019 NOSIG=
202003022000 METAR FMMI 022000Z 16004KT 130V190 9999 FEW017CB BKN020 19/17
                        Q1019 TEMPO 4500 SHRA=
202003022030 METAR FMMI 022030Z 14005KT 100V170 9999 FEW017CB BKN020 19/17
                        Q1019 TEMPO 4500 SHRA=
202003022100 METAR FMMI 022100Z 12005KT 100V160 9999 FEW017CB BKN020 19/17
                        Q1018 TEMPO 4500 SHRA=
202003022130 METAR FMMI 022130Z 12006KT 090V160 9999 FEW017CB BKN020 19/17
                        Q1018 TEMPO 4500 SHRA=
202003022200 METAR FMMI 022200Z 14004KT 110V180 9999 FEW017CB BKN020 19/17
                        Q1018 TEMPO 4500 SHRA=
202003022230 METAR FMMI 022230Z 14004KT 110V170 9999 FEW017 BKN020 19/17
                        Q1017 NOSIG=
202003022300 METAR FMMI 022300Z 12006KT 9999 FEW017 BKN020 19/17 Q1017
                        NOSIG=
202003022330 METAR FMMI 022330Z 14004KT 110V170 9999 FEW017 BKN020 19/17
                        Q1017 NOSIG=
202003030000 METAR FMMI 030000Z 16004KT 130V200 9999 FEW017 BKN020 19/17
                        Q1017 NOSIG=
202003030030 METAR FMMI 030030Z 17005KT 120V200 9999 FEW017 BKN020 19/17
                        Q1017 NOSIG=
202003030100 METAR FMMI 030100Z 16004KT 120V200 9999 FEW017 BKN020 19/17
                        Q1017 NOSIG=
202003030130 METAR FMMI 030130Z 13005KT 100V170 9999 FEW017 BKN020 19/17
                        Q1017 NOSIG=
202003030200 METAR FMMI 030200Z 14006KT 110V180 9999 FEW017 BKN020 19/17
                        Q1017 NOSIG=
202003030230 METAR FMMI 030230Z 14006KT 110V170 9999 FEW017 BKN020 19/17
                        Q1018 NOSIG=
202003030300 METAR FMMI 030300Z 14005KT 110V170 9999 BKN017 19/17 Q1018
                        NOSIG=
202003030330 METAR FMMI 030330Z 14004KT 110V180 9999 FEW015 BKN020 20/17
                        Q1018 NOSIG=
202003030400 METAR FMMI 030400Z 16004KT 110V190 9999 FEW015 BKN020 20/17
                        Q1019 NOSIG=
202003030430 METAR FMMI 030430Z 17006KT 9999 SCT014 BKN020 20/17 Q1019
                        NOSIG=
202003030500 METAR FMMI 030500Z 17007KT 130V190 9999 SCT015 BKN020 20/17
                        Q1019 NOSIG=
202003030530 METAR FMMI 030530Z 14007KT 110V170 9999 SCT017 BKN020 21/17
                        Q1020 NOSIG=
202003030600 METAR FMMI 030600Z 14007KT 100V180 9999 SCT017 BKN020 22/17
                        Q1020 NOSIG=
202003030630 METAR FMMI 030630Z 16007KT 100V210 9999 SCT017 BKN020 23/17
                        Q1020 NOSIG=
202003030700 METAR FMMI 030700Z 14006KT 100V190 9999 BKN020 SCT023 24/17
                        Q1020 NOSIG=
202003030730 METAR FMMI 030730Z 15004KT 080V200 9999 BKN020 SCT023 24/18
                        Q1020 NOSIG=
202003030800 METAR FMMI 030800Z 17006KT 110V190 9999 BKN020 SCT023 24/18
                        Q1019 NOSIG=
202003030830 METAR FMMI 030830Z 12007KT 090V180 9999 BKN020 SCT023 25/17
                        Q1019 NOSIG=
202003030900 METAR FMMI 030900Z 16007KT 120V200 9999 BKN020 SCT025 25/17
                        Q1019 NOSIG=
202003030930 METAR FMMI 030930Z 12006KT 050V170 9999 SCT020 BKN025 26/17
                        Q1018 NOSIG=
202003031000 METAR FMMI 031000Z 16005KT 080V210 9999 BKN023 SCT025 26/18
                        Q1018 NOSIG=
202003031030 METAR FMMI 031030Z 12005KT 070V180 9999 BKN023 26/17 Q1017
                        NOSIG=
202003031100 METAR FMMI 031100Z VRB04KT 9999 BKN023 28/18 Q1017 NOSIG=
202003031130 METAR FMMI 031130Z 18005KT 130V210 9999 BKN023 26/18 Q1017
                        NOSIG=
202003031200 METAR COR FMMI 031200Z VRB04KT 9999 BKN023 28/17 Q1017 NOSIG=
202003031230 METAR FMMI 031230Z 12004KT 050V160 9999 BKN023 26/17 Q1017
                        NOSIG=
202003031300 METAR FMMI 031300Z 14004KT 070V190 9999 BKN023 27/18 Q1017
                        NOSIG=
202003031330 METAR FMMI 031330Z 14004KT 090V210 9999 BKN023 27/18 Q1017
                        NOSIG=
202003031400 METAR FMMI 031400Z 16006KT 120V190 9999 BKN023CB 25/18 Q1017
                        NOSIG=
202003031430 METAR FMMI 031430Z 17005KT 110V190 9999 SCT020CB SCT023 25/18
                        Q1017 NOSIG=
202003031500 METAR FMMI 031500Z 12011KT 090V170 9999 SCT020CB SCT023 24/18
                        Q1017 NOSIG=
202003031530 METAR FMMI 031530Z 10011KT 9999 SCT020CB SCT023 23/18 Q1018
                        NOSIG=
202003031600 METAR FMMI 031600Z 12009KT 100V160 9999 FEW020CB 22/18 Q1019
                        NOSIG=
202003031630 METAR FMMI 031630Z 12011KT 100V160 9999 FEW017 SCT020 22/18
                        Q1019 NOSIG=
202003031700 METAR FMMI 031700Z 11011KT 080V140 9999 FEW017 SCT020 21/18
                        Q1019 NOSIG=
202003031730 METAR FMMI 031730Z 10009KT 9999 FEW017 BKN020 20/18 Q1020
                        NOSIG=
202003031800 METAR FMMI 031800Z 10009KT 9999 FEW017 BKN020 21/18 Q1020
                        NOSIG=
202003031830 METAR FMMI 031830Z 13007KT 110V170 9999 VCTS FEW017CB BKN020
                        21/18 Q1020 NOSIG=
202003031900 METAR FMMI 031900Z 14006KT 110V170 9999 VCTS FEW017CB BKN020
                        20/18 Q1020 NOSIG=
202003031930 METAR FMMI 031930Z 12009KT 100V160 9999 VCTS FEW017CB BKN020
                        20/17 Q1020 NOSIG=
202003032000 METAR FMMI 032000Z 13007KT 100V180 9999 VCTS FEW017CB BKN020
                        20/17 Q1020 NOSIG=
202003032030 METAR FMMI 032030Z 12004KT 100V190 9999 FEW017CB BKN020 20/18
                        Q1020 NOSIG=
202003032100 METAR FMMI 032100Z 14004KT 110V170 9999 -RA FEW010 FEW017CB
                        BKN020 20/18 Q1020 NOSIG=
202003032130 METAR FMMI 032130Z 17003KT 130V210 8000 -RA SCT010 FEW017CB
                        OVC020 19/18 Q1020 NOSIG=
202003032200 METAR FMMI 032200Z VRB02KT 8000 -RA SCT010 FEW017CB OVC020
                        19/18 Q1019 NOSIG=
202003032230 METAR FMMI 032230Z 13004KT 100V170 9999 -RA FEW010 OVC020
                        19/18 Q1019 NOSIG=
202003032300 METAR FMMI 032300Z 10005KT 9999 -RA FEW010 OVC020 19/18 Q1019
                        NOSIG=
202003032330 METAR FMMI 032330Z 09005KT 9999 FEW010 BKN020 19/18 Q1019
                        NOSIG=
202003040000 METAR FMMI 040000Z 10007KT 9999 FEW010 BKN020 19/18 Q1019
                        NOSIG=
202003040030 METAR FMMI 040030Z 12004KT 080V180 9999 FEW010 BKN020 18/18
                        Q1018 NOSIG=
202003040100 METAR FMMI 040100Z 08004KT 9999 FEW010 BKN020 19/18 Q1019
                        NOSIG=
202003040130 METAR FMMI 040130Z 09004KT 9999 FEW010 BKN020 19/18 Q1019
                        NOSIG=
202003040200 METAR FMMI 040200Z 08004KT 9999 FEW010 BKN020 19/18 Q1019
                        NOSIG=
202003040230 METAR FMMI 040230Z 07006KT 9999 FEW005 BKN020 19/17 Q1019
                        NOSIG=
202003040300 METAR FMMI 040300Z 08004KT 9999 FEW010 BKN020 19/17 Q1019
                        NOSIG=
202003040330 METAR FMMI 040330Z 09005KT 9999 FEW010 BKN020 19/18 Q1019
                        NOSIG=
202003040400 METAR FMMI 040400Z 12005KT 100V160 9999 FEW010 BKN020 19/18
                        Q1019 NOSIG=
202003040430 METAR FMMI 040430Z 13005KT 090V180 9999 FEW010 BKN020 20/18
                        Q1020 NOSIG=
202003040500 METAR FMMI 040500Z 13006KT 100V170 9999 FEW010 BKN020 20/18
                        Q1020 NOSIG=
202003040530 METAR FMMI 040530Z 14007KT 110V180 9999 FEW010 BKN020 21/18
                        Q1020 NOSIG=
202003040600 METAR FMMI 040600Z 14008KT 100V180 9999 FEW017 BKN020 21/18
                        Q1020 NOSIG=
202003040630 METAR FMMI 040630Z 11008KT 080V160 9999 FEW017 BKN020 21/17
                        Q1020 NOSIG=
202003040700 METAR FMMI 040700Z 11008KT 080V140 9999 SCT017 BKN020 23/18
                        Q1020 NOSIG=
202003040730 METAR FMMI 040730Z 12007KT 080V160 9999 SCT017 SCT020 24/18
                        Q1020 NOSIG=
202003040800 METAR FMMI 040800Z 11006KT 040V170 9999 SCT017 SCT020 25/18
                        Q1020 NOSIG=
202003040830 METAR FMMI 040830Z 15006KT 070V210 9999 SCT020 25/17 Q1019
                        NOSIG=
202003040900 METAR FMMI 040900Z VRB08KT 9999 SCT020 26/17 Q1019 NOSIG=
202003040930 METAR FMMI 040930Z VRB07KT 9999 SCT020 26/17 Q1019 NOSIG=
202003041000 METAR FMMI 041000Z 16008KT 090V200 9999 SCT020 26/17 Q1018
                        NOSIG=
202003041030 METAR FMMI 041030Z 13006KT 080V220 9999 SCT020 SCT023 27/16
                        Q1018 NOSIG=
202003041100 METAR FMMI 041100Z 13008KT 090V180 9999 FEW020 SCT023 28/17
                        Q1018 NOSIG=
202003041130 METAR FMMI 041130Z 11010KT 090V150 9999 FEW020 SCT023 27/16
                        Q1018 NOSIG=
202003041200 METAR FMMI 041200Z 11009KT 080V160 9999 SCT020 SCT023 27/16
                        Q1017 NOSIG=
202003041230 METAR FMMI 041230Z 10009KT 080V150 9999 FEW020 SCT023 27/16
                        Q1017 NOSIG=
202003041300 METAR FMMI 041300Z 11009KT 080V160 9999 FEW020 SCT023 27/16
                        Q1017 NOSIG=
202003041330 METAR FMMI 041330Z 15009KT 110V200 9999 FEW020 SCT023 26/16
                        Q1017 NOSIG=
202003041400 METAR FMMI 041400Z 11010KT 100V160 9999 FEW020 SCT023 26/15
                        Q1017 NOSIG=
202003041430 METAR FMMI 041430Z 11011KT 080V140 9999 FEW020 SCT023 24/16
                        Q1018 NOSIG=
202003041500 METAR FMMI 041500Z 12011KT 100V160 9999 FEW020 SCT023 24/16
                        Q1018 NOSIG=
202003041530 METAR FMMI 041530Z 11012KT 9999 FEW017 BKN023 23/17 Q1018
                        NOSIG=
202003041600 METAR FMMI 041600Z 12012KT 9999 FEW017 BKN023 22/16 Q1019
                        NOSIG=
202003041630 METAR FMMI 041630Z 12010KT 100V180 9999 FEW017 BKN023 22/17
                        Q1019 NOSIG=
202003041700 METAR FMMI 041700Z 11009KT 9999 FEW017 BKN023 21/17 Q1019
                        NOSIG=
202003041730 METAR FMMI 041730Z 13009KT 110V170 9999 FEW017 BKN023 21/17
                        Q1020 NOSIG=
202003041800 METAR FMMI 041800Z 12007KT 100V180 9999 FEW017 BKN023 21/17
                        Q1020 NOSIG=
202003041830 METAR FMMI 041830Z 16006KT 9999 FEW017 BKN023 21/17 Q1020
                        NOSIG=
202003041900 METAR FMMI 041900Z 14006KT 100V170 9999 FEW017 BKN020 21/17
                        Q1020 NOSIG=
202003041930 METAR FMMI 041930Z 15007KT 110V190 9999 FEW017 BKN020 21/17
                        Q1020 NOSIG=
202003042000 METAR FMMI 042000Z 16007KT 120V200 9999 FEW017 BKN020 20/17
                        Q1020 NOSIG=
202003042030 METAR FMMI 042030Z 14005KT 110V200 9999 FEW017 BKN020 20/17
                        Q1019 NOSIG=
202003042100 METAR FMMI 042100Z 14007KT 110V180 9999 FEW017 BKN020 20/17
                        Q1019 NOSIG=
202003042130 METAR FMMI 042130Z 14008KT 110V170 9999 FEW017 BKN020 20/17
                        Q1019 NOSIG=
202003042200 METAR FMMI 042200Z 14010KT 110V180 9999 FEW017 BKN020 20/16
                        Q1019 NOSIG=
202003042230 METAR FMMI 042230Z 15007KT 120V180 9999 FEW017 BKN020 19/16
                        Q1019 NOSIG=
202003042300 METAR FMMI 042300Z 13009KT 110V170 9999 FEW017 BKN020 19/16
                        Q1019 NOSIG=
202003042330 METAR FMMI 042330Z 14007KT 110V180 9999 FEW017 BKN020 18/15
                        Q1019 NOSIG=
202003050000 METAR FMMI 050000Z 16007KT 110V190 9999 FEW017 SCT020 18/14
                        Q1019 NOSIG=
202003050030 METAR FMMI 050030Z 16008KT 130V190 9999 FEW017 SCT020 17/14
                        Q1019 NOSIG=
202003050100 METAR FMMI 050100Z 17006KT 140V220 9999 FEW017 17/13 Q1019
                        NOSIG=
202003050130 METAR FMMI 050130Z 18008KT 9999 FEW017 17/13 Q1019 NOSIG=
202003050200 METAR FMMI 050200Z 17006KT 140V200 9999 FEW015 SCT020 17/14
                        Q1019 NOSIG=
202003050230 METAR FMMI 050230Z 17008KT 9999 FEW014 BKN020 17/14 Q1019
                        NOSIG=
202003050300 METAR FMMI 050300Z 17007KT 130V190 9999 FEW014 BKN020 18/15
                        Q1019 NOSIG=
202003050330 METAR FMMI 050330Z 18008KT 150V210 9999 FEW014 BKN020 18/15
                        Q1019 NOSIG=
202003050400 METAR FMMI 050400Z 17010KT 9999 FEW017 19/15 Q1020 NOSIG=
202003050430 METAR FMMI 050430Z 18010KT 9999 FEW017 BKN020 19/15 Q1020
                        NOSIG=
202003050500 METAR FMMI 050500Z 17010KT 120V210 9999 FEW017 BKN020 20/15
                        Q1020 NOSIG=
202003050530 METAR FMMI 050530Z 17009KT 130V190 9999 FEW017 BKN020 20/16
                        Q1020 NOSIG=
202003050600 METAR FMMI 050600Z 17010KT 130V190 9999 FEW017 BKN020 21/16
                        Q1020 NOSIG=
202003050630 METAR FMMI 050630Z 19008KT 9999 FEW017 BKN020 21/17 Q1020
                        NOSIG=
202003050700 METAR FMMI 050700Z 17009KT 130V200 9999 FEW017 BKN022 22/17
                        Q1020 NOSIG=
202003050730 METAR FMMI 050730Z 16012KT 110V190 9999 SCT020 BKN023 23/17
                        Q1019 NOSIG=
202003050800 METAR FMMI 050800Z 16013KT 130V190 9999 FEW020 BKN023 24/17
                        Q1019 NOSIG=
202003050830 METAR FMMI 050830Z 15013KT 110V190 9999 BKN020 24/17 Q1019
                        NOSIG=
202003050900 METAR FMMI 050900Z 15012KT 110V190 9999 BKN020 24/17 Q1018
                        NOSIG=
202003050930 METAR FMMI 050930Z 17015KT 130V200 9999 BKN020 23/17 Q1018
                        NOSIG=
202003051000 METAR FMMI 051000Z 18012KT 140V210 9999 SCT020 BKN023 24/17
                        Q1018 NOSIG=
202003051030 METAR FMMI 051030Z 17010KT 080V210 9999 SCT020 BKN023 25/16
                        Q1017 NOSIG=
202003051100 METAR FMMI 051100Z 18013KT 150V210 9999 SCT020 26/17 Q1017
                        NOSIG=
202003051130 METAR FMMI 051130Z 18013KT 140V200 9999 SCT020 26/17 Q1016
                        NOSIG=
202003051200 METAR FMMI 051200Z 16010KT 100V190 9999 SCT020 26/17 Q1016
                        NOSIG=
202003051230 METAR FMMI 051230Z 17009KT 110V190 9999 SCT020 27/17 Q1016
                        NOSIG=
202003051300 METAR FMMI 051300Z 16009KT 120V190 9999 FEW020 BKN023 26/16
                        Q1016 NOSIG=
202003051330 METAR FMMI 051330Z 15009KT 110V190 9999 FEW020 SCT023 25/15
                        Q1016 NOSIG=
202003051400 METAR FMMI 051400Z 14010KT 110V180 9999 FEW020 SCT023 26/16
                        Q1016 NOSIG=
202003051430 METAR FMMI 051430Z 14012KT 9999 FEW020 SCT023 24/17 Q1017
                        NOSIG=
202003051500 METAR FMMI 051500Z 14013KT 110V170 9999 FEW020 BKN023 23/17
                        Q1017 NOSIG=
202003051530 METAR FMMI 051530Z 13012KT 100V170 9999 FEW020 BKN023 22/17
                        Q1018 NOSIG=
202003051600 METAR FMMI 051600Z 15011KT 120V180 9999 FEW020 BKN023 21/17
                        Q1018 NOSIG=
202003051630 METAR FMMI 051630Z 15011KT 110V180 9999 FEW017 BKN020 20/16
                        Q1019 NOSIG=
202003051700 METAR FMMI 051700Z 16011KT 120V190 9999 FEW017 BKN020 20/16
                        Q1019 NOSIG=
202003051730 METAR FMMI 051730Z 14010KT 120V180 9999 FEW017 BKN020 20/16
                        Q1019 NOSIG=
202003051800 METAR FMMI 051800Z 14008KT 110V170 9999 FEW017 BKN020 20/16
                        Q1020 NOSIG=
202003051830 METAR FMMI 051830Z 14008KT 110V180 9999 FEW017 BKN020 19/16
                        Q1020 NOSIG=
202003051900 METAR FMMI 051900Z 14006KT 110V190 9999 FEW017 BKN020 19/16
                        Q1020 NOSIG=
202003051930 METAR FMMI 051930Z 16005KT 120V190 9999 FEW017 BKN020 19/16
                        Q1019 NOSIG=
202003052000 METAR FMMI 052000Z 16006KT 9999 FEW017 BKN020 18/16 Q1019
                        NOSIG=
202003052030 METAR FMMI 052030Z 15010KT 9999 FEW017 BKN020 18/15 Q1019
                        NOSIG=
202003052100 METAR FMMI 052100Z 15007KT 120V180 9999 FEW017 BKN020 18/15
                        Q1018 NOSIG=
202003052130 METAR FMMI 052130Z 15006KT 120V180 9999 FEW017 BKN020 18/15
                        Q1018 NOSIG=
202003052200 METAR FMMI 052200Z 13006KT 100V170 9999 OVC013 18/15 Q1018
                        NOSIG=
202003052230 METAR FMMI 052230Z 12005KT 100V160 9999 FEW017 BKN020 17/15
                        Q1018 NOSIG=
202003052300 METAR FMMI 052300Z 15005KT 120V190 9999 FEW017 BKN020 17/15
                        Q1017 NOSIG=
202003052330 METAR FMMI 052330Z 17009KT 140V200 9999 FEW017 BKN020 17/14
                        Q1017 NOSIG=
202003060000 METAR FMMI 060000Z 18009KT 150V210 9999 FEW017 BKN020 16/14
                        Q1017 NOSIG=
202003060030 METAR FMMI 060030Z 18007KT 9999 FEW017 BKN020 16/14 Q1017
                        NOSIG=
202003060100 METAR FMMI 060100Z 16006KT 9999 FEW017 BKN020 16/14 Q1017
                        NOSIG=
202003060130 METAR FMMI 060130Z 15005KT 9999 FEW017 BKN020 16/14 Q1017
                        NOSIG=
202003060200 METAR FMMI 060200Z 14005KT 9999 FEW017 SCT020 16/14 Q1017
                        NOSIG=
202003060230 METAR FMMI 060230Z 12006KT 9999 FEW017 SCT020 15/14 Q1017
                        NOSIG=
202003060300 METAR FMMI 060300Z 13004KT 9999 FEW017 15/13 Q1017 NOSIG=
202003060330 METAR FMMI 060330Z 13004KT 100V180 9999 FEW023 16/14 Q1017
                        NOSIG=
202003060400 METAR FMMI 060400Z 14005KT 100V170 9999 FEW023 18/14 Q1018
                        NOSIG=
202003060430 METAR FMMI 060430Z 13004KT 100V190 9999 FEW023 19/14 Q1018
                        NOSIG=
202003060500 METAR FMMI 060500Z 15005KT 080V200 CAVOK 21/14 Q1018 NOSIG=
202003060530 METAR FMMI 060530Z 16008KT CAVOK 21/13 Q1018 NOSIG=
202003060600 METAR FMMI 060600Z 17010KT 140V210 9999 FEW023 22/13 Q1018
                        NOSIG=
202003060630 METAR FMMI 060630Z 18011KT 130V210 9999 FEW023 24/16 Q1018
                        NOSIG=
202003060700 METAR FMMI 060700Z 18013KT 150V210 9999 FEW023 24/16 Q1018
                        NOSIG=
202003060730 METAR FMMI 060730Z 18009KT 140V210 9999 BKN023 24/17 Q1018
                        NOSIG=
202003060800 METAR FMMI 060800Z 20011KT 150V230 9999 SCT023 26/18 Q1018
                        NOSIG=
202003060830 METAR FMMI 060830Z 19009KT 140V220 9999 SCT023 26/17 Q1017
                        NOSIG=
202003060900 METAR FMMI 060900Z 17008KT 110V250 9999 SCT023 27/18 Q1017
                        NOSIG=
202003060900 METAR FMMI 060900Z 17008KT 110V250 9999 SCT023 27/18 Q1017
                        NOSIG=
202003060930 METAR FMMI 060930Z 15008KT 100V250 9999 SCT023 27/18 Q1016
                        NOSIG=
202003061000 METAR FMMI 061000Z 15008KT 090V190 9999 BKN023 28/17 Q1016
                        NOSIG=
202003061030 METAR FMMI 061030Z VRB07KT 9999 BKN023 29/18 Q1016 NOSIG=
202003061100 METAR FMMI 061100Z 16006KT 090V210 9999 BKN023 28/16 Q1016
                        NOSIG=
202003061130 METAR FMMI 061130Z 16006KT 090V210 9999 BKN023 29/16 Q1016
                        NOSIG=
202003061200 METAR FMMI 061200Z 18006KT 120V240 9999 BKN023 29/16 Q1015
                        NOSIG=
202003061230 METAR FMMI 061230Z 17005KT 070V210 9999 SCT023 29/15 Q1015
                        NOSIG=
202003061300 METAR FMMI 061300Z 08006KT 040V150 9999 SCT023 29/17 Q1015
                        NOSIG=
202003061330 METAR FMMI 061330Z VRB02KT 9999 FEW023TCU 29/16 Q1015 NOSIG=
202003061400 METAR FMMI 061400Z 10007KT 070V130 9999 FEW023TCU 28/16 Q1015
                        NOSIG=
202003061430 METAR FMMI 061430Z VRB02KT 9999 FEW023TCU 28/16 Q1015 NOSIG=
202003061500 METAR FMMI 061500Z 00000KT 9999 FEW023TCU 26/17 Q1015 NOSIG=
202003061530 METAR FMMI 061530Z 00000KT 9999 FEW020TCU 24/17 Q1015 NOSIG=
202003061600 METAR FMMI 061600Z 00000KT 9999 FEW020TCU 23/18 Q1015 NOSIG=
202003061630 METAR FMMI 061630Z 06006KT 9999 FEW020TCU 23/18 Q1016 NOSIG=
202003061700 METAR FMMI 061700Z 06005KT 9999 FEW020TCU BKN030 23/18 Q1017
                        NOSIG=
202003061730 METAR FMMI 061730Z 07004KT 040V110 9999 FEW020TCU BKN030
                        23/18 Q1017 NOSIG=
202003061800 METAR FMMI 061800Z 10006KT 9999 FEW020 BKN030 22/19 Q1017
                        NOSIG=
202003061830 METAR FMMI 061830Z 11005KT 9999 FEW020 BKN030 22/19 Q1018
                        NOSIG=
202003061900 METAR FMMI 061900Z 14004KT 9999 FEW020 BKN030 21/19 Q1017
                        NOSIG=
202003061930 METAR FMMI 061930Z VRB02KT 9999 FEW017 BKN030 21/19 Q1017
                        NOSIG=
202003062000 METAR FMMI 062000Z 16004KT 9999 FEW020 BKN030 21/19 Q1017
                        NOSIG=
202003062001 SPECI FMMI 062001Z 16004KT 120V200 9999 FEW017 BKN030 21/19
                        Q1017 NOSIG=
202003062030 METAR FMMI 062030Z 17005KT 9999 FEW017 BKN030 21/19 Q1017
                        NOSIG=
202003062100 METAR FMMI 062100Z 15004KT 110V190 9999 FEW017 BKN030 21/19
                        Q1017 NOSIG=
202003062130 METAR FMMI 062130Z 10004KT 9999 FEW017 BKN030 21/19 Q1017
                        NOSIG=
202003062200 METAR FMMI 062200Z 14005KT 9999 FEW017 BKN030 21/19 Q1016
                        NOSIG=
202003062200 METAR FMMI 062200Z 14005KT 9999 FEW017 BKN030 21/19 Q1016
                        NOSIG=
202003062230 METAR FMMI 062230Z 14004KT 9999 FEW017 BKN030 21/19 Q1016
                        NOSIG=
202003062300 METAR FMMI 062300Z 14004KT 110V170 9999 FEW017 20/19 Q1016
                        NOSIG=
202003062330 METAR FMMI 062330Z 16005KT 130V200 9999 FEW017 BKN020 21/18
                        Q1015 NOSIG=
202003070000 METAR FMMI 070000Z 16006KT 120V190 9999 FEW017 BKN020 21/18
                        Q1015 NOSIG=
202003070030 METAR FMMI 070030Z 16006KT 9999 FEW017 BKN020 21/18 Q1015
                        NOSIG=
202003070100 METAR FMMI 070100Z 16005KT 130V190 9999 FEW017 BKN020 20/18
                        Q1015 NOSIG=
202003070130 METAR FMMI 070130Z 14005KT 110V170 9999 FEW017 BKN020 20/17
                        Q1015 NOSIG=
202003070200 METAR FMMI 070200Z 14005KT 9999 FEW017 BKN020 20/18 Q1015
                        NOSIG=
202003070230 METAR FMMI 070230Z 12005KT 090V150 9999 FEW017 20/18 Q1016
                        NOSIG=
202003070300 METAR FMMI 070300Z 15005KT 110V170 9999 SCT018 20/18 Q1016
                        NOSIG=
202003070330 METAR FMMI 070330Z 17005KT 150V210 9999 FEW010 BKN020 21/18
                        Q1016 NOSIG=
202003070400 METAR FMMI 070400Z 19005KT 150V240 9999 FEW017 SCT020 21/18
                        Q1016 NOSIG=
202003070430 METAR FMMI 070430Z 18007KT 140V210 9999 FEW017 23/18 Q1017
                        NOSIG=
202003070500 METAR FMMI 070500Z 17010KT 130V200 9999 BKN017 23/18 Q1017
                        NOSIG=
202003070530 METAR FMMI 070530Z 18010KT 150V220 9999 SCT017 SCT020 24/19
                        Q1017 NOSIG=
202003070600 METAR FMMI 070600Z 17009KT 140V200 9999 SCT017 BKN020 24/19
                        Q1017 NOSIG=
202003070630 METAR FMMI 070630Z 18011KT 140V210 9999 SCT017 BKN020 24/19
                        Q1017 NOSIG=
202003070700 METAR FMMI 070700Z 16009KT 110V190 9999 SCT017 26/19 Q1017
                        NOSIG=
202003070730 METAR FMMI 070730Z 12011KT 9999 BKN020 26/19 Q1016 NOSIG=
202003070800 METAR FMMI 070800Z 14011KT 100V190 9999 BKN020 28/20 Q1016
                        NOSIG=
202003070830 METAR FMMI 070830Z 14010KT 110V190 9999 BKN020 29/20 Q1016
                        NOSIG=
202003070900 METAR FMMI 070900Z 19010KT 150V210 9999 BKN020 28/20 Q1015
                        NOSIG=
202003070930 METAR FMMI 070930Z 17009KT 100V220 9999 BKN020 30/19 Q1015
                        NOSIG=
202003071000 METAR FMMI 071000Z 12010KT 090V180 9999 BKN020 31/20 Q1015
                        NOSIG=
202003071030 METAR FMMI 071030Z 17009KT 130V200 9999 BKN023 28/19 Q1014
                        NOSIG=
202003071100 METAR FMMI 071100Z 15009KT 100V200 9999 BKN023 28/19 Q1014
                        NOSIG=
202003071130 METAR FMMI 071130Z 15010KT 120V180 9999 BKN023CB 29/19 Q1014
                        NOSIG=
202003071200 METAR FMMI 071200Z 14010KT 110V190 9999 -TSRA BKN020CB 29/20
                        Q1014 TEMPO 4500 TSRA=
202003071230 METAR FMMI 071230Z 17007KT 130V190 9999 -TSRA BKN017CB SCT020
                        23/20 Q1013 TEMPO 4500 TSRA=
202003071300 METAR FMMI 071300Z 14007KT 110V170 9999 VCTS BKN017CB SCT020
                        25/21 Q1014 TEMPO 4500 TSRA=
202003071319 SPECI FMMI 071319Z 17015KT 130V200 9999 -TSRA FEW010 SCT017CB
                        BKN020 24/19 Q1014 WS ALL RWY TEMPO
                        4500 TSRA=
202003071330 METAR FMMI 071330Z 17017KT 140V210 9999 -TSRA FEW010 SCT017CB
                        BKN020 23/19 Q1014 WS ALL RWY TEMPO
                        4500 TSRA=
202003071400 METAR FMMI 071400Z 16013KT 120V190 5000 -TSRA FEW010 SCT017CB
                        BKN020 20/19 Q1015 TEMPO 2500 TSRA=
202003071430 METAR FMMI 071430Z 16010KT 8000 VCSH FEW010 SCT017CB BKN020
                        21/20 Q1016 NOSIG=
202003071500 METAR FMMI 071500Z 14011KT 120V180 9999 FEW010 SCT017CB BKN020
                        21/19 Q1016 TEMPO 4500 TSRA=
202003071530 METAR FMMI 071530Z 15012KT 110V190 9999 VCTS FEW010 SCT017CB
                        BKN020 21/18 Q1016 TEMPO 4500 TSRA=
202003071600 METAR FMMI 071600Z 14010KT 9999 VCTS FEW016CB BKN020 21/19
                        Q1016 TEMPO 4500 TSRA=
202003071630 METAR FMMI 071630Z 16009KT 110V190 9999 VCTS FEW016CB BKN020
                        21/19 Q1016 TEMPO 4500 TSRA=
202003071700 METAR FMMI 071700Z 13009KT 9999 VCTS FEW016CB BKN020 21/19
                        Q1017 TEMPO 4500 TSRA=
202003071730 METAR FMMI 071730Z 16007KT 120V190 9999 FEW016CB BKN020 20/19
                        Q1018 TEMPO 4500 TSRA=
202003071730 METAR FMMI 071730Z 16007KT 120V190 9999 FEW016CB BKN020 20/19
                        Q1018 TEMPO 4500 TSRA=
202003071800 METAR FMMI 071800Z 15006KT 120V180 9999 FEW010 FEW017CB BKN020
                        20/19 Q1018 NOSIG=
202003071830 METAR FMMI 071830Z 13007KT 100V180 9999 FEW010 FEW017CB BKN020
                        20/19 Q1018 NOSIG=
202003071900 METAR FMMI 071900Z 15007KT 120V180 9999 FEW010 BKN032 20/18
                        Q1018 NOSIG=
202003071930 METAR FMMI 071930Z 14005KT 110V180 9999 FEW011 SCT020 20/18
                        Q1018 NOSIG=
202003072000 METAR FMMI 072000Z 12005KT 090V170 9999 FEW011 SCT020 20/18
                        Q1018 NOSIG=
202003072030 METAR FMMI 072030Z 14004KT 110V180 9999 FEW011 SCT020 20/18
                        Q1018 NOSIG=
202003072100 METAR FMMI 072100Z 16005KT 120V190 9999 FEW011 SCT020 20/19
                        Q1018 NOSIG=
202003072130 METAR FMMI 072130Z 15005KT 120V180 9999 FEW010 BKN020 20/19
                        Q1017 NOSIG=
202003072200 METAR FMMI 072200Z 17004KT 140V210 9999 FEW010 BKN020 20/18
                        Q1017 NOSIG=
202003072230 METAR FMMI 072230Z 19005KT 9999 FEW010 BKN020 20/19 Q1016
                        NOSIG=
202003072300 METAR FMMI 072300Z 17003KT 140V210 9999 FEW010 BKN020 20/19
                        Q1016 NOSIG=
202003072330 METAR FMMI 072330Z 15007KT 110V190 9999 FEW010 BKN020 20/18
                        Q1016 NOSIG=
202003080000 METAR FMMI 080000Z 16006KT 120V190 9999 -DZ SCT008 BKN020
                        20/18 Q1016 TEMPO 4500 -RADZ=
202003080030 METAR FMMI 080030Z 17008KT 9999 SCT008 BKN020 20/18 Q1016
                        TEMPO 4500 -RADZ=
202003080100 METAR FMMI 080100Z 16011KT 9999 SCT008 BKN020 20/17 Q1017
                        TEMPO 4500 -RADZ=
202003080100 METAR FMMI 080100Z 16011KT 9999 SCT008 BKN020 20/17 Q1017
                        TEMPO 4500 -RADZ=
202003080130 METAR FMMI 080130Z 16012KT 130V190 9999 SCT014 BKN020 20/17
                        Q1017 TEMPO 4500 -RADZ=
202003080200 METAR FMMI 080200Z 16009KT 120V190 9999 BKN017 20/17 Q1017
                        NOSIG=
202003080230 METAR FMMI 080230Z 16009KT 9999 BKN017 20/17 Q1017 NOSIG=
202003080300 METAR FMMI 080300Z 15006KT 110V190 9999 BKN017 19/17 Q1017
                        NOSIG=
202003080330 METAR FMMI 080330Z 14007KT 110V170 9999 FEW011 SCT017 19/17
                        Q1017 NOSIG=
202003080400 METAR FMMI 080400Z 17008KT 9999 FEW014 SCT020 20/17 Q1017
                        NOSIG=
202003080430 METAR FMMI 080430Z 16009KT 110V180 9999 FEW014 SCT020 20/17
                        Q1018 NOSIG=
202003080500 METAR FMMI 080500Z 16009KT 130V200 9999 FEW017 BKN020 20/17
                        Q1018 NOSIG=
202003080530 METAR FMMI 080530Z 16011KT 120V190 9999 FEW017 BKN020 21/17
                        Q1018 NOSIG=
202003080600 METAR FMMI 080600Z 14009KT 100V190 9999 FEW017 BKN020 23/17
                        Q1018 NOSIG=
202003080630 METAR FMMI 080630Z 14012KT 110V180 9999 BKN020 23/18 Q1018
                        NOSIG=
202003080700 METAR FMMI 080700Z 15011KT 110V180 9999 BKN020 24/18 Q1018
                        NOSIG=
202003080730 METAR FMMI 080730Z 14012KT 100V190 9999 BKN020 25/18 Q1018
                        NOSIG=
202003080800 METAR FMMI 080800Z 18011KT 9999 BKN022 BKN028 BKN034 24/19
                        Q1018 NOSIG=
202003080830 METAR FMMI 080830Z 16012KT 110V190 9999 SCT025 BKN032 25/18
                        Q1018 NOSIG=
202003080900 METAR FMMI 080900Z 16012KT 130V190 9999 BKN020 26/18 Q1017
                        NOSIG=
202003080930 METAR FMMI 080930Z 15011KT 100V180 9999 BKN020 26/18 Q1017
                        NOSIG=
202003081000 METAR FMMI 081000Z 16012KT 100V200 9999 SCT020 SCT030 26/18
                        Q1017 NOSIG=
202003081030 METAR FMMI 081030Z 14012KT 110V190 9999 SCT020CB SCT040 26/17
                        Q1016 NOSIG=
202003081100 METAR FMMI 081100Z 13012KT 9999 SCT020CB SCT040 25/18 Q1016
                        NOSIG=
202003081130 METAR FMMI 081130Z 14011KT 110V170 9999 SCT020CB 27/18 Q1016
                        NOSIG=
202003081200 METAR FMMI 081200Z 14010KT 110V200 9999 BKN020CB 27/18 Q1015
                        NOSIG=
202003081230 METAR FMMI 081230Z 15012KT 110V180 9999 BKN020CB 27/18 Q1015
                        NOSIG=
202003081300 METAR FMMI 081300Z 14011KT 110V190 9999 BKN020CB 27/18 Q1015
                        NOSIG=
202003081330 METAR FMMI 081330Z 12013KT 100V170 9999 VCSH SCT020CB SCT023
                        25/18 Q1015 TEMPO 4000 TSRA=
202003081332 SPECI FMMI 081332Z 17020KT 5000 RA SCT020CB SCT023 23/19
                        Q1016 TEMPO 4000 TSRA=
202003081346 SPECI COR FMMI 081346Z 15012G23KT 110V170 7000 3000NE -RA
                        SCT017CB SCT023 20/19 Q1016 TEMPO
                        4000 TSRA=
202003081400 METAR FMMI 081400Z 15014KT 120V190 6000 -RA FEW009 SCT017CB
                        BKN023 20/19 Q1017 TEMPO 4000 TSRA=
202003081430 METAR FMMI 081430Z 15009KT 120V190 9999 -RA FEW005 SCT020CB
                        BKN023 19/19 Q1017 TEMPO 4000 TSRA=
202003081500 METAR FMMI 081500Z 15006KT 110V190 9999 -RA FEW005 SCT020CB
                        19/18 Q1017 TEMPO 4000 TSRA=
202003081530 METAR FMMI 081530Z 14007KT 090V180 9999 FEW010 BKN023CB 20/18
                        Q1018 NOSIG=
202003081600 METAR FMMI 081600Z 15009KT 130V190 9999 FEW010 FEW017CB BKN020
                        19/18 Q1018 NOSIG=
202003081630 METAR FMMI 081630Z 15009KT 110V190 9999 -RA FEW010 FEW017CB
                        BKN020 19/17 Q1018 NOSIG=
202003081700 METAR FMMI 081700Z 16009KT 110V190 9999 FEW010 FEW017CB BKN020
                        19/17 Q1018 NOSIG=
202003081730 METAR FMMI 081730Z 13008KT 100V170 9999 FEW010 FEW017CB BKN020
                        19/17 Q1018 NOSIG=
202003081800 METAR FMMI 081800Z 17009KT 9999 FEW010 FEW017CB BKN020 19/17
                        Q1018 NOSIG=
202003081830 METAR FMMI 081830Z 16009KT 130V200 9999 FEW010 FEW017CB SCT020
                        19/17 Q1018 NOSIG=
202003081900 METAR FMMI 081900Z 11007KT 090V160 9999 FEW010 FEW017CB SCT020
                        19/17 Q1018 NOSIG=
202003081930 METAR FMMI 081930Z 15005KT 110V190 9999 FEW010 FEW017CB SCT020
                        19/17 Q1018 NOSIG=
202003082000 METAR FMMI 082000Z 15006KT 110V180 9999 FEW010 FEW017CB SCT020
                        20/17 Q1018 NOSIG=
202003082030 METAR FMMI 082030Z 14008KT 100V170 9999 FEW010 FEW017CB SCT020
                        19/17 Q1018 NOSIG=
202003082100 METAR FMMI 082100Z 16007KT 130V190 9999 FEW010 FEW017CB SCT020
                        19/17 Q1017 NOSIG=
202003082130 METAR FMMI 082130Z 16008KT 130V190 9999 FEW010 FEW017CB SCT020
                        19/17 Q1017 NOSIG=
202003082200 METAR FMMI 082200Z 17008KT 120V190 9999 FEW010 BKN020 19/17
                        Q1017 NOSIG=
202003082230 METAR FMMI 082230Z 14008KT 120V180 9999 FEW010 SCT020 19/17
                        Q1017 NOSIG=
202003082300 METAR FMMI 082300Z 14008KT 100V170 9999 FEW010 SCT020 19/17
                        Q1016 NOSIG=
202003082330 METAR FMMI 082330Z 16009KT 120V190 9999 FEW010 SCT020 19/17
                        Q1016 NOSIG=
202003090000 METAR FMMI 090000Z 16008KT 130V190 9999 FEW010 BKN020 19/17
                        Q1016 NOSIG=
202003090030 METAR FMMI 090030Z 15008KT 120V190 9999 FEW010 BKN020 19/17
                        Q1016 NOSIG=
202003090100 METAR FMMI 090100Z 15007KT 120V190 9999 FEW010 BKN020 19/16
                        Q1016 NOSIG=
202003090130 METAR FMMI 090130Z 17007KT 130V190 9999 FEW010 BKN020 19/17
                        Q1016 NOSIG=
202003090200 METAR FMMI 090200Z 17008KT 9999 FEW010 BKN020 19/17 Q1016
                        NOSIG=
202003090230 METAR FMMI 090230Z 16009KT 130V190 9999 FEW012 BKN020 19/17
                        Q1016 NOSIG=
202003090300 METAR FMMI 090300Z 14010KT 110V180 9999 FEW012 BKN020 19/17
                        Q1016 NOSIG=
202003090330 METAR FMMI 090330Z 14009KT 110V170 9999 FEW012 BKN020 19/16
                        Q1016 NOSIG=
202003090400 METAR FMMI 090400Z 14008KT 110V180 9999 FEW012 BKN020 20/17
                        Q1016 NOSIG=
202003090430 METAR FMMI 090430Z 14010KT 110V180 9999 FEW017 BKN020 21/17
                        Q1017 NOSIG=
202003090500 METAR FMMI 090500Z 16010KT 120V200 9999 FEW017 BKN020 22/18
                        Q1017 NOSIG=
202003090530 METAR FMMI 090530Z 16011KT 120V200 9999 FEW017 BKN020 22/17
                        Q1017 NOSIG=
202003090600 METAR FMMI 090600Z 15014KT 110V180 9999 FEW017 SCT020 23/17
                        Q1017 NOSIG=
202003090630 METAR FMMI 090630Z 14014KT 110V180 9999 FEW017 SCT020 23/17
                        Q1018 NOSIG=
202003090700 METAR FMMI 090700Z 14013KT 070V190 9999 SCT017 SCT020 23/17
                        Q1018 NOSIG=
202003090730 METAR FMMI 090730Z 14015KT 110V170 9999 SCT017 SCT020 24/17
                        Q1018 NOSIG=
202003090800 METAR FMMI 090800Z 16014G25KT 120V190 9999 SCT017 BKN020
                        25/17 Q1017 NOSIG=
202003090830 METAR FMMI 090830Z 16011KT 110V210 9999 SCT017 BKN020 25/18
                        Q1017 NOSIG=
202003090900 METAR FMMI 090900Z 16015KT 120V190 9999 BKN020 25/16 Q1017
                        NOSIG=
202003090930 METAR FMMI 090930Z 14016KT 110V170 9999 BKN020 26/17 Q1017
                        NOSIG=
202003091000 METAR FMMI 091000Z 14013KT 110V190 9999 BKN020 26/17 Q1016
                        NOSIG=
202003091030 METAR FMMI 091030Z 13015KT 100V180 9999 BKN020 26/18 Q1016
                        NOSIG=
202003091100 METAR FMMI 091100Z 13013KT 110V180 9999 SCT020 26/17 Q1016
                        NOSIG=
202003091130 METAR FMMI 091130Z 13013KT 100V170 9999 SCT020 SCT030 25/17
                        Q1015 NOSIG=
202003091200 METAR FMMI 091200Z 14013KT 120V180 9999 SCT020 SCT030 25/17
                        Q1015 NOSIG=
202003091230 METAR FMMI 091230Z 15014KT 110V190 9999 SCT020 SCT030 26/17
                        Q1015 NOSIG=
202003091300 METAR FMMI 091300Z 13013KT 100V170 9999 BKN020 25/17 Q1015
                        NOSIG=
202003091330 METAR FMMI 091330Z 14012KT 100V180 9999 SCT020CB 25/16 Q1015
                        NOSIG=
202003091400 METAR FMMI 091400Z 13012KT 110V190 9999 SCT020CB 24/16 Q1015
                        NOSIG=
202003091430 METAR FMMI 091430Z 14012KT 110V170 9999 SCT020CB 24/16 Q1016
                        NOSIG=
202003091500 METAR FMMI 091500Z 14010KT 110V170 9999 FEW020CB 22/16 Q1016
                        NOSIG=
202003091530 METAR FMMI 091530Z 15008KT 120V200 9999 FEW020CB 22/16 Q1016
                        NOSIG=
202003091600 METAR FMMI 091600Z 14009KT 9999 FEW020CB 21/17 Q1016 NOSIG=
202003091630 METAR FMMI 091630Z 16009KT 120V200 9999 FEW020CB SCT023 21/17
                        Q1017 NOSIG=
202003091700 METAR FMMI 091700Z 17010KT 130V200 9999 FEW017CB BKN020 21/17
                        Q1017 NOSIG=
202003091730 METAR FMMI 091730Z 17010KT 9999 FEW017CB BKN020 20/17 Q1018
                        NOSIG=
202003091800 METAR FMMI 091800Z 16007KT 130V190 9999 FEW017 BKN020 20/17
                        Q1018 NOSIG=
202003091830 METAR FMMI 091830Z 16009KT 120V180 9999 FEW017 BKN020 20/17
                        Q1018 NOSIG=
202003091900 METAR FMMI 091900Z 17007KT 9999 FEW017 BKN020 20/17 Q1018
                        NOSIG=
202003091930 METAR FMMI 091930Z 16006KT 110V190 9999 FEW017 BKN020 20/17
                        Q1018 NOSIG=
202003092000 METAR FMMI 092000Z 16007KT 120V190 9999 FEW017 BKN020 20/17
                        Q1018 NOSIG=
202003092030 METAR FMMI 092030Z 16009KT 9999 FEW017 SCT020 19/16 Q1018
                        NOSIG=
202003092100 METAR FMMI 092100Z 17007KT 9999 FEW017 19/16 Q1018 NOSIG=
202003092130 METAR FMMI 092130Z 17009KT 140V200 9999 FEW017 19/16 Q1017
                        NOSIG=
202003092200 METAR FMMI 092200Z 17009KT 140V200 9999 FEW017 19/16 Q1017
                        NOSIG=
202003092230 METAR FMMI 092230Z 16008KT 120V190 9999 FEW017 18/16 Q1017
                        NOSIG=
202003092300 METAR FMMI 092300Z 16008KT 130V200 9999 FEW017 SCT020 18/16
                        Q1017 NOSIG=
202003092330 METAR FMMI 092330Z 17007KT 9999 FEW017 BKN020 19/16 Q1016
                        NOSIG=
202003100000 METAR FMMI 100000Z 16006KT 9999 FEW017 BKN020 18/16 Q1016
                        NOSIG=
202003100030 METAR FMMI 100030Z 17007KT 9999 FEW017 BKN020 19/17 Q1016
                        NOSIG=
202003100100 METAR FMMI 100100Z 18008KT 9999 FEW017 BKN020 19/17 Q1016
                        NOSIG=
202003100130 METAR FMMI 100130Z 18007KT 9999 FEW017 BKN020 19/17 Q1016
                        NOSIG=
202003100200 METAR FMMI 100200Z 18008KT 150V210 9999 FEW017 BKN020 19/17
                        Q1016 NOSIG=
202003100230 METAR FMMI 100230Z 18006KT 9999 FEW017 BKN020 19/17 Q1016
                        NOSIG=
202003100300 METAR FMMI 100300Z 17007KT 9999 FEW014 BKN020 19/17 Q1016
                        NOSIG=
202003100330 METAR FMMI 100330Z 18006KT 9999 FEW016 BKN020 19/17 Q1017
                        NOSIG=
202003100400 METAR FMMI 100400Z 16007KT 130V190 9999 FEW017 SCT020 21/17
                        Q1017 NOSIG=
202003100430 METAR FMMI 100430Z 17010KT 130V200 9999 FEW017 BKN020 21/17
                        Q1017 NOSIG=
202003100500 METAR FMMI 100500Z 16010KT 130V190 9999 FEW017 BKN020 22/17
                        Q1017 NOSIG=
202003100530 METAR FMMI 100530Z 17010KT 130V190 9999 FEW017 BKN020 21/17
                        Q1017 NOSIG=
202003100600 METAR FMMI 100600Z 16013KT 120V190 9999 FEW020 SCT023 23/17
                        Q1018 NOSIG=
202003100630 METAR FMMI 100630Z 16011KT 100V190 9999 SCT020 SCT023 23/17
                        Q1018 NOSIG=
202003100700 METAR FMMI 100700Z 16014KT 130V190 9999 BKN020 23/17 Q1018
                        NOSIG=
202003100730 METAR FMMI 100730Z 15011KT 120V190 9999 BKN020 SCT023 24/17
                        Q1018 NOSIG=
202003100800 METAR FMMI 100800Z 16012KT 130V190 9999 BKN020 25/18 Q1018
                        NOSIG=
202003100830 METAR FMMI 100830Z 17011KT 130V200 9999 SCT020 25/18 Q1017
                        NOSIG=
202003100900 METAR FMMI 100900Z 16013KT 110V190 9999 SCT020 26/17 Q1017
                        NOSIG=
202003100930 METAR FMMI 100930Z 15012KT 120V190 9999 SCT020 27/18 Q1016
                        NOSIG=
202003101000 METAR FMMI 101000Z 14012KT 110V180 9999 SCT020 27/18 Q1016
                        NOSIG=
202003101030 METAR FMMI 101030Z 14011KT 110V180 9999 SCT020CB 27/19 Q1016
                        NOSIG=
202003101100 METAR FMMI 101100Z 13012G23KT 100V180 9999 SCT020CB 27/18
                        Q1016 NOSIG=
202003101130 METAR FMMI 101130Z 16013KT 9999 SCT020CB 27/17 Q1016 NOSIG=
202003101200 METAR FMMI 101200Z 17014KT 140V200 9999 SCT020CB 27/18 Q1015
                        NOSIG=
202003101230 METAR FMMI 101230Z 14011KT 110V190 9999 SCT020CB 27/17 Q1015
                        NOSIG=
202003101300 METAR FMMI 101300Z 16011KT 110V200 9999 SCT020CB 27/18 Q1015
                        NOSIG=
202003101330 METAR FMMI 101330Z 14012KT 110V180 9999 SCT020CB 24/17 Q1015
                        NOSIG=
202003101400 METAR FMMI 101400Z 16012KT 130V200 9999 SCT020CB 24/17 Q1016
                        NOSIG=
202003101430 METAR FMMI 101430Z 15010KT 120V200 9999 SCT020CB 23/16 Q1016
                        NOSIG=
202003101500 METAR FMMI 101500Z 15010KT 110V180 9999 SCT020CB 22/17 Q1016
                        NOSIG=
202003101530 METAR FMMI 101530Z 14009KT 110V170 9999 SCT020CB 22/17 Q1016
                        NOSIG=
202003101600 METAR FMMI 101600Z 14008KT 9999 SCT020CB 21/17 Q1017 NOSIG=
202003101630 METAR FMMI 101630Z 16009KT 110V200 9999 FEW017CB 21/17 Q1017
                        NOSIG=
202003101700 METAR FMMI 101700Z 16009KT 130V200 9999 FEW017CB 21/17 Q1018
                        NOSIG=
202003101730 METAR FMMI 101730Z 14008KT 120V180 9999 FEW017CB 20/17 Q1017
                        NOSIG=
202003101800 METAR FMMI 101800Z 17009KT 9999 SCT018 20/17 Q1018 NOSIG=
202003101830 METAR FMMI 101830Z 17009KT 130V200 9999 FEW017 BKN020 20/17
                        Q1018 NOSIG=
202003101900 METAR FMMI 101900Z 16008KT 120V200 9999 FEW017 BKN020 20/17
                        Q1018 NOSIG=
202003101930 METAR FMMI 101930Z 17010KT 140V200 9999 FEW017 BKN020 20/17
                        Q1018 NOSIG=
202003102000 METAR FMMI 102000Z 16009KT 9999 FEW017 BKN020 20/17 Q1019
                        NOSIG=
202003102100 METAR FMMI NIL=
202003102130 METAR FMMI 102130Z 17008KT 9999 FEW017 BKN020 20/17 Q1018
                        NOSIG=
202003102200 METAR FMMI 102200Z 18006KT 130V200 9999 FEW017 BKN020 20/17
                        Q1018 NOSIG=
202003102230 METAR FMMI 102230Z 17008KT 140V220 9999 FEW017 BKN020 20/17
                        Q1018 NOSIG=
202003102300 METAR FMMI 102300Z 17010KT 9999 FEW017 BKN020 19/18 Q1017
                        NOSIG=
202003102330 METAR FMMI 102330Z 14004KT 110V190 9999 FEW010 BKN020 19/18
                        Q1017 NOSIG=
202003110000 METAR FMMI 110000Z 16004KT 110V190 9999 FEW010 BKN020 19/17
                        Q1017 NOSIG=
202003110030 METAR FMMI 110030Z 14006KT 9999 FEW010 BKN020 19/17 Q1017
                        NOSIG=
202003110100 METAR FMMI 110100Z 15005KT 110V190 9999 FEW010 BKN020 19/17
                        Q1017 NOSIG=
202003110130 METAR FMMI 110130Z 14006KT 110V170 9999 FEW017 BKN020 19/17
                        Q1016 NOSIG=
202003110200 METAR FMMI 110200Z 16004KT 110V190 9999 FEW017 BKN020 18/17
                        Q1017 NOSIG=
202003110230 METAR FMMI 110230Z 14004KT 110V180 9999 FEW017 SCT020 18/17
                        Q1017 NOSIG=
202003110300 METAR FMMI 110300Z 18004KT 9999 FEW017 BKN020 19/17 Q1017
                        NOSIG=
202003110330 METAR FMMI 110330Z 16004KT 9999 FEW017 BKN020 19/17 Q1017
                        NOSIG=
202003110400 METAR FMMI 110400Z 16005KT 110V190 9999 FEW017 BKN020 20/18
                        Q1017 NOSIG=
202003110430 METAR FMMI 110430Z 13009KT 110V170 9999 FEW020 SCT023 21/17
                        Q1018 NOSIG=
202003110500 METAR FMMI 110500Z 15008KT 110V180 9999 FEW017 BKN020 22/17
                        Q1018 NOSIG=
202003110530 METAR FMMI 110530Z 16009KT 120V190 9999 FEW017 BKN020 22/17
                        Q1018 NOSIG=
202003110600 METAR FMMI 110600Z 15009KT 100V180 9999 FEW017 BKN020 22/17
                        Q1018 NOSIG=
202003110630 METAR FMMI 110630Z 15010KT 120V200 9999 FEW017 BKN020 24/18
                        Q1018 NOSIG=
202003110700 METAR FMMI 110700Z 15010KT 120V180 9999 FEW017 BKN020 23/18
                        Q1018 NOSIG=
202003110730 METAR FMMI 110730Z 15012KT 110V180 9999 SCT020 SCT027 25/19
                        Q1018 NOSIG=
202003110800 METAR FMMI 110800Z 14012KT 100V180 9999 SCT020 SCT027 25/18
                        Q1018 NOSIG=
202003110830 METAR FMMI 110830Z 15011KT 100V190 9999 BKN020 25/18 Q1018
                        NOSIG=
202003110900 METAR FMMI 110900Z 13013KT 100V170 9999 BKN023 26/18 Q1018
                        NOSIG=
202003110930 METAR FMMI 110930Z 14012KT 100V190 9999 BKN023 26/17 Q1017
                        NOSIG=
202003111000 METAR FMMI 111000Z 15012KT 110V200 9999 BKN023 27/17 Q1017
                        NOSIG=
202003111030 METAR FMMI 111030Z 16012KT 140V200 9999 SCT020 SCT023 26/18
                        Q1017 NOSIG=
202003111100 METAR FMMI 111100Z 15010KT 110V200 9999 SCT020 SCT023 27/18
                        Q1017 NOSIG=
202003111130 METAR FMMI 111130Z 18011KT 9999 BKN020TCU 27/18 Q1016 NOSIG=
202003111200 METAR FMMI 111200Z 14016KT 120V180 9999 SCT020CB 25/16 Q1016
                        NOSIG=
202003111230 METAR FMMI 111230Z 15012KT 120V180 9999 FEW020CB 26/16 Q1016
                        NOSIG=
202003111300 METAR FMMI 111300Z 17010KT 120V200 9999 SCT020CB 27/17 Q1016
                        NOSIG=
202003111330 METAR FMMI 111330Z 15011KT 110V180 9999 SCT020CB 26/17 Q1016
                        NOSIG=
202003111400 METAR FMMI 111400Z 15012KT 120V190 9999 FEW020CB 24/16 Q1016
                        NOSIG=
202003111430 METAR FMMI 111430Z 14010KT 110V170 9999 FEW020CB 23/17 Q1016
                        NOSIG=
202003111500 METAR FMMI 111500Z 17011KT 9999 FEW020CB 23/16 Q1017 NOSIG=
202003111530 METAR FMMI 111530Z 14010KT 100V170 9999 FEW020CB 22/17 Q1017
                        NOSIG=
202003111600 METAR FMMI 111600Z 15009KT 110V180 9999 FEW020CB 21/17 Q1018
                        NOSIG=
202003111630 METAR FMMI 111630Z 16012KT 130V200 9999 VCTS FEW020CB 21/17
                        Q1018 NOSIG=
202003111700 METAR FMMI 111700Z 16009KT 130V200 9999 FEW017 20/16 Q1018
                        NOSIG=
202003111730 METAR FMMI 111730Z 15010KT 110V180 9999 FEW017 20/17 Q1019
                        NOSIG=
202003111800 METAR FMMI 111800Z 13009KT 110V170 9999 FEW017 20/16 Q1018
                        NOSIG=
202003111830 METAR FMMI 111830Z 15009KT 110V180 9999 FEW017 SCT020 20/17
                        Q1018 NOSIG=
202003111900 METAR FMMI 111900Z 15009KT 110V180 9999 FEW017 BKN020 20/17
                        Q1018 NOSIG=
202003111930 METAR FMMI 111930Z 15007KT 110V190 9999 FEW017 BKN020 20/17
                        Q1019 NOSIG=
202003112000 METAR FMMI 112000Z 15007KT 110V190 9999 FEW017 BKN020 20/17
                        Q1018 NOSIG=
202003112000 METAR FMMI 112000Z 15007KT 110V190 9999 FEW017 BKN020 20/17
                        Q1018 NOSIG=
202003112030 METAR FMMI 112030Z 17007KT 130V190 9999 FEW017 BKN020 19/16
                        Q1018 NOSIG=
202003112100 METAR FMMI 112100Z 16008KT 130V190 9999 FEW017 BKN020 19/16
                        Q1018 NOSIG=
202003112130 METAR FMMI 112130Z 18007KT 9999 FEW017 BKN020 20/16 Q1018
                        NOSIG=
202003112200 METAR FMMI 112200Z 17010KT 9999 FEW017 BKN020 20/16 Q1018
                        NOSIG=
202003112230 METAR FMMI 112230Z 17009KT 130V200 9999 FEW017 BKN020 20/16
                        Q1017 NOSIG=
202003112300 METAR FMMI 112300Z 17008KT 9999 FEW017 BKN020 20/16 Q1017
                        NOSIG=
202003112330 METAR FMMI 112330Z 18008KT 9999 FEW017 BKN020 19/16 Q1017
                        NOSIG=
202003120000 METAR FMMI 120000Z 17008KT 9999 FEW017 BKN020 20/16 Q1017
                        NOSIG=
202003120030 METAR FMMI 120030Z 17007KT 9999 FEW017 BKN020 19/17 Q1017
                        NOSIG=
202003120100 METAR FMMI 120100Z 18007KT 9999 FEW017 BKN020 19/17 Q1017
                        NOSIG=
202003120130 METAR FMMI 120130Z 16007KT 130V200 9999 FEW017 BKN020 19/17
                        Q1017 NOSIG=
202003120200 METAR FMMI 120200Z 17008KT 130V190 9999 FEW017 BKN020 19/17
                        Q1017 NOSIG=
202003120230 METAR FMMI 120230Z 15006KT 9999 FEW012 BKN020 19/17 Q1017
                        NOSIG=
202003120300 METAR FMMI 120300Z 16004KT 9999 FEW012 BKN020 19/17 Q1018
                        NOSIG=
202003120330 METAR FMMI 120330Z 16006KT 120V190 9999 FEW016 BKN020 19/17
                        Q1018 NOSIG=
202003120400 METAR FMMI 120400Z 17007KT 9999 FEW016 BKN020 19/16 Q1018
                        NOSIG=
202003120430 METAR FMMI 120430Z 16007KT 130V200 9999 FEW017 BKN020 20/16
                        Q1018 NOSIG=
202003120500 METAR FMMI 120500Z 16008KT 110V200 9999 SCT017 22/17 Q1019
                        NOSIG=
202003120530 METAR FMMI 120530Z 15011KT 120V190 9999 BKN017 23/17 Q1019
                        NOSIG=
202003120600 METAR FMMI 120600Z 14011KT 110V180 9999 BKN017 24/17 Q1019
                        NOSIG=
202003120630 METAR FMMI 120630Z 17011KT 9999 BKN017 22/16 Q1019 NOSIG=
202003120700 METAR FMMI 120700Z 15012KT 120V190 9999 BKN017 24/16 Q1019
                        NOSIG=
202003120730 METAR FMMI 120730Z 13012KT 100V180 9999 BKN020 25/17 Q1019
                        NOSIG=
202003120800 METAR FMMI 120800Z 16011KT 110V190 9999 BKN020 26/17 Q1018
                        NOSIG=
202003120830 METAR FMMI 120830Z 16011KT 110V190 9999 BKN020 27/17 Q1018
                        NOSIG=
202003120900 METAR FMMI 120900Z 13012KT 100V190 9999 BKN020 26/17 Q1018
                        NOSIG=
202003120930 METAR FMMI 120930Z 14012KT 110V180 9999 BKN023 27/17 Q1018
                        NOSIG=
202003121000 METAR FMMI 121000Z 14013KT 110V180 9999 BKN023 27/16 Q1018
                        NOSIG=
202003121030 METAR FMMI 121030Z 15011KT 120V190 9999 BKN023 27/16 Q1017
                        NOSIG=
202003121100 METAR FMMI 121100Z 15010KT 110V180 9999 BKN023 27/15 Q1017
                        NOSIG=
202003121130 METAR FMMI 121130Z 15011KT 120V180 9999 BKN023 27/17 Q1017
                        NOSIG=
202003121200 METAR FMMI 121200Z 15011KT 110V200 9999 SCT020 27/15 Q1017
                        NOSIG=
202003121230 METAR FMMI 121230Z 16011KT 130V190 9999 SCT023CB 26/16 Q1016
                        NOSIG=
202003121300 METAR FMMI 121300Z 16012KT 130V190 9999 SCT023CB 26/14 Q1016
                        NOSIG=
202003121330 METAR FMMI 121330Z 15011KT 9999 SCT023CB 26/14 Q1017 NOSIG=
202003121400 METAR FMMI 121400Z 15011KT 120V190 9999 FEW023CB 26/14 Q1016
                        NOSIG=
202003121430 METAR FMMI 121430Z 14010KT 110V180 9999 FEW020CB 25/15 Q1017
                        NOSIG=
202003121500 METAR FMMI 121500Z 13012KT 9999 FEW020CB 23/15 Q1017 NOSIG=
202003121530 METAR FMMI 121530Z 14008KT 110V180 9999 FEW020CB 22/16 Q1018
                        NOSIG=
202003121600 METAR FMMI 121600Z 14007KT 110V180 9999 FEW020CB 22/16 Q1018
                        NOSIG=
202003121630 METAR FMMI 121630Z 14010KT 110V170 9999 FEW020CB 21/17 Q1019
                        NOSIG=
202003121700 METAR FMMI 121700Z 13010KT 110V190 9999 FEW020CB 21/16 Q1019
                        NOSIG=
202003121730 METAR FMMI 121730Z 14008KT 110V180 9999 FEW020CB 20/16 Q1019
                        NOSIG=
202003121800 METAR FMMI 121800Z 15008KT 120V180 9999 FEW020CB 20/16 Q1019
                        NOSIG=
202003121830 METAR FMMI 121830Z 15009KT 120V180 9999 FEW015 19/16 Q1019
                        NOSIG=
202003121900 METAR FMMI 121900Z 17008KT 140V200 9999 FEW015 19/16 Q1019
                        NOSIG=
202003121930 METAR FMMI 121930Z 15008KT 110V180 9999 FEW015 19/16 Q1019
                        NOSIG=
202003122000 METAR FMMI 122000Z 14009KT 110V170 9999 FEW015 19/16 Q1019
                        NOSIG=
202003122000 METAR FMMI 122000Z 14009KT 110V170 9999 FEW015 19/16 Q1019
                        NOSIG=
202003122030 METAR FMMI 122030Z 15008KT 110V180 9999 FEW017 18/15 Q1019
                        NOSIG=
202003122100 METAR FMMI 122100Z 17008KT 9999 FEW017 18/15 Q1019 NOSIG=
202003122100 METAR FMMI 122100Z 17008KT 9999 FEW017 18/15 Q1019 NOSIG=
202003122130 METAR FMMI 122130Z 16007KT 130V190 9999 FEW017 18/14 Q1019
                        NOSIG=
202003122200 METAR FMMI 122200Z 17009KT 9999 FEW017 18/14 Q1018 NOSIG=
202003122230 METAR FMMI 122230Z 18009KT 9999 FEW017 17/14 Q1018 NOSIG=
202003122300 METAR FMMI 122300Z 17008KT 140V200 9999 FEW017 17/14 Q1018
                        NOSIG=
202003122330 METAR FMMI 122330Z 19009KT 150V210 9999 FEW017 16/14 Q1018
                        NOSIG=
202003130000 METAR FMMI 130000Z 18010KT 9999 FEW017 16/14 Q1017 NOSIG=

# No short TAF reports from FMMI in databse.

###################################
#  large TAF from FMMI
###################################
202003010500 TAF FMMI 010500Z 0106/0212 VRB06KT 9999 FEW017 SCT020
                      BECMG 0108/0110 SCT020CB
                      PROB40 TEMPO 0116/0121 VRB16KT 4000 TSRA
                       BECMG 0121/0123 FEW010 BKN020
                      PROB40 TEMPO 0121/0203 4000 DZRA=
202003011100 TAF FMMI 011100Z 0112/0218 30006KT 9999 SCT020CB SCT023
                      PROB40 TEMPO 0116/0121 16015KT 4000 TSRA
                       BECMG 0121/0123 FEW010 BKN020
                      PROB30 TEMPO 0121/0204 4500 DZRA
                      BECMG 0206/0209 12010KT=
202003011700 TAF FMMI 011700Z 0118/0224 VRB06KT 9999 SCT017CB BKN020
                      PROB40 TEMPO 0118/0120 4000 TSRA
                      PROB40 TEMPO 0120/0205 4000 DZRA
                      PROB30 TEMPO 0209/0212 4000 SHRA
                      PROB40 TEMPO 0212/0222 VRB16KT 4000 TSRA=
202003012300 TAF FMMI 012300Z 0200/0306 VRB06KT 9999 FEW010 BKN020
                      PROB30 TEMPO 0200/0206 4000 DZRA
                      BECMG 0209/0212 SCT017CB BKN020
                      PROB30 TEMPO 0210/0213 4000 SHRA
                      PROB40 TEMPO 0213/0222 VRB16KT 4000 TSRA
                       BECMG 0220/0224 FEW010 BKN020=
202003020500 TAF FMMI 020500Z 0206/0312 12008KT 9999 FEW017 BKN020
                      BECMG 0209/0212 SCT017CB BKN020
                      PROB30 TEMPO 0210/0213 4000 SHRA
                      PROB40 TEMPO 0213/0220 18015KT 4000 TSRA
                       BECMG 0220/0224 FEW010 BKN020
                      PROB30 TEMPO 0220/0303 4500 RA=
202003021100 TAF FMMI 021100Z 0212/0318 06009KT 9999 SCT017CB BKN020
                      TEMPO 0212/0214 4500 RA
                      TEMPO 0214/0220 3500 TSRA
                      BECMG 0220/0224 FEW010 SCT017 BKN020
                      TEMPO 0220/0303 4500 RA
                      BECMG 0310/0312 SCT020CB BKN023
                      PROB30 TEMPO 0312/0318 4500 TSRA=
202003021700 TAF FMMI 021700Z 0218/0324 12008KT 9999 SCT017CB SCT020
                      PROB40 TEMPO 0218/0222 4000 TSRA
                      BECMG 0220/0222 FEW010 BKN020
                      PROB40 TEMPO 0220/0304 4000 RA
                      BECMG 0310/0312 SCT020CB BKN023
                      PROB30 TEMPO 0312/0318 4500 TSRA=
202003022300 TAF FMMI 022300Z 0300/0406 13008KT 9999 FEW010 BKN020
                      PROB30 TEMPO 0300/0304 4000 RA
                      BECMG 0309/0312 SCT020CB BKN023
                      PROB30 TEMPO 0312/0318 4500 TSRA
                      BECMG 0319/0322 FEW010 BKN020=
202003030500 TAF FMMI 030500Z 0306/0412 13008KT 9999 FEW010 BKN020
                      BECMG 0309/0312 SCT020CB BKN023
                      PROB30 TEMPO 0312/0318 4500 TSRA
                      BECMG 0319/0322 FEW010 BKN020=
202003031100 TAF FMMI 031100Z 0312/0418 14004KT 9999 BKN020
                      PROB30 TEMPO 0315/0320 4500 RADZ
                      BECMG 0318/0320
                      PROB40 TEMPO 0400/0404 4500=
202003031145 TAF COR FMMI 031145Z 0312/0418 14004KT 9999 BKN020
                      PROB30 TEMPO 0315/0320 4500 RADZ
                      PROB40 TEMPO 0400/0404 4500 RADZ
                      BECMG 0408/0410 14014KT SCT020CB
                      PROB30 TEMPO 0412/0418 4000 TSRA=
202003031700 TAF FMMI 031700Z 0318/0424 10010KT 9999 FEW007 BKN020
                      BECMG 0408/0410 16014KT SCT020CB
                      BECMG 0415/0418 10008KT FEW007 BKN020=
202003032300 TAF FMMI 032300Z 0400/0506 10008KT 9999 FEW007 BKN020
                      TEMPO 0400/0406 4800 RADZ
                      BECMG 0408/0410 SCT020CB SCT040
                      PROB40 TEMPO 0412/0418 4500 TSRA
                      BECMG 0417/0420 FEW007 SCT017 BKN020=
202003040500 TAF FMMI 040500Z 0406/0512 14014KT 9999 FEW017 BKN020
                      BECMG 0410/0412 BKN020CB
                      PROB40 TEMPO 0413/0418 4500 TSRA
                      BECMG 0418/0420 16004KT FEW017 BKN020
                      TEMPO 0509/0512 14015G25KT=
202003041100 TAF FMMI 041100Z 0412/0518 12010KT 9999 SCT020CB
                      PROB40 TEMPO 0418/0423 4500 TSRA
                      BECMG 0420/0422 FEW017 BKN020
                      TEMPO 0509/0512 14025KT=
202003041700 TAF FMMI 041700Z 0418/0524 14008KT 9999 FEW017 BKN020
                      PROB30 TEMPO 0418/0422 4500 DZRA=
202003042300 TAF FMMI 042300Z 0500/0606 14008KT 9999 FEW017 BKN020
                      TEMPO 0508/0515 14018KT=
202003050500 TAF FMMI 050500Z 0506/0612 16010KT 9999 FEW017 BKN020
                      TEMPO 0508/0515 14020KT=
202003051100 TAF FMMI 051100Z 0512/0618 16012G22KT 9999 SCT020
                      BECMG 0512/0514 FEW017CB SCT020
                      BECMG 0516/0520 FEW017 BKN020=
202003051700 TAF FMMI 051700Z 0518/0624 15010KT 9999 FEW017 BKN020=
202003052300 TAF FMMI 052300Z 0600/0706 16008KT 9999 FEW017 BKN020
                      BECMG 0610/0613 26010KT
                      BECMG 0618/0620 14006KT=
202003060500 TAF FMMI 060500Z 0606/0712 VRB06KT 9999 SCT020=
202003061100 TAF FMMI 061100Z 0612/0718 14008KT 9999 SCT020
                      BECMG 0710/0713 SCT020CB SCT023
                      PROB30 TEMPO 0714/0718 4000 TSRA=
202003061700 TAF FMMI 061700Z 0618/0724 VRB06KT 9999 FEW017TCU BKN020
                      BECMG 0708/0712 SCT017CB SCT020
                      PROB40 TEMPO 0714/0723 VRB16KT 4000 TSRA=
202003062300 TAF FMMI 062300Z 0700/0806 VRB06KT 9999 FEW007 BKN020
                      BECMG 0708/0712 SCT017CB SCT020
                      PROB40 TEMPO 0714/0723 VRB16KT 4000 TSRA
                       BECMG 0723/0801 FEW010 BKN020=
202003070500 TAF FMMI 070500Z 0706/0812 14008KT 9999 FEW017 BKN020
                      BECMG 0709/0712 SCT017CB SCT020
                      PROB40 TEMPO 0713/0721 08015KT 4000 TSRA
                       BECMG 0723/0801 FEW010 BKN020=
202003071100 TAF FMMI 071100Z 0712/0818 14013KT 9999 BKN020CB
                      PROB40 TEMPO 0713/0721 4000 TSRA
                      BECMG 0720/0723 VRB03KT FEW007 BKN020
                      TEMPO 0800/0803 4800 RA
                      BECMG 0808/0810 08013KT SCT020CB BKN023=
202003071700 TAF FMMI 071700Z 0718/0824 14010KT 9999 FEW007 SCT017CB BKN020
                       PROB40
                      TEMPO 0718/0804 4000 TSRA
                      BECMG 0721/0723 FEW010 BKN020
                      BECMG 0808/0811 SCT020CB BKN023
                      PROB30 TEMPO 0814/0820 4500 TSRA=
202003072300 TAF FMMI 072300Z 0800/0906 16010KT 9999 FEW007 BKN020
                      PROB40 TEMPO 0800/0805 4000 RADZ
                      PROB30 TEMPO 0806/0814 14020G30KT
                      BECMG 0808/0811 SCT020CB SCT023
                      PROB30 TEMPO 0814/0820 4500 TSRA
                      BECMG 0818/0821 FEW010 SCT020=
202003080500 TAF FMMI 080500Z 0806/0912 16010KT 9999 FEW017 BKN020
                      PROB40 TEMPO 0808/0814 14020G30KT
                      BECMG 0808/0811 SCT020CB SCT023
                      PROB30 TEMPO 0814/0820 4500 TSRA
                      BECMG 0820/0822 FEW007 BKN020=
202003081100 TAF FMMI 081100Z 0812/0918 16010KT 9999 SCT020CB SCT023
                      PROB30 TEMPO 0812/0816 4000 TSRA
                      BECMG 0818/0820 FEW017 BKN020=
202003081700 TAF FMMI 081700Z 0818/0924 16010KT 9999 SCT017CB BKN020
                      TEMPO 0818/0820 TSRA
                      BECMG 0820/0822 FEW007 BKN020
                      PROB40 TEMPO 0911/0914 16020G30KT=
202003082300 TAF FMMI 082300Z 0900/1006 16006KT 9999 FEW010 BKN020
                      BECMG 0910/0912 SCT020CB SCT023
                      PROB40 TEMPO 0911/0914 16016G28KT
                      PROB30 TEMPO 0913/0918 4500 TSRA
                      BECMG 0920/0922 FEW007 BKN020=
202003090500 TAF FMMI 090500Z 0906/1012 16012KT 9999 FEW017 BKN020
                      BECMG 0910/0912 SCT020CB SCT023
                      PROB30 TEMPO 0912/0914 4500 RA
                      BECMG 0920/0922 FEW017 BKN020=
202003091100 TAF FMMI 091100Z 0912/1018 14014KT 9999 SCT020CB SCT023
                      PROB30 TEMPO 0914/0916 4500 SHRA
                      BECMG 0920/0922 FEW017 SCT020=
202003091700 TAF FMMI 091700Z 0918/1024 16006KT 9999 FEW017 SCT020
                      BECMG 1004/1006 14016KT
                      BECMG 1012/1014 SCT020CB
                      PROB30 TEMPO 1016/1020 4500 RA
                      BECMG 1018/1020 16006KT FEW017 BKN020=
202003092300 TAF FMMI 092300Z 1000/1106 16006KT 9999 FEW017 SCT020
                      BECMG 1004/1006 14016KT
                      BECMG 1012/1014 SCT020CB
                      PROB30 TEMPO 1016/1018 4500 RADZ
                      BECMG 1018/1020 16006KT FEW017 BKN020=
202003100500 TAF FMMI 100500Z 1006/1112 16010KT 9999 FEW017 SCT020
                      BECMG 1012/1014 SCT020CB
                      PROB30 TEMPO 1015/1022 4500 RADZ
                      BECMG 1018/1020 FEW017 BKN020=
202003101100 TAF FMMI 101100Z 1012/1118 15012G22KT 9999 FEW017 BKN020
                      BECMG 1012/1013 SCT020CB
                      BECMG 1015/1018 FEW017 SCT020
                      BECMG 1110/1113 FEW020CB BKN023=
202003101700 TAF FMMI 101700Z 1018/1124 16010KT 9999 FEW017 SCT020
                      BECMG 1110/1113 FEW020CB BKN023
                      PROB30 1112/1118 4000 RADZ=
202003102300 TAF FMMI 102300Z 1100/1206 16010KT 9999 FEW017 BKN020
                      BECMG 1110/1113 FEW020CB BKN023
                      PROB30 1114/1120 4000 RADZ
                      BECMG 1118/1120 FEW017 SCT020=
202003110500 TAF FMMI 110500Z 1106/1212 16010G20KT 9999 FEW017 BKN020
                      BECMG 1109/1112 FEW020CB BKN023
                      BECMG 1118/1121 FEW017 SCT020=
202003111100 TAF FMMI 111100Z 1112/1218 14010KT 9999 FEW017CB SCT020
                      BECMG 1118/1121 FEW017 BKN020
                      BECMG 1210/1213 FEW017CB SCT020=
202003111700 TAF FMMI 111700Z 1118/1224 15010KT 9999 FEW017CB SCT020
                      BECMG 1118/1120 FEW017 BKN020
                      BECMG 1210/1213 FEW017CB SCT020
                      BECMG 1216/1218 FEW017 SCT020=
202003112300 TAF FMMI 112300Z 1200/1306 15010KT 9999 FEW017 SCT020
                      BECMG 1210/1213 FEW017CB SCT020
                      BECMG 1216/1218 FEW017 SCT020=
202003120500 TAF FMMI 120500Z 1206/1312 15012KT 9999 FEW017 BKN020
                      BECMG 1210/1213 FEW017CB SCT020
                      BECMG 1217/1220 FEW017 SCT020=
202003121100 TAF FMMI 121100Z 1212/1318 14014KT 9999 FEW017CB SCT020
                      BECMG 1217/1220 FEW017 SCT020=
202003121700 TAF FMMI 121700Z 1218/1324 14010KT 9999 FEW017CB SCT020
                      BECMG 1220/1222 FEW017 BKN020
                      BECMG 1310/1313 FEW017CB SCT020=
202003122300 TAF FMMI 122300Z 1300/1406 16010KT 9999 FEW017 SCT020
                      BECMG 1310/1313 FEW017CB SCT020
                      BECMG 1318/1321 FEW017 SCT020=





